id,full_name,email_address,password,phone,street_address,city,postal_code,country,__line
1,Herb Trenbay,htrenbay0@cnbc.com,9c11b9c3e2bedca67223bec64e8dde1a609d1f94,3063985542,382 Ridge Oak Street,Lowayu,,Indonesia,2
2,Guy Lemar,glemar1@dion.ne.jp,9c11b9c3e2bedca67223bec64e8dde1a609d1f94,6353575368,86209 Fuller Lane,Margarita,133028,Colombia,3
3,Joceline Bushel,jbushel2@google.it,9c11b9c3e2bedca67223bec64e8dde1a609d1f94,8653126905,7 Arapahoe Parkway,Nanterre,92024 CEDEX,France,4
4,Matthiew Dhennin,mdhennin3@illinois.edu,9c11b9c3e2bedca67223bec64e8dde1a609d1f94,2235560065,4 Fuller Alley,Dawu Chengguanzhen,,China,5
5,Selinda Fibben,sfibben4@tinyurl.com,9c11b9c3e2bedca67223bec64e8dde1a609d1f94,5041814531,847 Golf Pass,Kuanghe,,China,6
6,Lilia Michie,lmichie5@house.gov,9c11b9c3e2bedca67223bec64e8dde1a609d1f94,3667760573,5 Evergreen Crossing,Kupahandap,,Indonesia,7
7,Fenelia Tefft,ftefft6@disqus.com,9c11b9c3e2bedca67223bec64e8dde1a609d1f94,7205435282,2823 Nevada Junction,Plumbon,,Indonesia,8
8,Anastasie Atrill,aatrill7@yellowbook.com,9c11b9c3e2bedca67223bec64e8dde1a609d1f94,9604549386,0583 Superior Point,Okpoga,,Nigeria,9
9,Hall Stringman,hstringman8@biglobe.ne.jp,9c11b9c3e2bedca67223bec64e8dde1a609d1f94,4642597695,3554 Hansons Alley,Vilhelmina,912 99,Sweden,10
10,Goldarina Chasles,gchasles9@who.int,9c11b9c3e2bedca67223bec64e8dde1a609d1f94,7606984712,8 Everett Terrace,Menongue,,Angola,11
11,Archie Brion,abriona@nyu.edu,9c11b9c3e2bedca67223bec64e8dde1a609d1f94,2737034735,81745 Kingsford Park,Bal’shavik,,Belarus,12
12,Cari Beckensall,cbeckensallb@dailymotion.com,9c11b9c3e2bedca67223bec64e8dde1a609d1f94,2737644408,22 Lien Alley,Gambaru,,Nigeria,13
13,Kippie Grievson,kgrievsonc@msn.com,9c11b9c3e2bedca67223bec64e8dde1a609d1f94,6945140172,19387 Dunning Alley,Segezha,186424,Russia,14
14,Harmonia Hayman,hhaymand@howstuffworks.com,9c11b9c3e2bedca67223bec64e8dde1a609d1f94,8736201207,3140 Summit Parkway,Wieczfnia Kościelna,06-513,Poland,15
15,Linoel Manktelow,lmanktelowe@google.nl,9c11b9c3e2bedca67223bec64e8dde1a609d1f94,1179588316,49 Sunbrook Alley,Kuzhu,,China,16
16,Raffarty MacKean,rmackeanf@g.co,9c11b9c3e2bedca67223bec64e8dde1a609d1f94,2677578624,73 Onsgard Center,Stupsk,06-561,Poland,17
17,Alexa Jaulmes,ajaulmesg@sun.com,9c11b9c3e2bedca67223bec64e8dde1a609d1f94,2965998444,1 Schlimgen Trail,Macedo de Cavaleiros,5340-197,Portugal,18
18,Celinda Todarini,ctodarinih@mit.edu,9c11b9c3e2bedca67223bec64e8dde1a609d1f94,8047398255,51 Bay Alley,Kolsh,,Albania,19
19,Darby Sange,dsangei@disqus.com,9c11b9c3e2bedca67223bec64e8dde1a609d1f94,7601438766,1833 Independence Junction,Ilyich,,Kazakhstan,20
20,Jannel Goodlet,jgoodletj@army.mil,9c11b9c3e2bedca67223bec64e8dde1a609d1f94,4365302998,70 Utah Place,Sabhā,,Libya,21
21,Sarina Woolis,swoolisk@people.com.cn,9c11b9c3e2bedca67223bec64e8dde1a609d1f94,1004744251,6680 Service Crossing,Gampola,20500,Sri Lanka,22
22,Wynnie Raddon,wraddonl@acquirethisname.com,9c11b9c3e2bedca67223bec64e8dde1a609d1f94,6295401128,5791 Center Center,Mandaon,5411,Philippines,23
23,Darrin Rate,dratem@yandex.ru,9c11b9c3e2bedca67223bec64e8dde1a609d1f94,2035115104,168 Wayridge Junction,Grubišno Polje,43290,Croatia,24
24,Sapphire Simonson,ssimonsonn@earthlink.net,9c11b9c3e2bedca67223bec64e8dde1a609d1f94,2996097075,989 Merry Crossing,Ijuí,98700-000,Brazil,25
25,Krystalle Greetland,kgreetlando@liveinternet.ru,9c11b9c3e2bedca67223bec64e8dde1a609d1f94,8326765786,39 Artisan Hill,Kańczuga,37-220,Poland,26
26,Dallas Abeau,dabeaup@bloglovin.com,9c11b9c3e2bedca67223bec64e8dde1a609d1f94,4959054344,90860 Kingsford Place,San Jose,41963,Mexico,27
27,Rowena Menghi,rmenghiq@arizona.edu,9c11b9c3e2bedca67223bec64e8dde1a609d1f94,7564611708,4060 Moulton Street,Morant Bay,,Jamaica,28
28,Alexandros Van Saltsberg,avansaltsbergr@mozilla.com,9c11b9c3e2bedca67223bec64e8dde1a609d1f94,5434865413,753 Fair Oaks Park,Волочаевское,238346,Russia,29
29,Llewellyn Winterbotham,lwinterbothams@issuu.com,9c11b9c3e2bedca67223bec64e8dde1a609d1f94,4899770162,7700 Crest Line Lane,Pavia,7490-405,Portugal,30
30,Augusta Morhall,amorhallt@hc360.com,9c11b9c3e2bedca67223bec64e8dde1a609d1f94,3083931754,76748 Schiller Trail,Picassinos,2430-418,Portugal,31
31,Joan Gelderd,jgelderdu@chronoengine.com,9c11b9c3e2bedca67223bec64e8dde1a609d1f94,3648729034,5 Butternut Place,Kamba,,Nigeria,32
32,Ab Caldero,acalderov@home.pl,9c11b9c3e2bedca67223bec64e8dde1a609d1f94,2801517994,88951 Summerview Avenue,Sukorejo,,Indonesia,33
33,Francklyn Habron,fhabronw@ebay.co.uk,9c11b9c3e2bedca67223bec64e8dde1a609d1f94,6074815211,358 Novick Center,Zhangshui,,China,34
34,Amory Leborgne,aleborgnex@rediff.com,9c11b9c3e2bedca67223bec64e8dde1a609d1f94,8844153281,10982 Park Meadow Drive,Sydney,1043,Australia,35
35,Curt Lindenstrauss,clindenstraussy@hostgator.com,9c11b9c3e2bedca67223bec64e8dde1a609d1f94,8906169064,11 Dahle Center,Placer,8405,Philippines,36
36,Lilly Tremoille,ltremoillez@un.org,9c11b9c3e2bedca67223bec64e8dde1a609d1f94,4225164417,11 Sachtjen Crossing,Al Qadarif,,Sudan,37
37,Allsun Hryskiewicz,ahryskiewicz10@is.gd,9c11b9c3e2bedca67223bec64e8dde1a609d1f94,8779593077,02424 Meadow Ridge Pass,Heemskerk,1964,Netherlands,38
38,Nigel Moyne,nmoyne11@cnet.com,9c11b9c3e2bedca67223bec64e8dde1a609d1f94,9267409371,36748 Bunker Hill Street,Dahe,,China,39
39,Tony Giamitti,tgiamitti12@technorati.com,9c11b9c3e2bedca67223bec64e8dde1a609d1f94,5188308393,81 Corscot Road,Yanahuanca,,Peru,40
40,Eugenius Foulgham,efoulgham13@bloomberg.com,9c11b9c3e2bedca67223bec64e8dde1a609d1f94,1664229041,1 Fairview Plaza,El Bolsón,8430,Argentina,41
41,Curr Dawkins,cdawkins14@marriott.com,9c11b9c3e2bedca67223bec64e8dde1a609d1f94,4886408927,09981 Stang Alley,Santa Eulalia,,Peru,42
42,Wiatt O'Dowgaine,wodowgaine15@trellian.com,9c11b9c3e2bedca67223bec64e8dde1a609d1f94,4687050068,4 Anniversary Alley,Główczyce,76-220,Poland,43
43,Brok Toppas,btoppas16@gmpg.org,9c11b9c3e2bedca67223bec64e8dde1a609d1f94,4995911488,54 Forster Drive,Těšetice,783 46,Czech Republic,44
44,Jannelle Tillot,jtillot17@flavors.me,9c11b9c3e2bedca67223bec64e8dde1a609d1f94,8975644023,60396 Nobel Circle,San Jacinto,5417,Philippines,45
45,Sauveur McGifford,smcgifford18@dmoz.org,9c11b9c3e2bedca67223bec64e8dde1a609d1f94,9528993587,30414 Holy Cross Alley,Manuel Antonio Mesones Muro,,Peru,46
46,Gardiner Looby,glooby19@odnoklassniki.ru,9c11b9c3e2bedca67223bec64e8dde1a609d1f94,2878275304,66942 Hauk Drive,Samdo,,China,47
47,Eimile MacCathay,emaccathay1a@hibu.com,9c11b9c3e2bedca67223bec64e8dde1a609d1f94,7506255312,101 Heath Place,Tiang,,Indonesia,48
48,Mandi Shardlow,mshardlow1b@flavors.me,9c11b9c3e2bedca67223bec64e8dde1a609d1f94,8856380190,4529 Arizona Way,Cruzeiro,3700-364,Portugal,49
49,Ebba Bosche,ebosche1c@icio.us,9c11b9c3e2bedca67223bec64e8dde1a609d1f94,1192802797,8 Graedel Park,Banjar Bengkelgede,,Indonesia,50
50,Broderic Quinion,bquinion1d@skyrock.com,9c11b9c3e2bedca67223bec64e8dde1a609d1f94,9593447906,36119 Golf Street,Groznyy,385798,Russia,51
51,Andre Labuschagne,alabuschagne1e@dell.com,9c11b9c3e2bedca67223bec64e8dde1a609d1f94,8173317764,480 Vahlen Center,Banqiao,,China,52
52,Lacie Stathor,lstathor1f@bloomberg.com,9c11b9c3e2bedca67223bec64e8dde1a609d1f94,4352082564,7365 Merrick Point,Sumberbatas,,Indonesia,53
53,Bridgette Berendsen,bberendsen1g@cnet.com,9c11b9c3e2bedca67223bec64e8dde1a609d1f94,1188796397,93994 Commercial Street,Palmital,19970-000,Brazil,54
54,Fransisco Leedes,fleedes1h@illinois.edu,9c11b9c3e2bedca67223bec64e8dde1a609d1f94,1345428113,72305 Almo Alley,Tangga,,Indonesia,55
55,Siffre Lobell,slobell1i@amazonaws.com,9c11b9c3e2bedca67223bec64e8dde1a609d1f94,3322074995,3 Butterfield Point,Karasuyama,300-0836,Japan,56
56,Aubrey Angell,aangell1j@furl.net,9c11b9c3e2bedca67223bec64e8dde1a609d1f94,5544600164,9446 Corben Crossing,Shuanglong,,China,57
57,Clair Glozman,cglozman1k@ycombinator.com,9c11b9c3e2bedca67223bec64e8dde1a609d1f94,2311121006,287 Maple Wood Court,Donnybrook,D04,Ireland,58
58,Maddie Pomfrey,mpomfrey1l@webeden.co.uk,9c11b9c3e2bedca67223bec64e8dde1a609d1f94,6194195136,9265 Ryan Parkway,Kemendung,,Indonesia,59
59,Konrad Allsepp,kallsepp1m@ycombinator.com,9c11b9c3e2bedca67223bec64e8dde1a609d1f94,7347635668,7 Shelley Way,Dearborn,48126,United States,60
60,Merrill Kinghorn,mkinghorn1n@ihg.com,9c11b9c3e2bedca67223bec64e8dde1a609d1f94,3049013803,414 Mallard Avenue,Doroslovo,,Serbia,61
61,Eustacia Balham,ebalham1o@sogou.com,9c11b9c3e2bedca67223bec64e8dde1a609d1f94,9945891484,0153 5th Center,Guohuan,,China,62
62,Berkeley Keys,bkeys1p@uiuc.edu,9c11b9c3e2bedca67223bec64e8dde1a609d1f94,9085123329,1612 Scoville Avenue,Siyabuswa,1030,South Africa,63
63,Hayward Woodfine,hwoodfine1q@360.cn,9c11b9c3e2bedca67223bec64e8dde1a609d1f94,2275179666,978 Hayes Crossing,Kebunkelapa,,Indonesia,64
64,Bogey Van der Veldt,bvanderveldt1r@ask.com,9c11b9c3e2bedca67223bec64e8dde1a609d1f94,3065134365,66 Forest Junction,Lokatadho,,Indonesia,65
65,Rollo Bedrosian,rbedrosian1s@tmall.com,9c11b9c3e2bedca67223bec64e8dde1a609d1f94,1726896563,8 Pleasure Circle,Kama,427997,Russia,66
66,Lynnell Stollwerck,lstollwerck1t@disqus.com,9c11b9c3e2bedca67223bec64e8dde1a609d1f94,5311201519,18 Veith Plaza,Ngou,,Cameroon,67
67,Adey Weldrick,aweldrick1u@phpbb.com,9c11b9c3e2bedca67223bec64e8dde1a609d1f94,6586359285,65 Delladonna Hill,Areado,37140-000,Brazil,68
68,Victoria Sivell,vsivell1v@etsy.com,9c11b9c3e2bedca67223bec64e8dde1a609d1f94,3762829470,0502 Novick Street,Tanahbeureum,,Indonesia,69
69,Janessa Kennefick,jkennefick1w@ed.gov,9c11b9c3e2bedca67223bec64e8dde1a609d1f94,5706754957,153 Vidon Crossing,Mapiri,,Bolivia,70
70,Morie Garlett,mgarlett1x@accuweather.com,9c11b9c3e2bedca67223bec64e8dde1a609d1f94,5219279441,53 Bunker Hill Street,Aoji-ri,,North Korea,71
71,Fina Goldman,fgoldman1y@4shared.com,9c11b9c3e2bedca67223bec64e8dde1a609d1f94,6469290713,69374 Farmco Point,Dolní Rychnov,356 04,Czech Republic,72
72,Alie Chesters,achesters1z@comsenz.com,9c11b9c3e2bedca67223bec64e8dde1a609d1f94,9969031036,7 Maple Trail,McKinley,6214,Philippines,73
73,Karia Grombridge,kgrombridge20@desdev.cn,9c11b9c3e2bedca67223bec64e8dde1a609d1f94,3952223074,56 Kensington Parkway,Chechenglu,,China,74
74,Fanchon Mechic,fmechic21@hao123.com,9c11b9c3e2bedca67223bec64e8dde1a609d1f94,9885973462,51378 Welch Street,Raejeru,,Indonesia,75
75,Meg Hullot,mhullot22@spiegel.de,9c11b9c3e2bedca67223bec64e8dde1a609d1f94,6264969825,52 Cambridge Avenue,Saddina,,Morocco,76
76,Nikaniki Costall,ncostall23@hao123.com,9c11b9c3e2bedca67223bec64e8dde1a609d1f94,4151033262,576 Beilfuss Road,San Francisco,94110,United States,77
77,Markus Insall,minsall24@smugmug.com,9c11b9c3e2bedca67223bec64e8dde1a609d1f94,9132259164,0 Porter Plaza,Bantar,,Indonesia,78
78,Petunia Skechley,pskechley25@disqus.com,9c11b9c3e2bedca67223bec64e8dde1a609d1f94,9699205964,82851 Continental Park,Taurija,,Peru,79
79,Xylina Tuffrey,xtuffrey26@slideshare.net,9c11b9c3e2bedca67223bec64e8dde1a609d1f94,5011935575,3 Fair Oaks Junction,Pitangui,35650-000,Brazil,80
80,Cele Batting,cbatting27@umn.edu,9c11b9c3e2bedca67223bec64e8dde1a609d1f94,2666053495,47 Gateway Crossing,Zalţan,,Libya,81
81,Jimmy Skeates,jskeates28@sohu.com,9c11b9c3e2bedca67223bec64e8dde1a609d1f94,4083493953,43768 Carberry Crossing,Binalbagan,4600,Philippines,82
82,Misha Pettett,mpettett29@ning.com,9c11b9c3e2bedca67223bec64e8dde1a609d1f94,4755044099,6 Towne Crossing,Kopidlno,507 32,Czech Republic,83
83,Ivory Kleynermans,ikleynermans2a@163.com,9c11b9c3e2bedca67223bec64e8dde1a609d1f94,7317640120,9143 Twin Pines Avenue,Cabiao,3107,Philippines,84
84,Normy Marmion,nmarmion2b@sbwire.com,9c11b9c3e2bedca67223bec64e8dde1a609d1f94,7744883740,426 Kropf Pass,Renhe,,China,85
85,Stavros Jauncey,sjauncey2c@usatoday.com,9c11b9c3e2bedca67223bec64e8dde1a609d1f94,7403031896,2 Graedel Park,Sé,5100-121,Portugal,86
86,Joeann Pattini,jpattini2d@google.pl,9c11b9c3e2bedca67223bec64e8dde1a609d1f94,8357103773,40 Harbort Plaza,Ujungpangkah,,Indonesia,87
87,Jorge Figures,jfigures2e@diigo.com,9c11b9c3e2bedca67223bec64e8dde1a609d1f94,7784728745,4 Hovde Street,Krutaya Gorka,646404,Russia,88
88,Jerome Westpfel,jwestpfel2f@edublogs.org,9c11b9c3e2bedca67223bec64e8dde1a609d1f94,6419708091,26 Fuller Road,Gaoqiao,,China,89
89,Rafferty O'Bradane,robradane2g@mapy.cz,9c11b9c3e2bedca67223bec64e8dde1a609d1f94,1152983294,733 Ruskin Pass,Parakanhonje Wetan,,Indonesia,90
90,Chrissy Littlewood,clittlewood2h@opera.com,9c11b9c3e2bedca67223bec64e8dde1a609d1f94,1169963522,3 Anthes Lane,Raposeira,5100-419,Portugal,91
91,Basilio Weaver,bweaver2i@creativecommons.org,9c11b9c3e2bedca67223bec64e8dde1a609d1f94,6348572832,96 Shoshone Street,Lashio,,Myanmar,92
92,Donn Thouless,dthouless2j@webnode.com,9c11b9c3e2bedca67223bec64e8dde1a609d1f94,1892616464,78 Thompson Point,Krajan Kidul Rojopolo,,Indonesia,93
93,L;urette Grimbleby,lgrimbleby2k@netlog.com,9c11b9c3e2bedca67223bec64e8dde1a609d1f94,4109455039,441 Thackeray Drive,Shanxi,,China,94
94,Audrey Acres,aacres2l@php.net,9c11b9c3e2bedca67223bec64e8dde1a609d1f94,7197356748,848 Sunbrook Junction,Jangkat,,Indonesia,95
95,Cesaro Diggin,cdiggin2m@webnode.com,9c11b9c3e2bedca67223bec64e8dde1a609d1f94,1876134865,91 Graedel Drive,Béja,,Tunisia,96
96,Norry Daspar,ndaspar2n@google.ca,9c11b9c3e2bedca67223bec64e8dde1a609d1f94,6506208262,2932 Oakridge Park,Baruta,,Venezuela,97
97,Kassia Dudbridge,kdudbridge2o@state.tx.us,9c11b9c3e2bedca67223bec64e8dde1a609d1f94,8949546000,3602 Rutledge Point,Chalon-sur-Saône,71332 CEDEX,France,98
98,Brandais Sulland,bsulland2p@networksolutions.com,9c11b9c3e2bedca67223bec64e8dde1a609d1f94,1497484460,78 Manitowish Parkway,Zhougang,,China,99
99,Randolph Dunn,rdunn2q@xinhuanet.com,9c11b9c3e2bedca67223bec64e8dde1a609d1f94,6786320812,4732 8th Center,Weru,,Indonesia,100
100,Jinny Da Costa,jdacosta2r@google.com.au,9c11b9c3e2bedca67223bec64e8dde1a609d1f94,9302050966,528 Merry Avenue,Žatec,588 62,Czech Republic,101
101,Augustus Doncaster,adoncaster2s@ucoz.ru,9c11b9c3e2bedca67223bec64e8dde1a609d1f94,7557229356,5 Annamark Point,Bendilmuning,,Indonesia,102
102,Mikel Goodlatt,mgoodlatt2t@comcast.net,9c11b9c3e2bedca67223bec64e8dde1a609d1f94,2324657623,0603 Rowland Parkway,Shuangyang,,China,103
103,Kingston Underdown,kunderdown2u@samsung.com,9c11b9c3e2bedca67223bec64e8dde1a609d1f94,7713201643,607 Homewood Way,Sātkhira,9283,Bangladesh,104
104,Klement Meeron,kmeeron2v@theguardian.com,9c11b9c3e2bedca67223bec64e8dde1a609d1f94,4777727987,6475 Clove Terrace,Cipinang,,Indonesia,105
105,Brant Yerborn,byerborn2w@soundcloud.com,9c11b9c3e2bedca67223bec64e8dde1a609d1f94,2613816855,1071 Sutherland Park,Shanglian,,China,106
106,Wallace Lawn,wlawn2x@npr.org,9c11b9c3e2bedca67223bec64e8dde1a609d1f94,7703795391,843 Katie Park,Kalbugan,1485,Philippines,107
107,Anabella Docherty,adocherty2y@dot.gov,9c11b9c3e2bedca67223bec64e8dde1a609d1f94,6879734490,4332 Columbus Point,Santa Cruz de la Sierra,,Bolivia,108
108,Arlee Danev,adanev2z@wired.com,9c11b9c3e2bedca67223bec64e8dde1a609d1f94,4582315416,7 Kensington Point,Karolinka,756 05,Czech Republic,109
109,Hillery MacColm,hmaccolm30@hatena.ne.jp,9c11b9c3e2bedca67223bec64e8dde1a609d1f94,9854052731,6 Esker Trail,Hexi,,China,110
110,Mord Elsop,melsop31@fastcompany.com,9c11b9c3e2bedca67223bec64e8dde1a609d1f94,3279964158,811 Miller Parkway,Mufulira,,Zambia,111
111,Janeva Iacovucci,jiacovucci32@tuttocitta.it,9c11b9c3e2bedca67223bec64e8dde1a609d1f94,7128604448,005 Donald Way,Zuocun,,China,112
112,Devin Lavall,dlavall33@unblog.fr,9c11b9c3e2bedca67223bec64e8dde1a609d1f94,5834536197,4 Prairieview Crossing,Nakhon Phanom,48000,Thailand,113
113,Brook Hyatt,bhyatt34@sina.com.cn,9c11b9c3e2bedca67223bec64e8dde1a609d1f94,3672669372,4 Mccormick Street,Huangyang,,China,114
114,Madelina Rowles,mrowles35@digg.com,9c11b9c3e2bedca67223bec64e8dde1a609d1f94,2373897804,36 Messerschmidt Plaza,Pinggang,,China,115
115,Grete Raithbie,graithbie36@ustream.tv,9c11b9c3e2bedca67223bec64e8dde1a609d1f94,9357388588,185 Iowa Junction,Huotian,,China,116
116,Ray Scohier,rscohier37@seesaa.net,9c11b9c3e2bedca67223bec64e8dde1a609d1f94,3688977518,1 Miller Park,Dobrzyca,76-038,Poland,117
117,Arch Grutchfield,agrutchfield38@ebay.com,9c11b9c3e2bedca67223bec64e8dde1a609d1f94,2258830183,0981 Brentwood Place,Bến Cầu,,Vietnam,118
118,Gabrielle Yesenev,gyesenev39@flickr.com,9c11b9c3e2bedca67223bec64e8dde1a609d1f94,4101738858,58164 Northfield Lane,Sanjiao,,China,119
119,Dahlia O'Kinneally,dokinneally3a@microsoft.com,9c11b9c3e2bedca67223bec64e8dde1a609d1f94,6123336248,701 Dexter Drive,Tarīm,,Yemen,120
120,Harrie Hesey,hhesey3b@ning.com,9c11b9c3e2bedca67223bec64e8dde1a609d1f94,8861730248,62 Springs Street,Sedlarevo,1231,Macedonia,121
121,Ivy Presdee,ipresdee3c@bbc.co.uk,9c11b9c3e2bedca67223bec64e8dde1a609d1f94,4862472388,64 Crescent Oaks Point,Falun,791 26,Sweden,122
122,Kelli Turnell,kturnell3d@nifty.com,9c11b9c3e2bedca67223bec64e8dde1a609d1f94,5739546296,86 Tony Street,Santa Ana,,Peru,123
123,Nichole Feronet,nferonet3e@cornell.edu,9c11b9c3e2bedca67223bec64e8dde1a609d1f94,1408026964,73 Service Lane,Itabuna,45600-000,Brazil,124
124,Gib Stanyard,gstanyard3f@accuweather.com,9c11b9c3e2bedca67223bec64e8dde1a609d1f94,6635218752,53062 Elka Center,Srubec,370 06,Czech Republic,125
125,Raychel Machent,rmachent3g@squidoo.com,9c11b9c3e2bedca67223bec64e8dde1a609d1f94,9212645273,194 Marquette Alley,Tisco,,Peru,126
126,Nye Dabnot,ndabnot3h@yolasite.com,9c11b9c3e2bedca67223bec64e8dde1a609d1f94,4648413675,366 Esch Hill,Panxi,,China,127
127,Issie Sictornes,isictornes3i@icq.com,9c11b9c3e2bedca67223bec64e8dde1a609d1f94,9185303500,794 Melrose Drive,Salinungan Proper,1717,Philippines,128
128,Bordy Dugald,bdugald3j@arstechnica.com,9c11b9c3e2bedca67223bec64e8dde1a609d1f94,1487779616,4 Linden Park,Cabcaben,2133,Philippines,129
129,Haskell Guidelli,hguidelli3k@epa.gov,9c11b9c3e2bedca67223bec64e8dde1a609d1f94,6523097569,947 Wayridge Plaza,Pilaya,,Bolivia,130
130,Godiva Rehorek,grehorek3l@xinhuanet.com,9c11b9c3e2bedca67223bec64e8dde1a609d1f94,5551745079,0 4th Lane,Sala,733 31,Sweden,131
131,Ronny Angove,rangove3m@ebay.com,9c11b9c3e2bedca67223bec64e8dde1a609d1f94,4962858699,72370 Algoma Circle,Bromma,167 31,Sweden,132
132,Sargent Bestiman,sbestiman3n@t.co,9c11b9c3e2bedca67223bec64e8dde1a609d1f94,6748096796,5 Lukken Pass,Ostroměř,507 52,Czech Republic,133
133,Fran Hosburn,fhosburn3o@mit.edu,9c11b9c3e2bedca67223bec64e8dde1a609d1f94,1425133627,12255 Karstens Trail,Radomir,2453,Bulgaria,134
134,Wadsworth Helwig,whelwig3p@geocities.com,9c11b9c3e2bedca67223bec64e8dde1a609d1f94,8362883790,33 Scott Center,Sampaloc,4329,Philippines,135
135,Claybourne Ceeley,cceeley3q@vistaprint.com,9c11b9c3e2bedca67223bec64e8dde1a609d1f94,6889902571,2 Myrtle Lane,Zolotkovo,601545,Russia,136
136,Elisabetta Wiggans,ewiggans3r@bloglovin.com,9c11b9c3e2bedca67223bec64e8dde1a609d1f94,8477161369,0328 Warbler Court,Hanam,,South Korea,137
137,Lavina Bullers,lbullers3s@lycos.com,9c11b9c3e2bedca67223bec64e8dde1a609d1f94,2964544992,484 Express Road,Hengdian,,China,138
138,Marlee Bootyman,mbootyman3t@stumbleupon.com,9c11b9c3e2bedca67223bec64e8dde1a609d1f94,8508797867,736 Killdeer Avenue,Yunhe,,China,139
139,Miltie Colledge,mcolledge3u@studiopress.com,9c11b9c3e2bedca67223bec64e8dde1a609d1f94,6742620193,06609 Clove Court,Tiel,4004,Netherlands,140
140,Leonerd Chalcraft,lchalcraft3v@adobe.com,9c11b9c3e2bedca67223bec64e8dde1a609d1f94,7208389690,93 Marquette Plaza,Al Majd,,Palestinian Territory,141
141,Hadlee Linebarger,hlinebarger3w@europa.eu,9c11b9c3e2bedca67223bec64e8dde1a609d1f94,3024530007,67 Clyde Gallagher Drive,Wilmington,19805,United States,142
142,Petra Skerrett,pskerrett3x@earthlink.net,9c11b9c3e2bedca67223bec64e8dde1a609d1f94,4874219579,26 Express Road,Buga,5029,Philippines,143
143,Horacio Togher,htogher3y@unicef.org,9c11b9c3e2bedca67223bec64e8dde1a609d1f94,8758590844,1 Bluejay Pass,Yong’an,,China,144
144,Thornton Udy,tudy3z@tripod.com,9c11b9c3e2bedca67223bec64e8dde1a609d1f94,6321810965,1589 Mariners Cove Drive,Qal‘ah-ye Fārsī,,Afghanistan,145
145,Arda Pideon,apideon40@flavors.me,9c11b9c3e2bedca67223bec64e8dde1a609d1f94,4888253850,434 Mayer Plaza,Carmelo,9212,Philippines,146
146,Barty Domel,bdomel41@auda.org.au,9c11b9c3e2bedca67223bec64e8dde1a609d1f94,9625783081,8 Elgar Trail,Gravataí,94000-000,Brazil,147
147,Claudie Ballinghall,cballinghall42@wikipedia.org,9c11b9c3e2bedca67223bec64e8dde1a609d1f94,6485395419,01767 Shopko Hill,Maao,6124,Philippines,148
148,Cosme Monro,cmonro43@irs.gov,9c11b9c3e2bedca67223bec64e8dde1a609d1f94,1972476166,56 Ryan Street,Liushui,,China,149
149,Ali Downs,adowns44@harvard.edu,9c11b9c3e2bedca67223bec64e8dde1a609d1f94,3148870655,067 Grover Lane,Saint Louis,63121,United States,150
150,Josie Caesman,jcaesman45@washingtonpost.com,9c11b9c3e2bedca67223bec64e8dde1a609d1f94,8757601523,94 Logan Terrace,Izumiōtsu,597-0095,Japan,151
151,Maynord Kay,mkay46@blogs.com,9c11b9c3e2bedca67223bec64e8dde1a609d1f94,9992031169,75421 Clyde Gallagher Crossing,Castelnaudary,11493 CEDEX,France,152
152,Kimberlyn Kepp,kkepp47@gov.uk,9c11b9c3e2bedca67223bec64e8dde1a609d1f94,6481334297,7 Hansons Road,Wādī as Salqā,,Palestinian Territory,153
153,Samuel Orts,sorts48@icio.us,9c11b9c3e2bedca67223bec64e8dde1a609d1f94,1498433932,0 Russell Lane,Juli,,Peru,154
154,Mortie Sapauton,msapauton49@nifty.com,9c11b9c3e2bedca67223bec64e8dde1a609d1f94,8993055152,93980 Waywood Terrace,Ciguna,,Indonesia,155
155,Retha Camus,rcamus4a@nasa.gov,9c11b9c3e2bedca67223bec64e8dde1a609d1f94,1349816650,8829 Rigney Way,Wilamowice,43-330,Poland,156
156,Cord Algy,calgy4b@nih.gov,9c11b9c3e2bedca67223bec64e8dde1a609d1f94,8479448647,931 Gina Terrace,Newlands,7700,South Africa,157
157,Chandal Schermick,cschermick4c@qq.com,9c11b9c3e2bedca67223bec64e8dde1a609d1f94,3677305285,7 Transport Point,Tofa,,Nigeria,158
158,Cornall Baudry,cbaudry4d@slate.com,9c11b9c3e2bedca67223bec64e8dde1a609d1f94,3595237209,32 New Castle Road,Gupakan,,Indonesia,159
159,Mersey Lydiatt,mlydiatt4e@businesswire.com,9c11b9c3e2bedca67223bec64e8dde1a609d1f94,3237821421,702 Mallard Court,Isulan,9805,Philippines,160
160,Lewie Nobles,lnobles4f@ftc.gov,9c11b9c3e2bedca67223bec64e8dde1a609d1f94,9852280497,37 Kensington Terrace,Aguas Corrientes,,Uruguay,161
161,Kerrin Pruckner,kpruckner4g@businessinsider.com,9c11b9c3e2bedca67223bec64e8dde1a609d1f94,5788611051,16365 Drewry Park,Puračić,,Bosnia and Herzegovina,162
162,Elianore Shutte,eshutte4h@cnn.com,9c11b9c3e2bedca67223bec64e8dde1a609d1f94,1491124847,80095 Coleman Avenue,Conselheiro Lafaiete,36400-000,Brazil,163
163,Jacquie Cox,jcox4i@hc360.com,9c11b9c3e2bedca67223bec64e8dde1a609d1f94,9736350506,685 Crownhardt Point,Sidorejo,,Indonesia,164
164,Arne Ryde,aryde4j@clickbank.net,9c11b9c3e2bedca67223bec64e8dde1a609d1f94,4572854683,3978 Elgar Parkway,Dalang,,China,165
165,Dannel Gotcher,dgotcher4k@quantcast.com,9c11b9c3e2bedca67223bec64e8dde1a609d1f94,9531035145,996 Center Park,Meicheng,,China,166
166,Marcelo Ollerenshaw,mollerenshaw4l@phpbb.com,9c11b9c3e2bedca67223bec64e8dde1a609d1f94,2705032309,521 Upham Circle,Granja,2425-009,Portugal,167
167,Linnet Fincken,lfincken4m@cocolog-nifty.com,9c11b9c3e2bedca67223bec64e8dde1a609d1f94,8982829472,927 Oneill Parkway,Wuqu,,China,168
168,Ailee Hosier,ahosier4n@mysql.com,9c11b9c3e2bedca67223bec64e8dde1a609d1f94,7981485841,915 Washington Plaza,Vigo,36215,Spain,169
169,Maddi McGarva,mmcgarva4o@free.fr,9c11b9c3e2bedca67223bec64e8dde1a609d1f94,3377794946,237 Merry Circle,Linzi,,China,170
170,Matthus Gresswell,mgresswell4p@list-manage.com,9c11b9c3e2bedca67223bec64e8dde1a609d1f94,7235768380,3415 Badeau Drive,Penitik,,Indonesia,171
171,Pammy Weldrake,pweldrake4q@exblog.jp,9c11b9c3e2bedca67223bec64e8dde1a609d1f94,2657551001,8 Dwight Trail,Porto Calvo,57900-000,Brazil,172
172,Kennie Bursnell,kbursnell4r@telegraph.co.uk,9c11b9c3e2bedca67223bec64e8dde1a609d1f94,2717377537,3 Esker Lane,Dunlewy,A91,Ireland,173
173,Dierdre Glyssanne,dglyssanne4s@washingtonpost.com,9c11b9c3e2bedca67223bec64e8dde1a609d1f94,6634199352,0 Onsgard Drive,Kalianyar Selatan,,Indonesia,174
174,Gwynne Percifer,gpercifer4t@altervista.org,9c11b9c3e2bedca67223bec64e8dde1a609d1f94,6088173045,0 Thierer Way,Tibro,543 35,Sweden,175
175,Xenia Phalip,xphalip4u@digg.com,9c11b9c3e2bedca67223bec64e8dde1a609d1f94,6888195333,366 Dorton Point,Pedra Azul,39970-000,Brazil,176
176,Evelyn Inglis,einglis4v@example.com,9c11b9c3e2bedca67223bec64e8dde1a609d1f94,8498062686,1421 Paget Center,Xingfu,,China,177
177,Constancy Dubois,cdubois4w@salon.com,9c11b9c3e2bedca67223bec64e8dde1a609d1f94,2522955763,1545 Beilfuss Center,Banjar Geriana Kangin,,Indonesia,178
178,Sigmund Pynn,spynn4x@dedecms.com,9c11b9c3e2bedca67223bec64e8dde1a609d1f94,9403930281,60 Mendota Parkway,Moncton,E1C,Canada,179
179,Evelin Neggrini,eneggrini4y@apple.com,9c11b9c3e2bedca67223bec64e8dde1a609d1f94,1846798840,8 Graceland Drive,Luklukan,4606,Philippines,180
180,La verne Rewcassell,lrewcassell4z@360.cn,9c11b9c3e2bedca67223bec64e8dde1a609d1f94,3528749283,4 Londonderry Pass,Solnechnogorsk,141508,Russia,181
181,Tova D'Elias,tdelias50@deviantart.com,9c11b9c3e2bedca67223bec64e8dde1a609d1f94,2035111248,9002 Oak Valley Street,Waterbury,06721,United States,182
182,Aura Dowtry,adowtry51@csmonitor.com,9c11b9c3e2bedca67223bec64e8dde1a609d1f94,6532127259,17 Oriole Drive,Tyre,,Lebanon,183
183,Miller Bertome,mbertome52@about.com,9c11b9c3e2bedca67223bec64e8dde1a609d1f94,8085529225,743 Cambridge Court,Masjid,,Indonesia,184
184,Miof mela Dungey,mdungey53@oracle.com,9c11b9c3e2bedca67223bec64e8dde1a609d1f94,7556535901,1 Raven Way,Sanhe,,China,185
185,Jacqui Wrighton,jwrighton54@hp.com,9c11b9c3e2bedca67223bec64e8dde1a609d1f94,9524129110,7 Toban Center,Dasongshu,,China,186
186,Stephi Langrick,slangrick55@washington.edu,9c11b9c3e2bedca67223bec64e8dde1a609d1f94,9303865316,258 Clyde Gallagher Hill,Chibombo,,Zambia,187
187,Carmelle Greenaway,cgreenaway56@google.ca,9c11b9c3e2bedca67223bec64e8dde1a609d1f94,5764465870,4 Muir Park,Yelwa,,Nigeria,188
188,Skylar Isacoff,sisacoff57@netscape.com,9c11b9c3e2bedca67223bec64e8dde1a609d1f94,6395753693,45 Muir Trail,Kostel,8331,Slovenia,189
189,Siffre Woolaston,swoolaston58@state.gov,9c11b9c3e2bedca67223bec64e8dde1a609d1f94,1002324762,87209 Stone Corner Street,Wailolong,,Indonesia,190
190,Charles Gouldstraw,cgouldstraw59@bbc.co.uk,9c11b9c3e2bedca67223bec64e8dde1a609d1f94,4691836193,15969 Kingsford Road,Paris 12,75587 CEDEX 12,France,191
191,Norma Kilfedder,nkilfedder5a@amazon.co.jp,9c11b9c3e2bedca67223bec64e8dde1a609d1f94,6524173900,71 Roth Lane,Rotunda,1295,Philippines,192
192,Alard Wilfinger,awilfinger5b@ucoz.com,9c11b9c3e2bedca67223bec64e8dde1a609d1f94,2961251574,9723 Loomis Avenue,Strasbourg,67975 CEDEX 9,France,193
193,Aldric Stiffkins,astiffkins5c@weather.com,9c11b9c3e2bedca67223bec64e8dde1a609d1f94,6013076556,99 New Castle Point,Liangjing,,China,194
194,Linc Baseke,lbaseke5d@columbia.edu,9c11b9c3e2bedca67223bec64e8dde1a609d1f94,9432918364,1234 Golf View Alley,Chateaubelair,,Saint Vincent and the Grenadines,195
195,Aurora Paddington,apaddington5e@upenn.edu,9c11b9c3e2bedca67223bec64e8dde1a609d1f94,2889298138,6 Bluejay Point,Luoshanchuan,,China,196
196,Nicolas Lomasney,nlomasney5f@unblog.fr,9c11b9c3e2bedca67223bec64e8dde1a609d1f94,4536684997,8 Mcguire Avenue,Lower Hutt,5042,New Zealand,197
197,Julius Garley,jgarley5g@theatlantic.com,9c11b9c3e2bedca67223bec64e8dde1a609d1f94,5625203041,7 Riverside Point,Solotcha,391133,Russia,198
198,Tabor Senchenko,tsenchenko5h@irs.gov,9c11b9c3e2bedca67223bec64e8dde1a609d1f94,8802460200,15 Petterle Drive,Concepción del Uruguay,3260,Argentina,199
199,Antons Drejer,adrejer5i@paginegialle.it,9c11b9c3e2bedca67223bec64e8dde1a609d1f94,2185872584,43143 Armistice Pass,Laprida,4205,Argentina,200
200,Yulma Niess,yniess5j@geocities.com,9c11b9c3e2bedca67223bec64e8dde1a609d1f94,1834875574,85 Sunbrook Street,Xiaoyang,,China,201
201,Rabbi Conkling,rconkling5k@naver.com,9c11b9c3e2bedca67223bec64e8dde1a609d1f94,3282844774,64 Schurz Street,Kiuteta,,Indonesia,202
202,Flossi Cattenach,fcattenach5l@usa.gov,9c11b9c3e2bedca67223bec64e8dde1a609d1f94,7935584992,572 Annamark Drive,Brikcha,,Morocco,203
203,Fidel Leitch,fleitch5m@amazon.de,9c11b9c3e2bedca67223bec64e8dde1a609d1f94,4164669919,4599 Scoville Circle,Josefův Důl,468 44,Czech Republic,204
204,Celine Coxhell,ccoxhell5n@google.co.jp,9c11b9c3e2bedca67223bec64e8dde1a609d1f94,9328347883,9 Vahlen Circle,Pimentel,,Peru,205
205,Janel Paolacci,jpaolacci5o@uol.com.br,9c11b9c3e2bedca67223bec64e8dde1a609d1f94,1412715099,0 Evergreen Avenue,Roi Et,45000,Thailand,206
206,Miguelita Kerrigan,mkerrigan5p@photobucket.com,9c11b9c3e2bedca67223bec64e8dde1a609d1f94,1644797106,0119 Nelson Hill,Ágios Týchon,,Cyprus,207
207,Regen Copcott,rcopcott5q@freewebs.com,9c11b9c3e2bedca67223bec64e8dde1a609d1f94,2865884622,13 Dennis Terrace,Nova Iguaçu,26000-000,Brazil,208
208,Audie Honacker,ahonacker5r@sourceforge.net,9c11b9c3e2bedca67223bec64e8dde1a609d1f94,2909723574,1 Longview Terrace,San Pedro de Macorís,11604,Dominican Republic,209
209,Lorene Stait,lstait5s@shutterfly.com,9c11b9c3e2bedca67223bec64e8dde1a609d1f94,2843429643,464 Thackeray Way,Örnsköldsvik,891 25,Sweden,210
210,Holly Dalyiel,hdalyiel5t@nbcnews.com,9c11b9c3e2bedca67223bec64e8dde1a609d1f94,3778716645,2 Eagan Way,Mont-Tremblant,J8E,Canada,211
211,Finn Cunningham,fcunningham5u@wikispaces.com,9c11b9c3e2bedca67223bec64e8dde1a609d1f94,6448868084,57 Dottie Way,Hobart,7803,Australia,212
212,Mariska Beranek,mberanek5v@comcast.net,9c11b9c3e2bedca67223bec64e8dde1a609d1f94,7282621078,91125 3rd Avenue,Masiga,4900,Philippines,213
213,Merill Bleakley,mbleakley5w@nature.com,9c11b9c3e2bedca67223bec64e8dde1a609d1f94,3821107928,92308 Calypso Alley,San Rafael,11504,Costa Rica,214
214,Constantine Crinson,ccrinson5x@w3.org,9c11b9c3e2bedca67223bec64e8dde1a609d1f94,1555639453,4 Oxford Road,Rancakuya,,Indonesia,215
215,Merissa De Lacey,mdelacey5y@wunderground.com,9c11b9c3e2bedca67223bec64e8dde1a609d1f94,6428347161,397 Badeau Park,Dimona,,Israel,216
216,Mahalia Tortoise,mtortoise5z@google.es,9c11b9c3e2bedca67223bec64e8dde1a609d1f94,8259000641,7907 Cardinal Trail,Resende,4660-215,Portugal,217
217,Alexina Rowan,arowan60@last.fm,9c11b9c3e2bedca67223bec64e8dde1a609d1f94,4566257847,320 Quincy Street,Mojogajeh,,Indonesia,218
218,Colby Standeven,cstandeven61@netscape.com,9c11b9c3e2bedca67223bec64e8dde1a609d1f94,7888592888,53762 Bowman Circle,Kebonagung,,Indonesia,219
219,Codi De Robertis,cderobertis62@thetimes.co.uk,9c11b9c3e2bedca67223bec64e8dde1a609d1f94,5498128044,01 Miller Crossing,Kostelec nad Černými Lesy,281 63,Czech Republic,220
220,Ashbey Andriuzzi,aandriuzzi63@ibm.com,9c11b9c3e2bedca67223bec64e8dde1a609d1f94,6486891003,206 Mockingbird Pass,Zhendong,,China,221
221,Charlean Kubecka,ckubecka64@forbes.com,9c11b9c3e2bedca67223bec64e8dde1a609d1f94,9443743386,846 Southridge Alley,Itaúna,35680-000,Brazil,222
222,Pippo Willbraham,pwillbraham65@japanpost.jp,9c11b9c3e2bedca67223bec64e8dde1a609d1f94,7337507562,94768 Green Ridge Place,Margherita,,Uganda,223
223,Aaren Kellington,akellington66@intel.com,9c11b9c3e2bedca67223bec64e8dde1a609d1f94,2139665381,568 Graedel Center,Xiangjiazhai,,China,224
224,Tamara Dyton,tdyton67@istockphoto.com,9c11b9c3e2bedca67223bec64e8dde1a609d1f94,5603741782,176 Graceland Way,Tanggan,,China,225
225,Bevon Elderbrant,belderbrant68@sitemeter.com,9c11b9c3e2bedca67223bec64e8dde1a609d1f94,3428814288,99120 Thierer Terrace,Estrada,2525-474,Portugal,226
226,Juliane Roath,jroath69@hibu.com,9c11b9c3e2bedca67223bec64e8dde1a609d1f94,3212210110,01961 Dovetail Crossing,Sabana Grande de Boyá,10405,Dominican Republic,227
227,Boyce Clitherow,bclitherow6a@about.com,9c11b9c3e2bedca67223bec64e8dde1a609d1f94,9459522924,27594 Sage Parkway,Miasteczko Śląskie,42-610,Poland,228
228,Gilbertina Borrett,gborrett6b@sfgate.com,9c11b9c3e2bedca67223bec64e8dde1a609d1f94,2592564161,563 Jenifer Point,Ciro Redondo,,Cuba,229
229,Gay Truce,gtruce6c@thetimes.co.uk,9c11b9c3e2bedca67223bec64e8dde1a609d1f94,8053484979,418 Luster Terrace,‘Amrān,,Yemen,230
230,Kendall Maunsell,kmaunsell6d@oaic.gov.au,9c11b9c3e2bedca67223bec64e8dde1a609d1f94,3882494519,24355 Schlimgen Terrace,Barreirinhas,65590-000,Brazil,231
231,Cherie Bain,cbain6e@google.cn,9c11b9c3e2bedca67223bec64e8dde1a609d1f94,8688571096,1984 Dorton Terrace,Espanola,P5E,Canada,232
232,Clarice Ielden,cielden6f@yellowbook.com,9c11b9c3e2bedca67223bec64e8dde1a609d1f94,6226034253,6 Bartelt Junction,Wachira Barami,45250,Thailand,233
233,Meghan Latchmore,mlatchmore6g@rakuten.co.jp,9c11b9c3e2bedca67223bec64e8dde1a609d1f94,7982349368,9695 Marquette Center,Kuwayris Sharqī,,Syria,234
234,Darius Cockton,dcockton6h@godaddy.com,9c11b9c3e2bedca67223bec64e8dde1a609d1f94,5894452715,622 Toban Trail,Mingyue,,China,235
235,Frankie Hallitt,fhallitt6i@engadget.com,36673644b8208d2f3013a5f8aaaa6cffa5cd2436,8341927965,7 Fuller Hill,Shuigou,,China,236
236,Shandie Bartoszinski,sbartoszinski6j@omniture.com,36673644b8208d2f3013a5f8aaaa6cffa5cd2436,2294144553,6395 Ohio Street,Lawrenceville,30245,United States,237
237,Kev Romme,kromme6k@cdbaby.com,36673644b8208d2f3013a5f8aaaa6cffa5cd2436,6005062537,5 Morrow Terrace,Cheongju-si,,South Korea,238
238,Clarita Billingsly,cbillingsly6l@jalbum.net,36673644b8208d2f3013a5f8aaaa6cffa5cd2436,1716589648,76839 Eastlawn Lane,Konārak,,Iran,239
239,Cristine Gounin,cgounin6m@weebly.com,36673644b8208d2f3013a5f8aaaa6cffa5cd2436,4388383144,0 Pearson Hill,Helsingborg,256 55,Sweden,240
240,Raffarty Marqyes,rmarqyes6n@so-net.ne.jp,36673644b8208d2f3013a5f8aaaa6cffa5cd2436,6498542540,9 Porter Junction,Volgograd,309621,Russia,241
241,Raimondo Chittie,rchittie6o@webmd.com,36673644b8208d2f3013a5f8aaaa6cffa5cd2436,2509006599,68 Havey Lane,Balbagay,,China,242
242,Shane Garoghan,sgaroghan6p@etsy.com,36673644b8208d2f3013a5f8aaaa6cffa5cd2436,4929553794,3799 Fallview Court,Keboireng,,Indonesia,243
243,Dulci Klimp,dklimp6q@about.com,36673644b8208d2f3013a5f8aaaa6cffa5cd2436,7739480960,86 Porter Hill,Sibut,,Central African Republic,244
244,Debbi Orknay,dorknay6r@marriott.com,36673644b8208d2f3013a5f8aaaa6cffa5cd2436,5216715263,0053 Anzinger Way,Wolong,,China,245
245,Lexy Dankov,ldankov6s@kickstarter.com,36673644b8208d2f3013a5f8aaaa6cffa5cd2436,9582166419,92 Sunnyside Road,Kotlovka,142817,Russia,246
246,Wynnie Oddie,woddie6t@buzzfeed.com,36673644b8208d2f3013a5f8aaaa6cffa5cd2436,7391689776,82 Grayhawk Way,Licheng,,China,247
247,Loleta Bendley,lbendley6u@berkeley.edu,36673644b8208d2f3013a5f8aaaa6cffa5cd2436,7888044092,66053 Kingsford Parkway,Yangjiaqiao,,China,248
248,Cassie Crowden,ccrowden6v@cam.ac.uk,36673644b8208d2f3013a5f8aaaa6cffa5cd2436,1765774235,3300 Annamark Road,Quintas,3810-833,Portugal,249
249,Jere Shotboulte,jshotboulte6w@wired.com,36673644b8208d2f3013a5f8aaaa6cffa5cd2436,1877969801,74682 Alpine Way,Mstsislaw,,Belarus,250
250,Kiley Pinwell,kpinwell6x@friendfeed.com,36673644b8208d2f3013a5f8aaaa6cffa5cd2436,5414602546,54264 Meadow Vale Alley,Targuist,,Morocco,251
251,Lexy Fearby,lfearby6y@webeden.co.uk,36673644b8208d2f3013a5f8aaaa6cffa5cd2436,3832565666,620 American Terrace,Ceranów,08-322,Poland,252
252,Linet Anker,lanker6z@yahoo.co.jp,36673644b8208d2f3013a5f8aaaa6cffa5cd2436,5633468457,3 Harbort Trail,Candoso,5360-035,Portugal,253
253,Juditha Onions,jonions70@imdb.com,36673644b8208d2f3013a5f8aaaa6cffa5cd2436,8555356822,7 Pierstorff Court,Jedlińsk,26-660,Poland,254
254,Gianna Tomaskov,gtomaskov71@mayoclinic.com,36673644b8208d2f3013a5f8aaaa6cffa5cd2436,4434975484,7 Merchant Trail,Helsingborg,256 62,Sweden,255
255,Walden Allchin,wallchin72@smh.com.au,36673644b8208d2f3013a5f8aaaa6cffa5cd2436,8618035857,39 Claremont Avenue,Bengras,,Indonesia,256
256,Lyndsay McAllen,lmcallen73@bloglines.com,36673644b8208d2f3013a5f8aaaa6cffa5cd2436,9334943001,89 Green Ridge Circle,Stockholm,103 22,Sweden,257
257,Etan Delicate,edelicate74@taobao.com,36673644b8208d2f3013a5f8aaaa6cffa5cd2436,8311279913,52103 West Trail,Rancapanjang,,Indonesia,258
258,Rosalind Bony,rbony75@twitter.com,36673644b8208d2f3013a5f8aaaa6cffa5cd2436,3246121884,22 Melby Way,Adstock,G0N,Canada,259
259,Bartolomeo Rusbridge,brusbridge76@booking.com,36673644b8208d2f3013a5f8aaaa6cffa5cd2436,4877432330,1 Victoria Circle,Nueva Italia,,Paraguay,260
260,Carleen Alfwy,calfwy77@stumbleupon.com,36673644b8208d2f3013a5f8aaaa6cffa5cd2436,6443710625,0 Anhalt Junction,Xitianwei,,China,261
261,Gallagher Boissier,gboissier78@wikia.com,36673644b8208d2f3013a5f8aaaa6cffa5cd2436,2232983622,885 Messerschmidt Pass,Seremban,70504,Malaysia,262
262,Justin Sturgess,jsturgess79@apache.org,36673644b8208d2f3013a5f8aaaa6cffa5cd2436,7656492433,877 Butternut Street,Yamaga,874-0818,Japan,263
263,Dalis MacAree,dmacaree7a@discuz.net,36673644b8208d2f3013a5f8aaaa6cffa5cd2436,7015599113,47454 Green Ridge Street,Rehoboth,,Namibia,264
264,Danell Izzett,dizzett7b@wikimedia.org,36673644b8208d2f3013a5f8aaaa6cffa5cd2436,9952388634,27 Holy Cross Trail,Caringin,,Indonesia,265
265,Billie Quartermain,bquartermain7c@360.cn,36673644b8208d2f3013a5f8aaaa6cffa5cd2436,1359485709,5550 Browning Court,Didian,,China,266
266,Burton Ames,bames7d@acquirethisname.com,36673644b8208d2f3013a5f8aaaa6cffa5cd2436,5088985191,8992 Melrose Plaza,Dagushan,,China,267
267,Letisha Padberry,lpadberry7e@amazon.com,36673644b8208d2f3013a5f8aaaa6cffa5cd2436,8286776408,0673 Lillian Alley,Asheville,28805,United States,268
268,Chevalier Coburn,ccoburn7f@mtv.com,36673644b8208d2f3013a5f8aaaa6cffa5cd2436,4627505199,315 Green Parkway,Bungur,,Indonesia,269
269,Inglebert Darree,idarree7g@sina.com.cn,36673644b8208d2f3013a5f8aaaa6cffa5cd2436,4198388341,402 High Crossing Park,Juan Adrián,11506,Dominican Republic,270
270,Gillan Titherington,gtitherington7h@mtv.com,36673644b8208d2f3013a5f8aaaa6cffa5cd2436,6307097480,86020 Melby Terrace,Tōbetsu,883-0103,Japan,271
271,Jarret Asaaf,jasaaf7i@hexun.com,36673644b8208d2f3013a5f8aaaa6cffa5cd2436,9506539943,949 Laurel Way,Morelos,62577,Mexico,272
272,Oates Cleminson,ocleminson7j@princeton.edu,36673644b8208d2f3013a5f8aaaa6cffa5cd2436,2128657368,2422 Shasta Place,Broniszewice,63-304,Poland,273
273,Titos Ead,tead7k@japanpost.jp,36673644b8208d2f3013a5f8aaaa6cffa5cd2436,7162208342,6 Graceland Avenue,Malya,,Tanzania,274
274,Benedikt Lanaway,blanaway7l@hostgator.com,36673644b8208d2f3013a5f8aaaa6cffa5cd2436,7038252809,99 Sutteridge Street,Kilju,,North Korea,275
275,Arlan Linskill,alinskill7m@paypal.com,36673644b8208d2f3013a5f8aaaa6cffa5cd2436,7251377557,99 Michigan Terrace,Nedryhayliv,,Ukraine,276
276,Brena Orme,borme7n@ebay.co.uk,36673644b8208d2f3013a5f8aaaa6cffa5cd2436,5853557428,6186 Darwin Alley,Klina,,Kosovo,277
277,Fergus Tabbernor,ftabbernor7o@timesonline.co.uk,36673644b8208d2f3013a5f8aaaa6cffa5cd2436,3986432289,815 Sycamore Center,Wangcao,,China,278
278,Neale Cardoso,ncardoso7p@tiny.cc,36673644b8208d2f3013a5f8aaaa6cffa5cd2436,3542376913,2740 Redwing Crossing,Kōfu-shi,409-3841,Japan,279
279,Quent Challoner,qchalloner7q@microsoft.com,36673644b8208d2f3013a5f8aaaa6cffa5cd2436,4399939273,0638 Meadow Valley Alley,Matinao,7031,Philippines,280
280,Giselle Mogra,gmogra7r@infoseek.co.jp,36673644b8208d2f3013a5f8aaaa6cffa5cd2436,3171280255,2 Loeprich Junction,Jinzhou,,China,281
281,Prue Gilhooley,pgilhooley7s@merriam-webster.com,36673644b8208d2f3013a5f8aaaa6cffa5cd2436,6255580745,04 Cordelia Pass,Quimper,29193 CEDEX,France,282
282,Eduardo Hollingby,ehollingby7t@ucoz.com,36673644b8208d2f3013a5f8aaaa6cffa5cd2436,5086730175,0538 Kim Alley,Sandefjord,3230,Norway,283
283,Donia Tesauro,dtesauro7u@indiegogo.com,36673644b8208d2f3013a5f8aaaa6cffa5cd2436,6555196095,8 Paget Hill,Tuburan,7306,Philippines,284
284,Doretta Lehrmann,dlehrmann7v@unblog.fr,36673644b8208d2f3013a5f8aaaa6cffa5cd2436,7299454175,981 Amoth Circle,Tonosí,,Panama,285
285,Leela Di Iorio,ldiiorio7w@google.de,36673644b8208d2f3013a5f8aaaa6cffa5cd2436,2125842901,53193 Corscot Hill,Lincoln,6070,Argentina,286
286,Herc Allington,hallington7x@google.it,36673644b8208d2f3013a5f8aaaa6cffa5cd2436,3432027046,74 Oak Valley Place,Zagórów,62-410,Poland,287
287,Mikey Alliberton,malliberton7y@meetup.com,36673644b8208d2f3013a5f8aaaa6cffa5cd2436,9897435725,5 Miller Court,Izborsk,181518,Russia,288
288,Bryce Wrates,bwrates7z@answers.com,36673644b8208d2f3013a5f8aaaa6cffa5cd2436,3996368755,55 Evergreen Crossing,Tuanfeng,,China,289
289,Findlay Hutten,fhutten80@oaic.gov.au,36673644b8208d2f3013a5f8aaaa6cffa5cd2436,4124298062,584 Raven Street,Pittsburgh,15279,United States,290
290,Alla Proffer,aproffer81@stanford.edu,36673644b8208d2f3013a5f8aaaa6cffa5cd2436,2151338640,648 Marcy Alley,Fuzhou,,China,291
291,Cathryn Joly,cjoly82@economist.com,36673644b8208d2f3013a5f8aaaa6cffa5cd2436,6314356980,030 Fremont Plaza,Hannover,30167,Germany,292
292,Penny Kinnie,pkinnie83@sciencedirect.com,36673644b8208d2f3013a5f8aaaa6cffa5cd2436,6646342464,7408 Tennessee Park,Stockholm,114 84,Sweden,293
293,Leese Ianetti,lianetti84@spotify.com,36673644b8208d2f3013a5f8aaaa6cffa5cd2436,3344160538,1 Messerschmidt Road,Sandymount,D04,Ireland,294
294,Joya Gimlet,jgimlet85@taobao.com,36673644b8208d2f3013a5f8aaaa6cffa5cd2436,3928197961,84763 Blackbird Park,Cibaregbeg,,Indonesia,295
295,Pandora Treasure,ptreasure86@mail.ru,36673644b8208d2f3013a5f8aaaa6cffa5cd2436,8167521177,138 Longview Alley,Pakemitan Dua,,Indonesia,296
296,Clementine Baltzar,cbaltzar87@friendfeed.com,36673644b8208d2f3013a5f8aaaa6cffa5cd2436,8314527746,3074 Melrose Trail,Purac,2202,Philippines,297
297,Jody Devonside,jdevonside88@cyberchimps.com,36673644b8208d2f3013a5f8aaaa6cffa5cd2436,6016914228,8 Texas Trail,Kaminoyama,988-0413,Japan,298
298,Merl Bindin,mbindin89@google.com.au,36673644b8208d2f3013a5f8aaaa6cffa5cd2436,4247294086,36229 Haas Pass,Lisewo Malborskie,83-110,Poland,299
299,Mathian Lufkin,mlufkin8a@theguardian.com,36673644b8208d2f3013a5f8aaaa6cffa5cd2436,1035726514,61246 Lighthouse Bay Junction,Dawa-Dawa,7111,Philippines,300
300,Tiertza Sives,tsives8b@latimes.com,36673644b8208d2f3013a5f8aaaa6cffa5cd2436,6171784889,94 3rd Point,Pantanal,88000-000,Brazil,301
301,Daniele Jorg,djorg8c@ibm.com,36673644b8208d2f3013a5f8aaaa6cffa5cd2436,7916855706,58 Saint Paul Court,Novovorontsovka,,Ukraine,302
302,Wynny Sawfoot,wsawfoot8d@arizona.edu,36673644b8208d2f3013a5f8aaaa6cffa5cd2436,9579095237,929 Pawling Avenue,Swedru,,Ghana,303
303,Pip Robilliard,probilliard8e@auda.org.au,36673644b8208d2f3013a5f8aaaa6cffa5cd2436,2147527073,54 Manley Crossing,Mesiméri,,Greece,304
304,Elroy Drakeley,edrakeley8f@upenn.edu,36673644b8208d2f3013a5f8aaaa6cffa5cd2436,9633015486,97073 Bartillon Crossing,Pakxé,,Laos,305
305,Killy Conboy,kconboy8g@xing.com,36673644b8208d2f3013a5f8aaaa6cffa5cd2436,1977333618,6329 Thompson Street,Lapa,83750-000,Brazil,306
306,Celinka Jopling,cjopling8h@cmu.edu,36673644b8208d2f3013a5f8aaaa6cffa5cd2436,8048418626,79 Talmadge Crossing,Chaka,,China,307
307,Neville Dukesbury,ndukesbury8i@bloglovin.com,36673644b8208d2f3013a5f8aaaa6cffa5cd2436,7362564867,544 Merchant Pass,Fantan,,Armenia,308
308,Agace Ruperto,aruperto8j@github.com,36673644b8208d2f3013a5f8aaaa6cffa5cd2436,2854021168,75023 Fremont Point,Chakwāl,24421,Pakistan,309
309,Carroll Minigo,cminigo8k@tinypic.com,36673644b8208d2f3013a5f8aaaa6cffa5cd2436,3493689210,0715 Debra Park,Doibang,,Indonesia,310
310,Sadie Peerman,speerman8l@businessweek.com,36673644b8208d2f3013a5f8aaaa6cffa5cd2436,1144508722,5411 Graedel Road,Saguday,3402,Philippines,311
311,Hannie Wilshere,hwilshere8m@disqus.com,36673644b8208d2f3013a5f8aaaa6cffa5cd2436,9803927619,58 Mandrake Terrace,Piritiba,44830-000,Brazil,312
312,Gerald Fallowfield,gfallowfield8n@dropbox.com,36673644b8208d2f3013a5f8aaaa6cffa5cd2436,1459472932,16446 Marcy Park,Minggang,,China,313
313,Allie Walkinshaw,awalkinshaw8o@foxnews.com,36673644b8208d2f3013a5f8aaaa6cffa5cd2436,2795028352,15 Melby Terrace,Malita,8012,Philippines,314
314,Gill Bockmaster,gbockmaster8p@addthis.com,36673644b8208d2f3013a5f8aaaa6cffa5cd2436,2959022774,5914 Beilfuss Crossing,Cajacay,,Peru,315
315,Chloette O'Neill,coneill8q@nsw.gov.au,36673644b8208d2f3013a5f8aaaa6cffa5cd2436,7605157567,4554 Jenifer Parkway,Dubna,141986,Russia,316
316,Averill Munnery,amunnery8r@goo.gl,36673644b8208d2f3013a5f8aaaa6cffa5cd2436,8847702055,4657 Lake View Way,Tiraspol,MD-3300,Moldova,317
317,Korry Bearsmore,kbearsmore8s@google.com.br,36673644b8208d2f3013a5f8aaaa6cffa5cd2436,2648082047,63346 Almo Trail,Changtu,,China,318
318,Jerrilee Heijne,jheijne8t@huffingtonpost.com,36673644b8208d2f3013a5f8aaaa6cffa5cd2436,7428410822,6 Acker Avenue,Vsevolozhsk,188649,Russia,319
319,Josselyn Gonnely,jgonnely8u@reference.com,36673644b8208d2f3013a5f8aaaa6cffa5cd2436,4236402951,16 Pleasure Court,Paola,PLA,Malta,320
320,Antoine Comfort,acomfort8v@yolasite.com,36673644b8208d2f3013a5f8aaaa6cffa5cd2436,3218770132,081 Hoepker Point,Lengkeng,,China,321
321,Tania Cornelisse,tcornelisse8w@paginegialle.it,36673644b8208d2f3013a5f8aaaa6cffa5cd2436,3515284571,99 Bay Center,Randuboto,,Indonesia,322
322,Vail Lutton,vlutton8x@livejournal.com,36673644b8208d2f3013a5f8aaaa6cffa5cd2436,6012820600,1503 Scoville Road,Pasar,,Indonesia,323
323,Lauritz Pechan,lpechan8y@loc.gov,36673644b8208d2f3013a5f8aaaa6cffa5cd2436,1082694363,16 Cascade Place,Itoman,901-0361,Japan,324
324,Penni Roggers,proggers8z@jimdo.com,36673644b8208d2f3013a5f8aaaa6cffa5cd2436,7349316463,3 Gina Hill,Pangkalan,,Indonesia,325
325,Wendel Riguard,wriguard90@fotki.com,36673644b8208d2f3013a5f8aaaa6cffa5cd2436,1283682508,3 Ramsey Terrace,Pedreira,13920-000,Brazil,326
326,Jaclyn Morad,jmorad91@cyberchimps.com,36673644b8208d2f3013a5f8aaaa6cffa5cd2436,7365189572,52 Service Avenue,Järna,153 31,Sweden,327
327,Hannie Grandison,hgrandison92@squidoo.com,36673644b8208d2f3013a5f8aaaa6cffa5cd2436,9415210791,6 Prairie Rose Parkway,Jiubao,,China,328
328,Rinaldo Dorricott,rdorricott93@seattletimes.com,36673644b8208d2f3013a5f8aaaa6cffa5cd2436,5612283324,76071 Cody Hill,Zhongcun,,China,329
329,Andros Meekins,ameekins94@facebook.com,36673644b8208d2f3013a5f8aaaa6cffa5cd2436,9241571513,844 Bowman Lane,Young,,Uruguay,330
330,Ignaz McLardie,imclardie95@so-net.ne.jp,36673644b8208d2f3013a5f8aaaa6cffa5cd2436,8079998433,0402 Dennis Lane,Pagsañgahan,4324,Philippines,331
331,Woodrow Magauran,wmagauran96@parallels.com,36673644b8208d2f3013a5f8aaaa6cffa5cd2436,9056187218,10013 Algoma Drive,Even Yehuda,,Israel,332
332,Charley Curragh,ccurragh97@yandex.ru,36673644b8208d2f3013a5f8aaaa6cffa5cd2436,5441619449,1 Hanson Street,Zásmuky,281 44,Czech Republic,333
333,Austine Saunper,asaunper98@topsy.com,36673644b8208d2f3013a5f8aaaa6cffa5cd2436,5894615675,7147 Oak Terrace,San José de Colinas,,Honduras,334
334,Basilio Perillio,bperillio99@businesswire.com,36673644b8208d2f3013a5f8aaaa6cffa5cd2436,7174436662,2184 Talisman Crossing,Harrisburg,17121,United States,335
335,Merle Lound,mlound9a@amazon.de,36673644b8208d2f3013a5f8aaaa6cffa5cd2436,6812166918,06 Donald Place,Sijihong,,China,336
336,Marchall Lyes,mlyes9b@forbes.com,36673644b8208d2f3013a5f8aaaa6cffa5cd2436,5633343365,1 Farragut Junction,Banyulegi,,Indonesia,337
337,Boigie Lowe,blowe9c@123-reg.co.uk,36673644b8208d2f3013a5f8aaaa6cffa5cd2436,6118232792,8236 Milwaukee Street,Lāliān,35470,Pakistan,338
338,Thomasine Whale,twhale9d@amazon.com,36673644b8208d2f3013a5f8aaaa6cffa5cd2436,5344370706,83160 Katie Road,Syamzha,162222,Russia,339
339,Hugues Tatam,htatam9e@sciencedirect.com,36673644b8208d2f3013a5f8aaaa6cffa5cd2436,4726816498,5449 Jana Alley,Basel,4085,Switzerland,340
340,Aland Yannikov,ayannikov9f@cmu.edu,36673644b8208d2f3013a5f8aaaa6cffa5cd2436,4031125484,8 Nobel Street,Kabasalan,7005,Philippines,341
341,Jo-ann Neate,jneate9g@imageshack.us,36673644b8208d2f3013a5f8aaaa6cffa5cd2436,3966403827,45907 Carey Lane,Yurkivka,,Ukraine,342
342,Martguerita Wickham,mwickham9h@imgur.com,36673644b8208d2f3013a5f8aaaa6cffa5cd2436,7675718673,85890 Menomonie Hill,Kampot,,Cambodia,343
343,Laurena McGiven,lmcgiven9i@imageshack.us,36673644b8208d2f3013a5f8aaaa6cffa5cd2436,7678243019,93126 Banding Parkway,Bente,,Indonesia,344
344,Peria Delacroix,pdelacroix9j@uiuc.edu,36673644b8208d2f3013a5f8aaaa6cffa5cd2436,3664300095,4 Kennedy Lane,Jetafe,6334,Philippines,345
345,Marcelia Mangon,mmangon9k@cnbc.com,36673644b8208d2f3013a5f8aaaa6cffa5cd2436,1161475963,1648 Loftsgordon Crossing,Minh Lương,,Vietnam,346
346,Pippa MacGahey,pmacgahey9l@mail.ru,36673644b8208d2f3013a5f8aaaa6cffa5cd2436,3419729939,110 Crest Line Hill,Outeiro,4690-282,Portugal,347
347,Benedetto Quan,bquan9m@dailymail.co.uk,36673644b8208d2f3013a5f8aaaa6cffa5cd2436,7768118421,4245 Drewry Lane,Eguia,8424,Philippines,348
348,Trista Mulvey,tmulvey9n@chronoengine.com,36673644b8208d2f3013a5f8aaaa6cffa5cd2436,3905817577,9323 Meadow Valley Court,El Copey,201018,Colombia,349
349,Chelsae Thomkins,cthomkins9o@imageshack.us,36673644b8208d2f3013a5f8aaaa6cffa5cd2436,1186248110,8775 Ludington Center,El Estor,18003,Guatemala,350
350,Chryste Anyene,canyene9p@wikipedia.org,36673644b8208d2f3013a5f8aaaa6cffa5cd2436,4521887384,3763 Buena Vista Terrace,Neochóri,,Greece,351
351,Noreen Penright,npenright9q@ft.com,36673644b8208d2f3013a5f8aaaa6cffa5cd2436,4563504928,30 Eggendart Point,Muara,,Indonesia,352
352,My Waight,mwaight9r@wikia.com,36673644b8208d2f3013a5f8aaaa6cffa5cd2436,2313464549,05366 Brown Place,Ludu,,China,353
353,Maxwell Topham,mtopham9s@msu.edu,36673644b8208d2f3013a5f8aaaa6cffa5cd2436,4782545616,37494 Anhalt Place,Savannah,31422,United States,354
354,Gisele Janauschek,gjanauschek9t@yahoo.co.jp,36673644b8208d2f3013a5f8aaaa6cffa5cd2436,5505306558,235 International Alley,Valerik,366609,Russia,355
355,Effie Thulborn,ethulborn9u@canalblog.com,36673644b8208d2f3013a5f8aaaa6cffa5cd2436,7565885610,0653 Briar Crest Alley,Luuka Town,,Uganda,356
356,Annnora Marcroft,amarcroft9v@ifeng.com,36673644b8208d2f3013a5f8aaaa6cffa5cd2436,8018663532,50 Alpine Street,Moglicë,,Albania,357
357,Jeri Seignior,jseignior9w@sphinn.com,36673644b8208d2f3013a5f8aaaa6cffa5cd2436,8604155473,1 Ilene Plaza,Markaz al Marīr,,Yemen,358
358,Jessie Steffens,jsteffens9x@senate.gov,36673644b8208d2f3013a5f8aaaa6cffa5cd2436,3039980591,4 East Circle,Aurora,80044,United States,359
359,Raul Kingstne,rkingstne9y@ning.com,36673644b8208d2f3013a5f8aaaa6cffa5cd2436,1367688653,2 Sunbrook Court,Dumbéa,98839,New Caledonia,360
360,Nonie Quinney,nquinney9z@irs.gov,36673644b8208d2f3013a5f8aaaa6cffa5cd2436,6924696083,2 Oak Alley,Wodzisław Śląski,44-373,Poland,361
361,Irving Paprotny,ipaprotnya0@foxnews.com,36673644b8208d2f3013a5f8aaaa6cffa5cd2436,2088432592,6287 Becker Junction,Xinjiezhen,,China,362
362,Byran Goseling,bgoselinga1@cpanel.net,36673644b8208d2f3013a5f8aaaa6cffa5cd2436,8535170199,1 Tomscot Drive,Boden,961 36,Sweden,363
363,Cchaddie Fiske,cfiskea2@yelp.com,36673644b8208d2f3013a5f8aaaa6cffa5cd2436,2987436472,77536 Burrows Point,Puerto Natales,,Chile,364
364,Viole Celes,vcelesa3@typepad.com,36673644b8208d2f3013a5f8aaaa6cffa5cd2436,2041874953,38611 West Way,Xiaoyan,,China,365
365,Pail Treece,ptreecea4@w3.org,36673644b8208d2f3013a5f8aaaa6cffa5cd2436,2514768303,820 Washington Road,Radès,,Tunisia,366
366,Ade Geraldini,ageraldinia5@de.vu,36673644b8208d2f3013a5f8aaaa6cffa5cd2436,5979871878,57 Warbler Street,Tonghu,,China,367
367,Andie Gloster,aglostera6@example.com,36673644b8208d2f3013a5f8aaaa6cffa5cd2436,3637895002,0 Northland Plaza,Pasirtujuhpuluh,,Indonesia,368
368,Auroora Pauling,apaulinga7@networksolutions.com,36673644b8208d2f3013a5f8aaaa6cffa5cd2436,1462925545,52145 Forster Point,Heemskerk,1964,Netherlands,369
369,Shawn Billanie,sbillaniea8@about.me,36673644b8208d2f3013a5f8aaaa6cffa5cd2436,8425569355,88 Green Ridge Way,Kebonan,,Indonesia,370
370,Jan Hillaby,jhillabya9@blogger.com,36673644b8208d2f3013a5f8aaaa6cffa5cd2436,4964922485,96072 Loomis Point,Yawata,961-0406,Japan,371
371,Eula Millins,emillinsaa@hugedomains.com,36673644b8208d2f3013a5f8aaaa6cffa5cd2436,1362678160,72 Jenifer Street,Ufimskiy,623220,Russia,372
372,Vinny Charlot,vcharlotab@yellowpages.com,36673644b8208d2f3013a5f8aaaa6cffa5cd2436,4983336689,4121 Basil Hill,Vityazevo,353421,Russia,373
373,Danell Gibbetts,dgibbettsac@goo.gl,36673644b8208d2f3013a5f8aaaa6cffa5cd2436,4582594488,50431 Roth Terrace,Wangcun,,China,374
374,Darsey Mousby,dmousbyad@admin.ch,36673644b8208d2f3013a5f8aaaa6cffa5cd2436,9412610999,0129 Myrtle Road,Sueyoshichō-ninokata,899-8607,Japan,375
375,Matteo Sheed,msheedae@barnesandnoble.com,36673644b8208d2f3013a5f8aaaa6cffa5cd2436,8582065538,56 Anzinger Drive,Macas,,Ecuador,376
376,Skipton Schimaschke,sschimaschkeaf@dailymotion.com,36673644b8208d2f3013a5f8aaaa6cffa5cd2436,4301636001,2634 Ronald Regan Alley,Qiaodi,,China,377
377,Jaime Macura,jmacuraag@youtu.be,36673644b8208d2f3013a5f8aaaa6cffa5cd2436,1945149609,70 Knutson Parkway,Burgos,8424,Philippines,378
378,Alva Walisiak,awalisiakah@csmonitor.com,36673644b8208d2f3013a5f8aaaa6cffa5cd2436,7394138587,2 Tomscot Hill,Örebro,701 91,Sweden,379
379,Fiorenze Craigg,fcraiggai@salon.com,36673644b8208d2f3013a5f8aaaa6cffa5cd2436,7544292478,155 Elmside Pass,Solânea,58225-000,Brazil,380
380,Sky Akroyd,sakroydaj@mtv.com,36673644b8208d2f3013a5f8aaaa6cffa5cd2436,3163765101,045 Utah Terrace,Heimahe,,China,381
381,Troy Beadel,tbeadelak@storify.com,36673644b8208d2f3013a5f8aaaa6cffa5cd2436,6075778334,2969 Claremont Junction,Tulay,4110,Philippines,382
382,Sayre Rockhall,srockhallal@deliciousdays.com,36673644b8208d2f3013a5f8aaaa6cffa5cd2436,6521452678,82738 Village Green Junction,Karangcombong,,Indonesia,383
383,Cristiano Dimmer,cdimmeram@ucsd.edu,36673644b8208d2f3013a5f8aaaa6cffa5cd2436,4948796490,798 Oakridge Avenue,Revolucion,93610,Mexico,384
384,Waite McMaster,wmcmasteran@mozilla.com,36673644b8208d2f3013a5f8aaaa6cffa5cd2436,9066514554,7251 Farwell Junction,Fontenay-sous-Bois,94124 CEDEX,France,385
385,Rozelle Blakiston,rblakistonao@1und1.de,36673644b8208d2f3013a5f8aaaa6cffa5cd2436,2154983996,9933 Doe Crossing Terrace,Yangdun,,China,386
386,Blisse Connichie,bconnichieap@bloomberg.com,36673644b8208d2f3013a5f8aaaa6cffa5cd2436,7726592777,753 Fordem Circle,Santol,2516,Philippines,387
387,Georgeanne Springthorp,gspringthorpaq@youtu.be,36673644b8208d2f3013a5f8aaaa6cffa5cd2436,8294293560,800 Stuart Pass,Kostanay,,Kazakhstan,388
388,Dyan Betteriss,dbetterissar@tmall.com,36673644b8208d2f3013a5f8aaaa6cffa5cd2436,7546529558,98487 Starling Trail,Krajan Puru,,Indonesia,389
389,Kerry Rapinett,krapinettas@walmart.com,36673644b8208d2f3013a5f8aaaa6cffa5cd2436,8686987035,158 International Park,Buenos Aires,,Honduras,390
390,Jeremiah Mainstone,jmainstoneat@thetimes.co.uk,36673644b8208d2f3013a5f8aaaa6cffa5cd2436,3559624643,4 Briar Crest Park,Sungaikupang,,Indonesia,391
391,Bernita La Torre,blatorreau@slideshare.net,36673644b8208d2f3013a5f8aaaa6cffa5cd2436,4721765386,9 Vernon Street,Aguiar da Beira,3570-014,Portugal,392
392,Mick Ryton,mrytonav@bbb.org,36673644b8208d2f3013a5f8aaaa6cffa5cd2436,5087719006,37 Maywood Lane,Virovitica,33000,Croatia,393
393,Chryste Dackombe,cdackombeaw@buzzfeed.com,36673644b8208d2f3013a5f8aaaa6cffa5cd2436,5208042599,6460 Trailsway Point,Roun Satu,,Indonesia,394
394,Tremaine Ladell,tladellax@rakuten.co.jp,36673644b8208d2f3013a5f8aaaa6cffa5cd2436,8493318776,1498 Mcguire Court,Petrolia,N0N,Canada,395
395,Marilee MacMaykin,mmacmaykinay@si.edu,36673644b8208d2f3013a5f8aaaa6cffa5cd2436,7891075006,41 Ludington Park,Igbeti,,Nigeria,396
396,Joannes Emmot,jemmotaz@unicef.org,36673644b8208d2f3013a5f8aaaa6cffa5cd2436,7424872524,7146 Leroy Lane,Delingha,,China,397
397,Alick Belshaw,abelshawb0@dagondesign.com,36673644b8208d2f3013a5f8aaaa6cffa5cd2436,5268213973,950 Thierer Pass,Heishui,,China,398
398,Janet Cranstone,jcranstoneb1@cpanel.net,36673644b8208d2f3013a5f8aaaa6cffa5cd2436,2818665970,8836 Hermina Road,Caja,,Peru,399
399,Suzi Gladtbach,sgladtbachb2@whitehouse.gov,36673644b8208d2f3013a5f8aaaa6cffa5cd2436,3352434123,15512 Superior Center,Vantaa,01770,Finland,400
400,Candra Sturror,csturrorb3@ezinearticles.com,36673644b8208d2f3013a5f8aaaa6cffa5cd2436,7479708337,9 Carioca Crossing,Pefkochóri,,Greece,401
401,Belva Eller,bellerb4@reference.com,36673644b8208d2f3013a5f8aaaa6cffa5cd2436,1598767448,7 Holmberg Way,Nehe,,China,402
402,Burt Elliston,bellistonb5@va.gov,36673644b8208d2f3013a5f8aaaa6cffa5cd2436,3601943097,2337 Continental Court,Helsingborg,252 30,Sweden,403
403,Myrna Matteris,mmatterisb6@amazon.co.jp,36673644b8208d2f3013a5f8aaaa6cffa5cd2436,2288489117,346 Mallard Parkway,Staryy Oskol,309509,Russia,404
404,Matthiew Earry,mearryb7@newsvine.com,36673644b8208d2f3013a5f8aaaa6cffa5cd2436,8044567901,596 Sherman Trail,Richmond,23237,United States,405
405,Jess Tillerton,jtillertonb8@desdev.cn,36673644b8208d2f3013a5f8aaaa6cffa5cd2436,6844428650,415 5th Drive,Avignon,84019 CEDEX 1,France,406
406,Barrie Busby,bbusbyb9@dropbox.com,36673644b8208d2f3013a5f8aaaa6cffa5cd2436,9843480740,449 Calypso Court,Wissembourg,67165 CEDEX,France,407
407,Evvy Morriarty,emorriartyba@umn.edu,36673644b8208d2f3013a5f8aaaa6cffa5cd2436,2323838769,84 Forest Place,Bečej,,Serbia,408
408,Hatti Spurnier,hspurnierbb@sogou.com,36673644b8208d2f3013a5f8aaaa6cffa5cd2436,2679689883,1937 Green Ridge Trail,Balangpule,,Indonesia,409
409,Janie Thamelt,jthameltbc@netscape.com,36673644b8208d2f3013a5f8aaaa6cffa5cd2436,3602030208,7 Golf Junction,Ulster Spring,,Jamaica,410
410,Fulvia Deem,fdeembd@intel.com,36673644b8208d2f3013a5f8aaaa6cffa5cd2436,6182612862,02 Declaration Terrace,Bukedea,,Uganda,411
411,Maybelle Whiteford,mwhitefordbe@mail.ru,36673644b8208d2f3013a5f8aaaa6cffa5cd2436,8676843271,816 Corscot Point,Napuro,6709,Philippines,412
412,Fiona Skitch,fskitchbf@prlog.org,36673644b8208d2f3013a5f8aaaa6cffa5cd2436,6274196603,73196 Victoria Hill,Dongqiao,,China,413
413,Meghan Burnard,mburnardbg@histats.com,36673644b8208d2f3013a5f8aaaa6cffa5cd2436,7529227311,96987 Alpine Terrace,Aniva,694030,Russia,414
414,Locke Gentric,lgentricbh@histats.com,36673644b8208d2f3013a5f8aaaa6cffa5cd2436,6262077099,2 Algoma Terrace,Potoci,,Bosnia and Herzegovina,415
415,Udale Barbera,ubarberabi@businessweek.com,36673644b8208d2f3013a5f8aaaa6cffa5cd2436,8369533519,005 Welch Court,Corbeil-Essonnes,91104 CEDEX,France,416
416,Anastasia Satterfitt,asatterfittbj@washington.edu,36673644b8208d2f3013a5f8aaaa6cffa5cd2436,4035639743,0892 Carioca Road,Sihe,,China,417
417,Oona Brandham,obrandhambk@fema.gov,36673644b8208d2f3013a5f8aaaa6cffa5cd2436,4882725346,64535 Cordelia Crossing,Luleå,972 42,Sweden,418
418,Katherine Burling,kburlingbl@theguardian.com,36673644b8208d2f3013a5f8aaaa6cffa5cd2436,8337596411,13049 Helena Point,Barueri,06400-000,Brazil,419
419,Consuelo Daveren,cdaverenbm@home.pl,36673644b8208d2f3013a5f8aaaa6cffa5cd2436,9196261697,056 Bartelt Crossing,Talawakele,22100,Sri Lanka,420
420,Nicki Turford,nturfordbn@google.ru,36673644b8208d2f3013a5f8aaaa6cffa5cd2436,6933401118,504 Dexter Pass,Villa Santa Rosa,5133,Argentina,421
421,Gaelan Hardware,ghardwarebo@goodreads.com,36673644b8208d2f3013a5f8aaaa6cffa5cd2436,2878371662,7 Kim Plaza,Rybnoye,393917,Russia,422
422,Olympie Boskell,oboskellbp@xinhuanet.com,36673644b8208d2f3013a5f8aaaa6cffa5cd2436,6835967429,17904 Crownhardt Junction,Soreang,,Indonesia,423
423,Marmaduke Kittless,mkittlessbq@weebly.com,36673644b8208d2f3013a5f8aaaa6cffa5cd2436,3342387093,34 Green Court,Gangbei,,China,424
424,Ray Traill,rtraillbr@linkedin.com,36673644b8208d2f3013a5f8aaaa6cffa5cd2436,5056114132,14 Debra Crossing,Jönköping,550 11,Sweden,425
425,Marjie Ormonde,mormondebs@yellowbook.com,36673644b8208d2f3013a5f8aaaa6cffa5cd2436,2664419286,749 Sunfield Plaza,Södertälje,151 52,Sweden,426
426,Morganne Launchbury,mlaunchburybt@cornell.edu,36673644b8208d2f3013a5f8aaaa6cffa5cd2436,4231911995,62504 Maple Wood Place,Malysheva,624287,Russia,427
427,Ernestus Bidwell,ebidwellbu@tinyurl.com,36673644b8208d2f3013a5f8aaaa6cffa5cd2436,5138357186,86192 Northland Park,Krajan Kidul Rojopolo,,Indonesia,428
428,Derek Mirando,dmirandobv@drupal.org,36673644b8208d2f3013a5f8aaaa6cffa5cd2436,7162458504,30 Dunning Point,Newtown,RG20,United Kingdom,429
429,Mattie Saxon,msaxonbw@jugem.jp,36673644b8208d2f3013a5f8aaaa6cffa5cd2436,2792124958,2 Texas Circle,Piedade,18170-000,Brazil,430
430,Hayyim Hasluck,hhasluckbx@newsvine.com,36673644b8208d2f3013a5f8aaaa6cffa5cd2436,6151350425,6 Mallory Parkway,Qingshan,,China,431
431,Christoffer Malin,cmalinby@hc360.com,36673644b8208d2f3013a5f8aaaa6cffa5cd2436,4194730857,8183 Carberry Circle,Caotang,,China,432
432,Sigmund Olpin,solpinbz@google.com.hk,36673644b8208d2f3013a5f8aaaa6cffa5cd2436,6778514880,3 Lakeland Court,Hanlin,,China,433
433,Marin Tayt,mtaytc0@archive.org,36673644b8208d2f3013a5f8aaaa6cffa5cd2436,7269649381,08719 American Way,Lac La Biche,E1W,Canada,434
434,Brunhilde Avrahamoff,bavrahamoffc1@creativecommons.org,36673644b8208d2f3013a5f8aaaa6cffa5cd2436,4413600561,3 Waubesa Park,Parapat,,Indonesia,435
435,Gilly Alliston,gallistonc2@ifeng.com,36673644b8208d2f3013a5f8aaaa6cffa5cd2436,2173873064,5 Schurz Pass,Hongyuan,,China,436
436,Flory Craighill,fcraighillc3@odnoklassniki.ru,36673644b8208d2f3013a5f8aaaa6cffa5cd2436,2458400949,63 Luster Trail,Hodkovice nad Mohelkou,463 42,Czech Republic,437
437,Modesty Eakins,meakinsc4@redcross.org,36673644b8208d2f3013a5f8aaaa6cffa5cd2436,9733536309,68 Shoshone Way,Gutang,,China,438
438,Ryon Littleover,rlittleoverc5@g.co,36673644b8208d2f3013a5f8aaaa6cffa5cd2436,4518109409,2 Eliot Parkway,Kotabunan,,Indonesia,439
439,Pris Nelthrop,pnelthropc6@arstechnica.com,36673644b8208d2f3013a5f8aaaa6cffa5cd2436,6996061571,78 Maywood Circle,Baru,,Indonesia,440
440,Thea Van der Hoven,tvanderhovenc7@blogspot.com,36673644b8208d2f3013a5f8aaaa6cffa5cd2436,5134417340,1 Sunfield Parkway,Situbondo,,Indonesia,441
441,Michelle Aymeric,maymericc8@unc.edu,36673644b8208d2f3013a5f8aaaa6cffa5cd2436,2591053186,867 Meadow Vale Terrace,Soavinandriana,,Madagascar,442
442,Chicky Bodman,cbodmanc9@purevolume.com,36673644b8208d2f3013a5f8aaaa6cffa5cd2436,3065140040,8261 La Follette Plaza,Wan Yai,49150,Thailand,443
443,Dotti Rosenhaus,drosenhausca@artisteer.com,36673644b8208d2f3013a5f8aaaa6cffa5cd2436,4158676898,9 Dayton Place,Arevik,,Armenia,444
444,Lodovico Halgarth,lhalgarthcb@theglobeandmail.com,36673644b8208d2f3013a5f8aaaa6cffa5cd2436,9951463890,8 Vera Junction,Znomenka,,Ukraine,445
445,Fleurette Ivins,fivinscc@stanford.edu,36673644b8208d2f3013a5f8aaaa6cffa5cd2436,6501552350,029 Basil Lane,Haiyangsuo,,China,446
446,Gennifer Inchley,ginchleycd@nationalgeographic.com,36673644b8208d2f3013a5f8aaaa6cffa5cd2436,4397815659,857 Holy Cross Point,Gaotang,,China,447
447,Gabriel Saltsberger,gsaltsbergerce@furl.net,36673644b8208d2f3013a5f8aaaa6cffa5cd2436,1934640454,0614 Mandrake Plaza,Verkhniy Baskunchak,416530,Russia,448
448,Allissa Spinley,aspinleycf@earthlink.net,36673644b8208d2f3013a5f8aaaa6cffa5cd2436,5456281340,75 Southridge Center,Sarandi,99560-000,Brazil,449
449,Fionna Doohey,fdooheycg@ca.gov,36673644b8208d2f3013a5f8aaaa6cffa5cd2436,9331797253,1 Crowley Lane,Sumberdadi,,Indonesia,450
450,Domenic Solesbury,dsolesburych@nih.gov,36673644b8208d2f3013a5f8aaaa6cffa5cd2436,3021736111,0 Buena Vista Center,Santa Cruz del Norte,,Cuba,451
451,Debora Quilty,dquiltyci@prlog.org,36673644b8208d2f3013a5f8aaaa6cffa5cd2436,4637544842,961 Cascade Street,Gif-sur-Yvette,91194 CEDEX,France,452
452,Temple MacKnocker,tmacknockercj@weather.com,36673644b8208d2f3013a5f8aaaa6cffa5cd2436,8584039942,4167 Calypso Drive,El Nido,5313,Philippines,453
453,Dinnie Pinchback,dpinchbackck@comsenz.com,36673644b8208d2f3013a5f8aaaa6cffa5cd2436,1655397215,81 Melvin Drive,Anderstorp,334 80,Sweden,454
454,Elisha Rodder,eroddercl@globo.com,36673644b8208d2f3013a5f8aaaa6cffa5cd2436,5808134325,1 Declaration Avenue,Dos Hermanas,41703,Spain,455
455,Nicol Marlow,nmarlowcm@ameblo.jp,36673644b8208d2f3013a5f8aaaa6cffa5cd2436,9784007225,837 Johnson Parkway,Nong Yai,20190,Thailand,456
456,Roze MacGray,rmacgraycn@php.net,36673644b8208d2f3013a5f8aaaa6cffa5cd2436,4981505483,17036 Debra Avenue,Novovorontsovka,,Ukraine,457
457,Helli Weight,hweightco@microsoft.com,36673644b8208d2f3013a5f8aaaa6cffa5cd2436,1482571977,27 Marcy Alley,Linquan,,China,458
458,Leonerd Sancto,lsanctocp@tripod.com,36673644b8208d2f3013a5f8aaaa6cffa5cd2436,8322441371,860 Kropf Place,Pécs,7646,Hungary,459
459,Vin Johnsson,vjohnssoncq@domainmarket.com,36673644b8208d2f3013a5f8aaaa6cffa5cd2436,3197259388,4638 Linden Park,Qŭrghontepa,,Uzbekistan,460
460,Clayborn Maddy,cmaddycr@networkadvertising.org,36673644b8208d2f3013a5f8aaaa6cffa5cd2436,9408893764,834 Eagan Avenue,Dasht-e Archī,,Afghanistan,461
461,Lu Heaselgrave,lheaselgravecs@mashable.com,36673644b8208d2f3013a5f8aaaa6cffa5cd2436,4753678846,016 Kedzie Point,Balykchy,,Kyrgyzstan,462
462,Garold Tuckwood,gtuckwoodct@timesonline.co.uk,36673644b8208d2f3013a5f8aaaa6cffa5cd2436,5885302948,59412 Atwood Hill,Santa Fe,6513,Philippines,463
463,Wendeline Pike,wpikecu@gmpg.org,36673644b8208d2f3013a5f8aaaa6cffa5cd2436,1256586387,3 Kingsford Junction,Muhoroni,,Kenya,464
464,Robers Ailward,railwardcv@google.ru,36673644b8208d2f3013a5f8aaaa6cffa5cd2436,4237903039,125 Heath Park,Yaguajay,,Cuba,465
465,Russell Ambrogioli,rambrogiolicw@mapquest.com,36673644b8208d2f3013a5f8aaaa6cffa5cd2436,6981864727,99556 Golf Drive,São Gabriel da Cachoeira,69750-000,Brazil,466
466,Juliette Bending,jbendingcx@yahoo.co.jp,36673644b8208d2f3013a5f8aaaa6cffa5cd2436,9805755771,3493 Hoepker Way,Nickby,21310,Finland,467
467,Marys Castanaga,mcastanagacy@github.com,36673644b8208d2f3013a5f8aaaa6cffa5cd2436,7978228446,434 Sutteridge Road,Limbi,,Comoros,468
468,Blanch McDiarmid,bmcdiarmidcz@geocities.com,36673644b8208d2f3013a5f8aaaa6cffa5cd2436,4147205150,9447 Esch Junction,Cizhu,,China,469
469,Nestor Adlam,nadlamd0@unesco.org,36673644b8208d2f3013a5f8aaaa6cffa5cd2436,7699420008,3296 Becker Circle,Puerto López,502009,Colombia,470
470,Gretchen Canny,gcannyd1@un.org,36673644b8208d2f3013a5f8aaaa6cffa5cd2436,9675901921,1 Florence Avenue,Kuytun,665302,Russia,471
471,Kalina Cosgry,kcosgryd2@washington.edu,36673644b8208d2f3013a5f8aaaa6cffa5cd2436,9257444440,477 North Street,Nam Khun,34260,Thailand,472
472,Amye McGall,amcgalld3@newyorker.com,36673644b8208d2f3013a5f8aaaa6cffa5cd2436,2741298853,4572 Vernon Center,Soito,3460-710,Portugal,473
473,Dwain Spillett,dspillettd4@nps.gov,36673644b8208d2f3013a5f8aaaa6cffa5cd2436,8248666198,0 Algoma Parkway,Guozhuang,,China,474
474,Estevan Humphery,ehumpheryd5@flavors.me,36673644b8208d2f3013a5f8aaaa6cffa5cd2436,5819400364,06 Shasta Junction,Huangxikou,,China,475
475,Nikola Arrowsmith,narrowsmithd6@boston.com,36673644b8208d2f3013a5f8aaaa6cffa5cd2436,3012653883,43061 Dunning Junction,Själevad,894 31,Sweden,476
476,Antoni MacConnulty,amacconnultyd7@amazon.co.jp,36673644b8208d2f3013a5f8aaaa6cffa5cd2436,4854280713,42296 Washington Lane,Ino,911-0812,Japan,477
477,Wendel McLelland,wmclellandd8@cornell.edu,36673644b8208d2f3013a5f8aaaa6cffa5cd2436,5697321625,62717 Gateway Court,Tyrawa Wołoska,38-535,Poland,478
478,Marco Wixey,mwixeyd9@narod.ru,36673644b8208d2f3013a5f8aaaa6cffa5cd2436,1891856740,09211 Merry Terrace,Vereya,142633,Russia,479
479,Bunni Sabatier,bsabatierda@techcrunch.com,36673644b8208d2f3013a5f8aaaa6cffa5cd2436,5855562557,16 New Castle Lane,Walce,47-344,Poland,480
480,Andre Sleigh,asleighdb@technorati.com,36673644b8208d2f3013a5f8aaaa6cffa5cd2436,6968379279,5521 Monument Trail,Charlemagne,J6V,Canada,481
481,Sibylla McNiven,smcnivendc@bloglovin.com,36673644b8208d2f3013a5f8aaaa6cffa5cd2436,7061753378,3370 Di Loreto Court,Lumbayan,7000,Philippines,482
482,Erv Mottini,emottinidd@yellowbook.com,36673644b8208d2f3013a5f8aaaa6cffa5cd2436,6783301122,7597 Derek Center,Boguchar,396779,Russia,483
483,Leesa Strank,lstrankde@timesonline.co.uk,36673644b8208d2f3013a5f8aaaa6cffa5cd2436,5832249343,9 Corben Place,Bayanaūyl,,Kazakhstan,484
484,Marven Nevett,mnevettdf@nydailynews.com,36673644b8208d2f3013a5f8aaaa6cffa5cd2436,3468502719,7415 Union Way,Campina Grande,58100-000,Brazil,485
485,Baxter Stubs,bstubsdg@wordpress.org,36673644b8208d2f3013a5f8aaaa6cffa5cd2436,9246231205,835 Judy Place,Cikijing,,Indonesia,486
486,Darcie Roizin,droizindh@themeforest.net,36673644b8208d2f3013a5f8aaaa6cffa5cd2436,4606166282,46774 Dapin Hill,Xiayunling,,China,487
487,Peder Serrell,pserrelldi@blogger.com,36673644b8208d2f3013a5f8aaaa6cffa5cd2436,9757456312,00000 Bluestem Terrace,Kumanis,,Indonesia,488
488,Emmalynne Marie,emariedj@ucoz.com,36673644b8208d2f3013a5f8aaaa6cffa5cd2436,5157525622,398 Delladonna Avenue,Smara,,Western Sahara,489
489,Ina Champ,ichampdk@tumblr.com,36673644b8208d2f3013a5f8aaaa6cffa5cd2436,5158540266,5 Mariners Cove Trail,Sozopol,8131,Bulgaria,490
490,Octavia Glazyer,oglazyerdl@pcworld.com,36673644b8208d2f3013a5f8aaaa6cffa5cd2436,5238998850,85 Rieder Road,Tsákoi,,Greece,491
491,Ivonne Yurchishin,iyurchishindm@gravatar.com,36673644b8208d2f3013a5f8aaaa6cffa5cd2436,5913507223,7 Arizona Center,Frankfort,9830,South Africa,492
492,Yorgo Trippack,ytrippackdn@w3.org,36673644b8208d2f3013a5f8aaaa6cffa5cd2436,8562381761,69 Manufacturers Street,Villeneuve-la-Garenne,92398 CEDEX,France,493
493,Faber Brosh,fbroshdo@yandex.ru,36673644b8208d2f3013a5f8aaaa6cffa5cd2436,6962184671,61434 Vermont Pass,Qingshi,,China,494
494,Alma Kopfen,akopfendp@squarespace.com,36673644b8208d2f3013a5f8aaaa6cffa5cd2436,5928941733,525 Sullivan Point,Wanying,,China,495
495,Jessica Senecaut,jsenecautdq@mit.edu,36673644b8208d2f3013a5f8aaaa6cffa5cd2436,9468489962,42387 Bay Parkway,Ciasna,42-793,Poland,496
496,Grata Wathan,gwathandr@pagesperso-orange.fr,36673644b8208d2f3013a5f8aaaa6cffa5cd2436,2386203136,505 Sutteridge Center,Muleng,,China,497
497,Merrile Fifoot,mfifootds@sciencedirect.com,36673644b8208d2f3013a5f8aaaa6cffa5cd2436,1469703325,4 Havey Hill,Esch-sur-Alzette,L-4354,Luxembourg,498
498,Fredric Danford,fdanforddt@elegantthemes.com,36673644b8208d2f3013a5f8aaaa6cffa5cd2436,8725842407,10854 Carey Way,Calape,6328,Philippines,499
499,Kellen Backwell,kbackwelldu@soundcloud.com,36673644b8208d2f3013a5f8aaaa6cffa5cd2436,4194092112,40 Corry Plaza,Manturovo,157305,Russia,500
500,Elita Chetwynd,echetwynddv@g.co,36673644b8208d2f3013a5f8aaaa6cffa5cd2436,4317382120,58947 Katie Avenue,San Carlos de Bolívar,6550,Argentina,501
501,Alfreda Bloore,ablooredw@1und1.de,36673644b8208d2f3013a5f8aaaa6cffa5cd2436,5058375593,484 Anhalt Point,Seraya,,Indonesia,502
502,Odelle Iddenden,oiddendendx@engadget.com,36673644b8208d2f3013a5f8aaaa6cffa5cd2436,2769307522,81 Knutson Terrace,Bothaville,9663,South Africa,503
503,Penni Lefwich,plefwichdy@blog.com,36673644b8208d2f3013a5f8aaaa6cffa5cd2436,7035417123,8491 Leroy Avenue,Chadian,,China,504
504,Tamma Allwood,tallwooddz@shareasale.com,36673644b8208d2f3013a5f8aaaa6cffa5cd2436,3733797570,2 Havey Court,Pabean,,Indonesia,505
505,Rhodia Waggitt,rwaggitte0@webeden.co.uk,36673644b8208d2f3013a5f8aaaa6cffa5cd2436,1443780348,94 Bayside Junction,Cergy-Pontoise,95072 CEDEX 1,France,506
506,Marabel Heustice,mheusticee1@myspace.com,36673644b8208d2f3013a5f8aaaa6cffa5cd2436,6624271688,23 Butterfield Center,Lena,,Indonesia,507
507,Casey Rubbert,crubberte2@arstechnica.com,595c716cf1f14f9ea3cfec70da6a1026514a9772,2117566191,5 Cherokee Drive,Loket,357 33,Czech Republic,508
508,Carlin Braven,cbravene3@purevolume.com,595c716cf1f14f9ea3cfec70da6a1026514a9772,2195231336,778 Gina Trail,Shchuchin,,Belarus,509
509,Lin Redmire,lredmiree4@reddit.com,595c716cf1f14f9ea3cfec70da6a1026514a9772,3411712495,586 Bartelt Circle,Damatou,,China,510
510,Lenette Wetwood,lwetwoode5@cdbaby.com,595c716cf1f14f9ea3cfec70da6a1026514a9772,3835728977,7115 Lakeland Parkway,Əhmədbəyli,,Azerbaijan,511
511,Addison Clempton,aclemptone6@disqus.com,595c716cf1f14f9ea3cfec70da6a1026514a9772,4533435908,2739 Crest Line Drive,Albert Town,,Jamaica,512
512,Kurt Florentine,kflorentinee7@discuz.net,595c716cf1f14f9ea3cfec70da6a1026514a9772,4822364834,05271 Haas Circle,Fontenay-sous-Bois,94129 CEDEX,France,513
513,Blaire Kedge,bkedgee8@google.pl,595c716cf1f14f9ea3cfec70da6a1026514a9772,1187345263,798 Starling Lane,Skibbereen,P81,Ireland,514
514,Sherry Atton,sattone9@squidoo.com,595c716cf1f14f9ea3cfec70da6a1026514a9772,2693896887,41340 Valley Edge Street,Tal’ne,,Ukraine,515
515,Silvia McTerrelly,smcterrellyea@washington.edu,595c716cf1f14f9ea3cfec70da6a1026514a9772,5011210035,9261 Rusk Plaza,Colombia,,Cuba,516
516,Elisha Burrel,eburreleb@whitehouse.gov,595c716cf1f14f9ea3cfec70da6a1026514a9772,1232057586,307 Golden Leaf Hill,Nanpu,,China,517
517,Salomo Tewkesbury.,stewkesburyec@163.com,595c716cf1f14f9ea3cfec70da6a1026514a9772,9355891551,66 Lighthouse Bay Trail,Saray,,Azerbaijan,518
518,Nev Instock,ninstocked@zimbio.com,595c716cf1f14f9ea3cfec70da6a1026514a9772,2265462609,6797 Sommers Park,Changchuan,,China,519
519,Matthias Gabler,mgableree@abc.net.au,595c716cf1f14f9ea3cfec70da6a1026514a9772,2833315959,85809 Dennis Trail,Qingshuihe,,China,520
520,Janka Lacer,jlaceref@arstechnica.com,595c716cf1f14f9ea3cfec70da6a1026514a9772,5124177542,56803 Briar Crest Center,San Bernardo,3328,Philippines,521
521,Broderick Glazyer,bglazyereg@sfgate.com,595c716cf1f14f9ea3cfec70da6a1026514a9772,1876308258,64364 Ilene Junction,Alpatovo,433303,Russia,522
522,Russell Pleat,rpleateh@dot.gov,595c716cf1f14f9ea3cfec70da6a1026514a9772,2533395461,815 Canary Pass,Ukmerge,20012,Lithuania,523
523,Morna Bogie,mbogieei@cmu.edu,595c716cf1f14f9ea3cfec70da6a1026514a9772,2015165187,058 Duke Trail,Sarilhos Grandes,2870-514,Portugal,524
524,Emlyn Averall,eaverallej@moonfruit.com,595c716cf1f14f9ea3cfec70da6a1026514a9772,7227176931,07 Holmberg Way,Marsa Alam,,Egypt,525
525,Daryl Furzey,dfurzeyek@dropbox.com,595c716cf1f14f9ea3cfec70da6a1026514a9772,3907071302,8631 Walton Drive,Sepahua,,Peru,526
526,Johan Issitt,jissittel@usda.gov,595c716cf1f14f9ea3cfec70da6a1026514a9772,7684420855,4 Kenwood Court,Baní,10505,Dominican Republic,527
527,Giralda Kornyshev,gkornyshevem@opera.com,595c716cf1f14f9ea3cfec70da6a1026514a9772,5581140320,34136 Randy Center,Olocuilta,,El Salvador,528
528,Farrell Stollwerk,fstollwerken@chicagotribune.com,595c716cf1f14f9ea3cfec70da6a1026514a9772,2303942217,87 Anniversary Circle,Haozhai,,China,529
529,Adolpho Size,asizeeo@psu.edu,595c716cf1f14f9ea3cfec70da6a1026514a9772,4088925662,7 Lillian Point,Ciudad Guayana,,Venezuela,530
530,Cheri Lamasna,clamasnaep@vk.com,595c716cf1f14f9ea3cfec70da6a1026514a9772,5407897168,26263 Mallory Way,Roanoke,24009,United States,531
531,Melvin Hyman,mhymaneq@goo.ne.jp,595c716cf1f14f9ea3cfec70da6a1026514a9772,8864766139,828 Shoshone Junction,Los Guayos,,Venezuela,532
532,Wilma Youell,wyoueller@wunderground.com,595c716cf1f14f9ea3cfec70da6a1026514a9772,8508118691,7311 Lotheville Point,Caicó,59300-000,Brazil,533
533,Sascha Bardell,sbardelles@uol.com.br,595c716cf1f14f9ea3cfec70da6a1026514a9772,3949807220,050 Del Mar Parkway,Dzyarzhynsk,,Belarus,534
534,Dorey Raynes,drayneset@netscape.com,595c716cf1f14f9ea3cfec70da6a1026514a9772,2829872811,0 Village Trail,Sarae,,Indonesia,535
535,Seymour Whyberd,swhyberdeu@squarespace.com,595c716cf1f14f9ea3cfec70da6a1026514a9772,5032661965,8 Northview Avenue,Abengourou,,Ivory Coast,536
536,Teddie Goodley,tgoodleyev@ox.ac.uk,595c716cf1f14f9ea3cfec70da6a1026514a9772,3086035372,2576 Meadow Valley Pass,San Fernando,8711,Philippines,537
537,Ichabod Mariel,imarielew@mediafire.com,595c716cf1f14f9ea3cfec70da6a1026514a9772,3355170249,64 Kenwood Alley,San Antonio,4503,Argentina,538
538,Dorita Gush,dgushex@bizjournals.com,595c716cf1f14f9ea3cfec70da6a1026514a9772,3613636873,6145 Darwin Pass,Klang,41200,Malaysia,539
539,Michell Lobe,mlobeey@yellowpages.com,595c716cf1f14f9ea3cfec70da6a1026514a9772,6575848636,2 Surrey Terrace,Caçapava,12280-000,Brazil,540
540,Vitia Rillett,vrillettez@360.cn,595c716cf1f14f9ea3cfec70da6a1026514a9772,3463433912,4134 Sutherland Place,Lenningen,L-5431,Luxembourg,541
541,Archambault Gauntley,agauntleyf0@yolasite.com,595c716cf1f14f9ea3cfec70da6a1026514a9772,1554661029,47 Lawn Center,Nanfeng,,China,542
542,Glenda Hazell,ghazellf1@angelfire.com,595c716cf1f14f9ea3cfec70da6a1026514a9772,2908573095,60917 4th Center,Oliveira de Baixo,3515-541,Portugal,543
543,Ebenezer Ketchaside,eketchasidef2@360.cn,595c716cf1f14f9ea3cfec70da6a1026514a9772,8725686298,61091 Petterle Trail,Yongshan,,China,544
544,Teodora McNulty,tmcnultyf3@newyorker.com,595c716cf1f14f9ea3cfec70da6a1026514a9772,6113135969,806 Memorial Junction,Shinkafe,,Nigeria,545
545,Massimo Cleeve,mcleevef4@uiuc.edu,595c716cf1f14f9ea3cfec70da6a1026514a9772,2256652904,00675 Golf Avenue,Lakkíon,,Greece,546
546,Orazio Wreiford,owreifordf5@aboutads.info,595c716cf1f14f9ea3cfec70da6a1026514a9772,7617005547,86961 Columbus Park,Tigre,3350,Argentina,547
547,Bidget Haddick,bhaddickf6@domainmarket.com,595c716cf1f14f9ea3cfec70da6a1026514a9772,9299614888,2 Old Gate Terrace,Shangchewan,,China,548
548,Elga Wild,ewildf7@uol.com.br,595c716cf1f14f9ea3cfec70da6a1026514a9772,4788813930,2 Ramsey Plaza,Elefsína,,Greece,549
549,William Wardlow,wwardlowf8@homestead.com,595c716cf1f14f9ea3cfec70da6a1026514a9772,7892596955,4 American Ash Circle,Krzepice,42-160,Poland,550
550,Pennie Pritchard,ppritchardf9@chron.com,595c716cf1f14f9ea3cfec70da6a1026514a9772,6225466245,86132 North Park,Priob’ye,628126,Russia,551
551,Kiley Croall,kcroallfa@acquirethisname.com,595c716cf1f14f9ea3cfec70da6a1026514a9772,7163789171,246 Warbler Plaza,Kanzaki,842-0001,Japan,552
552,Nikola Castano,ncastanofb@ezinearticles.com,595c716cf1f14f9ea3cfec70da6a1026514a9772,4821861086,70 Lyons Park,Montecarlo,3384,Argentina,553
553,Daniella Coatman,dcoatmanfc@imgur.com,595c716cf1f14f9ea3cfec70da6a1026514a9772,7978489816,24784 Huxley Avenue,Paulínia,13140-000,Brazil,554
554,Zeb Fort,zfortfd@ucla.edu,595c716cf1f14f9ea3cfec70da6a1026514a9772,5742911560,05 Transport Avenue,Soldato-Aleksandrovskoye,357920,Russia,555
555,Artemas Firmager,afirmagerfe@github.com,595c716cf1f14f9ea3cfec70da6a1026514a9772,3353873446,689 Monterey Circle,Mungging,,Indonesia,556
556,Keary Yarnold,kyarnoldff@go.com,595c716cf1f14f9ea3cfec70da6a1026514a9772,9689694146,5 Donald Lane,Sungi Liput,,Indonesia,557
557,Brannon Wellsman,bwellsmanfg@cisco.com,595c716cf1f14f9ea3cfec70da6a1026514a9772,2299916492,802 Corben Pass,Rejasa Kaja,,Indonesia,558
558,Lay Leyton,lleytonfh@google.co.jp,595c716cf1f14f9ea3cfec70da6a1026514a9772,5131656821,32 Pierstorff Trail,Bol’shoye Skuratovo,243366,Russia,559
559,Stacey Dorsey,sdorseyfi@wisc.edu,595c716cf1f14f9ea3cfec70da6a1026514a9772,9777871501,499 Del Mar Court,Pueblo Nuevo,52332,Mexico,560
560,Petronilla Kopman,pkopmanfj@storify.com,595c716cf1f14f9ea3cfec70da6a1026514a9772,7579912909,895 Esch Alley,Ergates,,Cyprus,561
561,Gabby Gow,ggowfk@quantcast.com,595c716cf1f14f9ea3cfec70da6a1026514a9772,9698592318,9 Saint Paul Crossing,Plymouth,,Montserrat,562
562,Gretna Amori,gamorifl@usnews.com,595c716cf1f14f9ea3cfec70da6a1026514a9772,5243986207,86 Shasta Place,Wilkowice,43-365,Poland,563
563,Udall Reinhart,ureinhartfm@wufoo.com,595c716cf1f14f9ea3cfec70da6a1026514a9772,7265323560,47930 Maple Hill,Byala Slatina,3252,Bulgaria,564
564,Moll Thiese,mthiesefn@nasa.gov,595c716cf1f14f9ea3cfec70da6a1026514a9772,5011137459,5355 Colorado Pass,Fort Macleod,V6S,Canada,565
565,Jordan Joyson,jjoysonfo@de.vu,595c716cf1f14f9ea3cfec70da6a1026514a9772,4005288181,8318 Towne Lane,Doko,,Indonesia,566
566,Elston Polamontayne,epolamontaynefp@posterous.com,595c716cf1f14f9ea3cfec70da6a1026514a9772,9536311272,368 Warbler Pass,Qabaqçöl,,Azerbaijan,567
567,Gerek Lodden,gloddenfq@smh.com.au,595c716cf1f14f9ea3cfec70da6a1026514a9772,1184833311,7 Bowman Drive,Ginir,,Ethiopia,568
568,Larisa Ropars,lroparsfr@chicagotribune.com,595c716cf1f14f9ea3cfec70da6a1026514a9772,2306198152,65 Morningstar Center,Rogóźno,86-318,Poland,569
569,Blondy MacTrusty,bmactrustyfs@biblegateway.com,595c716cf1f14f9ea3cfec70da6a1026514a9772,7777923077,9977 Anniversary Trail,Yélimané,,Mali,570
570,Riccardo Herries,rherriesft@ed.gov,595c716cf1f14f9ea3cfec70da6a1026514a9772,9819879593,02766 Dixon Point,Yongfeng,,China,571
571,Marigold Dinning,mdinningfu@mayoclinic.com,595c716cf1f14f9ea3cfec70da6a1026514a9772,1535079006,09 Brentwood Place,Ala-Buka,,Kyrgyzstan,572
572,Bab Borrie,bborriefv@vk.com,595c716cf1f14f9ea3cfec70da6a1026514a9772,4228491459,574 Doe Crossing Junction,Guararé,,Panama,573
573,Nicko Mattek,nmattekfw@ihg.com,595c716cf1f14f9ea3cfec70da6a1026514a9772,5528889250,615 Crowley Circle,Mīzan Teferī,,Ethiopia,574
574,Garv McOrkill,gmcorkillfx@icio.us,595c716cf1f14f9ea3cfec70da6a1026514a9772,7746728935,34 Hermina Center,Valence,26953 CEDEX 9,France,575
575,Kahlil Chart,kchartfy@myspace.com,595c716cf1f14f9ea3cfec70da6a1026514a9772,6266119462,53342 Harper Road,Alhambra,91841,United States,576
576,Chiarra Mordacai,cmordacaifz@parallels.com,595c716cf1f14f9ea3cfec70da6a1026514a9772,5158945007,19 Shopko Circle,Des Moines,50393,United States,577
577,Montgomery Aliberti,malibertig0@princeton.edu,595c716cf1f14f9ea3cfec70da6a1026514a9772,3149684874,246 Vera Circle,Chixi,,China,578
578,Libbey Massingberd,lmassingberdg1@tinyurl.com,595c716cf1f14f9ea3cfec70da6a1026514a9772,1028447389,665 Ronald Regan Point,Sbikha,,Tunisia,579
579,Yasmeen Dobbison,ydobbisong2@blogger.com,595c716cf1f14f9ea3cfec70da6a1026514a9772,2741918176,29853 Continental Plaza,Pórto Chéli,,Greece,580
580,Bettina Greystoke,bgreystokeg3@github.com,595c716cf1f14f9ea3cfec70da6a1026514a9772,3026576576,51 Pond Circle,Laon,02019 CEDEX,France,581
581,Cacilia Figgess,cfiggessg4@edublogs.org,595c716cf1f14f9ea3cfec70da6a1026514a9772,4696967872,47 Butternut Junction,San Antonio del Monte,,El Salvador,582
582,Etan Filby,efilbyg5@soup.io,595c716cf1f14f9ea3cfec70da6a1026514a9772,1873528724,712 Northfield Alley,Kuzhorskaya,385765,Russia,583
583,Obidiah Kisting,okistingg6@creativecommons.org,595c716cf1f14f9ea3cfec70da6a1026514a9772,5935648078,1 Cordelia Way,Telsiai,87001,Lithuania,584
584,Ody Demeza,odemezag7@utexas.edu,595c716cf1f14f9ea3cfec70da6a1026514a9772,1989665915,2989 Jay Park,Sinamar,1230,Philippines,585
585,Felicio de Grey,fdegreyg8@51.la,595c716cf1f14f9ea3cfec70da6a1026514a9772,8687118106,1648 Ramsey Park,Coaticook,J1A,Canada,586
586,Owen Burdass,oburdassg9@soundcloud.com,595c716cf1f14f9ea3cfec70da6a1026514a9772,7932592004,3786 Oxford Lane,Priupskiy,102042,Russia,587
587,Fay Winterbotham,fwinterbothamga@livejournal.com,595c716cf1f14f9ea3cfec70da6a1026514a9772,9079472403,4 Calypso Circle,Fairbanks,99709,United States,588
588,Marya Clapham,mclaphamgb@umn.edu,595c716cf1f14f9ea3cfec70da6a1026514a9772,4598038608,541 Porter Terrace,Dolores,6817,Philippines,589
589,Nessa Bunney,nbunneygc@oakley.com,595c716cf1f14f9ea3cfec70da6a1026514a9772,3476872337,4 Memorial Way,Panjiawan,,China,590
590,Em Sibbet,esibbetgd@i2i.jp,595c716cf1f14f9ea3cfec70da6a1026514a9772,2542086889,1975 High Crossing Pass,Cimara,,Indonesia,591
591,Suzanne Covey,scoveyge@geocities.jp,595c716cf1f14f9ea3cfec70da6a1026514a9772,2743548033,4 Beilfuss Road,Guaxupé,37800-000,Brazil,592
592,Natal Harlowe,nharlowegf@amazon.co.jp,595c716cf1f14f9ea3cfec70da6a1026514a9772,2448691309,49 Loeprich Crossing,Virginia,9484,South Africa,593
593,Kimbra Emmens,kemmensgg@nhs.uk,595c716cf1f14f9ea3cfec70da6a1026514a9772,4574709209,155 Dawn Center,Seltjarnarnes,172,Iceland,594
594,Findley Inseal,finsealgh@dot.gov,595c716cf1f14f9ea3cfec70da6a1026514a9772,1095685107,655 Continental Way,Desa Baregbeg,,Indonesia,595
595,Dwight Wyke,dwykegi@reuters.com,595c716cf1f14f9ea3cfec70da6a1026514a9772,6988281455,75515 Algoma Court,Xinmin,,China,596
596,Elmo Kollasch,ekollaschgj@domainmarket.com,595c716cf1f14f9ea3cfec70da6a1026514a9772,7716276060,48 Oakridge Drive,San Jacinto,5417,Philippines,597
597,Larissa Belward,lbelwardgk@marriott.com,595c716cf1f14f9ea3cfec70da6a1026514a9772,9343612656,8 Gale Crossing,Shapa,,China,598
598,Johan Madgett,jmadgettgl@forbes.com,595c716cf1f14f9ea3cfec70da6a1026514a9772,3933078704,3 Browning Avenue,Yangjinzhuang,,China,599
599,Dahlia Rambaut,drambautgm@zimbio.com,595c716cf1f14f9ea3cfec70da6a1026514a9772,6277207508,1 Surrey Way,Caraguatatuba,11660-000,Brazil,600
600,Zorah Coste,zcostegn@earthlink.net,595c716cf1f14f9ea3cfec70da6a1026514a9772,2513437310,10 Fremont Crossing,Ciakar,,Indonesia,601
601,Faun Czaple,fczaplego@plala.or.jp,595c716cf1f14f9ea3cfec70da6a1026514a9772,7552931811,1077 Ohio Plaza,Tiecun,,China,602
602,Jacqui Tallet,jtalletgp@admin.ch,595c716cf1f14f9ea3cfec70da6a1026514a9772,2579470675,86097 Burning Wood Drive,Nefta,,Tunisia,603
603,Geoffrey Fynan,gfynangq@ft.com,595c716cf1f14f9ea3cfec70da6a1026514a9772,6111851118,10391 Oak Valley Parkway,Cabittaogan,2727,Philippines,604
604,Doy Croom,dcroomgr@washington.edu,595c716cf1f14f9ea3cfec70da6a1026514a9772,9174302965,0 1st Pass,Lagoa da Prata,35590-000,Brazil,605
605,James Delucia,jdeluciags@privacy.gov.au,595c716cf1f14f9ea3cfec70da6a1026514a9772,9796233810,7 Canary Drive,Stuttgart Stuttgart-Mitte,70180,Germany,606
606,Cecelia Lindsley,clindsleygt@apple.com,595c716cf1f14f9ea3cfec70da6a1026514a9772,1031874341,563 Cordelia Lane,Dalonghua,,China,607
607,Honey Sommers,hsommersgu@chron.com,595c716cf1f14f9ea3cfec70da6a1026514a9772,7939968350,303 Bunting Terrace,Pingle,,China,608
608,Kaleena Atherton,kathertongv@sogou.com,595c716cf1f14f9ea3cfec70da6a1026514a9772,8286194276,52621 Pankratz Parkway,Asheville,28805,United States,609
609,Zach Inmett,zinmettgw@posterous.com,595c716cf1f14f9ea3cfec70da6a1026514a9772,7813852958,06434 Steensland Alley,Tallbīsah,,Syria,610
610,Jarret Dyment,jdymentgx@eventbrite.com,595c716cf1f14f9ea3cfec70da6a1026514a9772,8798019241,61030 Lyons Crossing,Parzęczew,95-045,Poland,611
611,Gregoire Gillison,ggillisongy@mit.edu,595c716cf1f14f9ea3cfec70da6a1026514a9772,5931350472,5281 Mosinee Hill,Tegalheras,,Indonesia,612
612,Vinita Kenna,vkennagz@clickbank.net,595c716cf1f14f9ea3cfec70da6a1026514a9772,8789996729,96944 Schmedeman Parkway,Murygino,613641,Russia,613
613,Bertram Edwicke,bedwickeh0@nydailynews.com,595c716cf1f14f9ea3cfec70da6a1026514a9772,5037454445,8 Southridge Terrace,Cotabambas,,Peru,614
614,Lev Servante,lservanteh1@zdnet.com,595c716cf1f14f9ea3cfec70da6a1026514a9772,9563246544,1461 Fisk Center,Nantes,44966 CEDEX 9,France,615
615,Antoni Prince,aprinceh2@msn.com,595c716cf1f14f9ea3cfec70da6a1026514a9772,1787951692,42 Northwestern Junction,‘Amrān,,Yemen,616
616,Lamond Lavies,llaviesh3@macromedia.com,595c716cf1f14f9ea3cfec70da6a1026514a9772,1955338607,1904 Green Ridge Hill,Jiangkouxu,,China,617
617,Ciel Trillow,ctrillowh4@patch.com,595c716cf1f14f9ea3cfec70da6a1026514a9772,4626242457,82653 Holy Cross Plaza,Galán,684058,Colombia,618
618,Shawn Spaight,sspaighth5@dedecms.com,595c716cf1f14f9ea3cfec70da6a1026514a9772,4711824608,1 Magdeline Place,Talovyy,346536,Russia,619
619,Lucie Worsall,lworsallh6@foxnews.com,595c716cf1f14f9ea3cfec70da6a1026514a9772,5424469993,6 Village Green Trail,Ibagué,730019,Colombia,620
620,Cindi Shorie,cshorieh7@imageshack.us,595c716cf1f14f9ea3cfec70da6a1026514a9772,8238873062,4111 Sundown Junction,Embu,,Kenya,621
621,Deonne Biglin,dbiglinh8@oaic.gov.au,595c716cf1f14f9ea3cfec70da6a1026514a9772,1994713335,0 David Plaza,Međa,,Serbia,622
622,Onfre Cundict,ocundicth9@ovh.net,595c716cf1f14f9ea3cfec70da6a1026514a9772,5578714088,33 Meadow Valley Point,Oslo,0102,Norway,623
623,Fran Monkman,fmonkmanha@mail.ru,595c716cf1f14f9ea3cfec70da6a1026514a9772,7727725489,74 Lotheville Center,Novoarkhanhel’s’k,,Ukraine,624
624,Petronella Sherar,psherarhb@vimeo.com,595c716cf1f14f9ea3cfec70da6a1026514a9772,6037096737,915 Arapahoe Alley,Karanglincak,,Indonesia,625
625,Catharina Colyer,ccolyerhc@phoca.cz,595c716cf1f14f9ea3cfec70da6a1026514a9772,5642886129,169 Transport Crossing,Helsingborg,254 36,Sweden,626
626,Dacie Garland,dgarlandhd@wix.com,595c716cf1f14f9ea3cfec70da6a1026514a9772,3461401490,2 Harper Avenue,Głuchołazy,48-340,Poland,627
627,Bernadina Dwerryhouse,bdwerryhousehe@people.com.cn,595c716cf1f14f9ea3cfec70da6a1026514a9772,3201897514,348 Park Meadow Terrace,Lagarto,49400-000,Brazil,628
628,Nissa Iacovino,niacovinohf@springer.com,595c716cf1f14f9ea3cfec70da6a1026514a9772,8999483111,6643 Marquette Junction,Oliveira,35540-000,Brazil,629
629,Domenic Prazer,dprazerhg@ucoz.com,595c716cf1f14f9ea3cfec70da6a1026514a9772,9471384525,8 Knutson Junction,Mokolo,,Cameroon,630
630,Sarina Weekes,sweekeshh@fema.gov,595c716cf1f14f9ea3cfec70da6a1026514a9772,3768296738,77691 Hintze Circle,Rudka,17-123,Poland,631
631,Emmett Hosier,ehosierhi@pen.io,595c716cf1f14f9ea3cfec70da6a1026514a9772,4672167933,96762 Arrowood Crossing,Coronel Fabriciano,35170-000,Brazil,632
632,Deanne Greaterex,dgreaterexhj@nasa.gov,595c716cf1f14f9ea3cfec70da6a1026514a9772,3546453821,834 Cordelia Terrace,Chitungwiza,,Zimbabwe,633
633,Darn Elcombe,delcombehk@moonfruit.com,595c716cf1f14f9ea3cfec70da6a1026514a9772,9173243453,43222 Northfield Lane,Taipingzhuang,,China,634
634,Charlotta Melville,cmelvillehl@comsenz.com,595c716cf1f14f9ea3cfec70da6a1026514a9772,1909199237,17135 8th Plaza,Jiaotan,,China,635
635,Garold Avrahamy,gavrahamyhm@trellian.com,595c716cf1f14f9ea3cfec70da6a1026514a9772,5855604913,5 Towne Center,Yambol,8600,Bulgaria,636
636,Claudetta Kruse,ckrusehn@livejournal.com,595c716cf1f14f9ea3cfec70da6a1026514a9772,4178721847,45 Mallory Center,Ono,989-1505,Japan,637
637,Ericha Hedling,ehedlingho@slideshare.net,595c716cf1f14f9ea3cfec70da6a1026514a9772,6553212575,7410 Dryden Center,Kovel’,,Ukraine,638
638,Chloris Gerardeaux,cgerardeauxhp@jigsy.com,595c716cf1f14f9ea3cfec70da6a1026514a9772,7118542374,30321 Haas Trail,Haradok,,Belarus,639
639,Hermina Gutherson,hguthersonhq@4shared.com,595c716cf1f14f9ea3cfec70da6a1026514a9772,8462137702,07980 Utah Circle,Bayog,7011,Philippines,640
640,Stefa Taylo,staylohr@dell.com,595c716cf1f14f9ea3cfec70da6a1026514a9772,8162710622,5339 Sunfield Trail,Bobon,6401,Philippines,641
641,Freddie Lorentz,florentzhs@theatlantic.com,595c716cf1f14f9ea3cfec70da6a1026514a9772,8178640195,41 Nova Plaza,Denton,76205,United States,642
642,Saloma De Ortega,sdeortegaht@newsvine.com,595c716cf1f14f9ea3cfec70da6a1026514a9772,1798006140,58 Westend Parkway,Houjiachuan,,China,643
643,Zitella Ainsley,zainsleyhu@ibm.com,595c716cf1f14f9ea3cfec70da6a1026514a9772,7408516075,463 Farragut Pass,Baní,10505,Dominican Republic,644
644,Raquel Killeen,rkilleenhv@ed.gov,595c716cf1f14f9ea3cfec70da6a1026514a9772,9928843160,35773 Hintze Point,"Laikit, Laikit II (Dimembe)",,Indonesia,645
645,Rafaello Knobell,rknobellhw@adobe.com,595c716cf1f14f9ea3cfec70da6a1026514a9772,1265602441,418 Knutson Parkway,Heemskerk,1964,Netherlands,646
646,Jordan Cayet,jcayethx@webnode.com,595c716cf1f14f9ea3cfec70da6a1026514a9772,1799506949,5 Dapin Place,Évosmos,,Greece,647
647,Rey Askam,raskamhy@paginegialle.it,595c716cf1f14f9ea3cfec70da6a1026514a9772,9582923157,3 Butternut Place,Żoliborz,05-094,Poland,648
648,Conni Vashchenko,cvashchenkohz@irs.gov,595c716cf1f14f9ea3cfec70da6a1026514a9772,7717036573,995 Drewry Avenue,Xiluo,,China,649
649,Claire Halton,chaltoni0@comcast.net,595c716cf1f14f9ea3cfec70da6a1026514a9772,3253097269,71 Cascade Crossing,Niort,79099 CEDEX 9,France,650
650,Marika Cunney,mcunneyi1@51.la,595c716cf1f14f9ea3cfec70da6a1026514a9772,8669473614,97383 Birchwood Point,Naḥf,,Israel,651
651,Keefer Marciek,kmarcieki2@com.com,595c716cf1f14f9ea3cfec70da6a1026514a9772,1122684125,690 Onsgard Lane,Cabusao,4406,Philippines,652
652,Viviyan Granger,vgrangeri3@bloglovin.com,595c716cf1f14f9ea3cfec70da6a1026514a9772,1155639056,82346 Ilene Alley,Amagasaki,663-8247,Japan,653
653,Merry Sturzaker,msturzakeri4@dion.ne.jp,595c716cf1f14f9ea3cfec70da6a1026514a9772,2559493970,41 Mallory Drive,Lipie,42-165,Poland,654
654,Rozella de Guise,rdeguisei5@gizmodo.com,595c716cf1f14f9ea3cfec70da6a1026514a9772,1029480803,0 Duke Alley,Mogi Mirim,13800-000,Brazil,655
655,Briano Donaho,bdonahoi6@wunderground.com,595c716cf1f14f9ea3cfec70da6a1026514a9772,2625475010,302 Green Ridge Hill,Kema,,Indonesia,656
656,Waiter Restieaux,wrestieauxi7@wired.com,595c716cf1f14f9ea3cfec70da6a1026514a9772,8665875317,3994 Sage Plaza,Ladário,4635-133,Portugal,657
657,Alene Brittian,abrittiani8@huffingtonpost.com,595c716cf1f14f9ea3cfec70da6a1026514a9772,2993418384,66 Nancy Parkway,Kliteh,,Indonesia,658
658,Crosby Burril,cburrili9@51.la,595c716cf1f14f9ea3cfec70da6a1026514a9772,3614615023,59727 Gulseth Point,Titay,7003,Philippines,659
659,Izabel Fawthorpe,ifawthorpeia@goo.ne.jp,595c716cf1f14f9ea3cfec70da6a1026514a9772,6223442714,12455 Algoma Street,Bosanski Novi,,Bosnia and Herzegovina,660
660,Joella Kirimaa,jkirimaaib@wikispaces.com,595c716cf1f14f9ea3cfec70da6a1026514a9772,2153014960,1541 Cardinal Center,Eindhoven,5629,Netherlands,661
661,Tab Wicks,twicksic@epa.gov,595c716cf1f14f9ea3cfec70da6a1026514a9772,8122227372,39 Schurz Park,Evansville,47725,United States,662
662,Bruce Shakeshaft,bshakeshaftid@businessinsider.com,595c716cf1f14f9ea3cfec70da6a1026514a9772,3144199174,1526 Fisk Trail,Liverpool,L74,United Kingdom,663
663,Sybille MacDonough,smacdonoughie@google.cn,595c716cf1f14f9ea3cfec70da6a1026514a9772,1827031675,51977 Gulseth Place,Yuanjiazhuang,,China,664
664,Carroll Giral,cgiralif@bizjournals.com,595c716cf1f14f9ea3cfec70da6a1026514a9772,7688101583,57 Washington Road,Krajan Jabungcandi,,Indonesia,665
665,Kirsteni Eberst,keberstig@sfgate.com,595c716cf1f14f9ea3cfec70da6a1026514a9772,5091719519,9 Barnett Place,Hualingang,,China,666
666,Ruthy Fulloway,rfullowayih@telegraph.co.uk,595c716cf1f14f9ea3cfec70da6a1026514a9772,6182662360,5321 Sundown Place,Luleå,973 46,Sweden,667
667,Jolie Creeber,jcreeberii@weebly.com,595c716cf1f14f9ea3cfec70da6a1026514a9772,9938949951,4 Corscot Court,Komsomol’sk,155150,Russia,668
668,Kali Stanwix,kstanwixij@google.nl,595c716cf1f14f9ea3cfec70da6a1026514a9772,7355919390,00877 Melby Circle,Częstochowa,42-294,Poland,669
669,Wadsworth Prendiville,wprendivilleik@nytimes.com,595c716cf1f14f9ea3cfec70da6a1026514a9772,1788205611,45 Melody Park,Shangsha,,China,670
670,Abey Jenteau,ajenteauil@rambler.ru,595c716cf1f14f9ea3cfec70da6a1026514a9772,5026423909,5 Forster Drive,Nakasongola,,Uganda,671
671,Elberta Apark,eaparkim@japanpost.jp,595c716cf1f14f9ea3cfec70da6a1026514a9772,9171198619,96 Scoville Court,Qeshm,,Iran,672
672,Jewelle Brickwood,jbrickwoodin@exblog.jp,595c716cf1f14f9ea3cfec70da6a1026514a9772,4071332948,1 Vidon Crossing,Numeto,,Indonesia,673
673,Engracia Strong,estrongio@scribd.com,595c716cf1f14f9ea3cfec70da6a1026514a9772,7665701239,8808 Jenifer Court,Profítis Ilías,,Greece,674
674,Frannie Unwin,funwinip@cyberchimps.com,595c716cf1f14f9ea3cfec70da6a1026514a9772,3537257518,76 Melvin Circle,Rozhnyativ,,Ukraine,675
675,Fianna Chavrin,fchavriniq@cisco.com,595c716cf1f14f9ea3cfec70da6a1026514a9772,8524096565,4254 Sunfield Parkway,Pantin,93504 CEDEX,France,676
676,Edward Carbry,ecarbryir@quantcast.com,595c716cf1f14f9ea3cfec70da6a1026514a9772,9057621104,8 Declaration Plaza,Juncheng,,China,677
677,Hermann Mattys,hmattysis@dion.ne.jp,595c716cf1f14f9ea3cfec70da6a1026514a9772,5754359916,8 Vidon Way,Yacimiento Río Turbio,1649,Argentina,678
678,Ambros Wilfinger,awilfingerit@cam.ac.uk,595c716cf1f14f9ea3cfec70da6a1026514a9772,4549142655,34005 Steensland Drive,Sabang,8702,Philippines,679
679,Augusta Le Gassick,alegassickiu@sun.com,595c716cf1f14f9ea3cfec70da6a1026514a9772,2813713769,6360 Fuller Alley,Formosa,73800-000,Brazil,680
680,Gabriel McGeouch,gmcgeouchiv@guardian.co.uk,595c716cf1f14f9ea3cfec70da6a1026514a9772,4638936629,52776 Barby Park,Beiqijia,,China,681
681,Archibald Conradsen,aconradseniw@cnn.com,595c716cf1f14f9ea3cfec70da6a1026514a9772,9592568933,1669 Maple Wood Plaza,Coaldale,T1M,Canada,682
682,Finley Pencot,fpencotix@ow.ly,595c716cf1f14f9ea3cfec70da6a1026514a9772,2956605189,585 Linden Pass,Zebrzydowice,43-410,Poland,683
683,Pandora Gillebert,pgillebertiy@google.fr,595c716cf1f14f9ea3cfec70da6a1026514a9772,1051227034,15837 Village Lane,Paraná,3100,Argentina,684
684,Farley Dinsell,fdinselliz@bravesites.com,595c716cf1f14f9ea3cfec70da6a1026514a9772,1458704993,3109 Randy Crossing,Buôn Trấp,,Vietnam,685
685,Claudianus Keepe,ckeepej0@dmoz.org,595c716cf1f14f9ea3cfec70da6a1026514a9772,9968695311,7 Westerfield Alley,Kademangan,,Indonesia,686
686,Christopher Titcom,ctitcomj1@un.org,595c716cf1f14f9ea3cfec70da6a1026514a9772,3188821734,108 Mockingbird Lane,La Plaine-Saint-Denis,93571 CEDEX,France,687
687,Cary Fedorski,cfedorskij2@pen.io,595c716cf1f14f9ea3cfec70da6a1026514a9772,1184018939,04585 Acker Drive,Gostagayevskaya,353400,Russia,688
688,Maybelle Goodwins,mgoodwinsj3@zdnet.com,595c716cf1f14f9ea3cfec70da6a1026514a9772,6004886336,9357 Forest Run Junction,Gadon,,Indonesia,689
689,Conn Wedderburn,cwedderburnj4@wikispaces.com,595c716cf1f14f9ea3cfec70da6a1026514a9772,1241961368,87 Gulseth Court,Cachadinha,4800-858,Portugal,690
690,Anica Sutherland,asutherlandj5@plala.or.jp,595c716cf1f14f9ea3cfec70da6a1026514a9772,8591506967,882 Clarendon Hill,Pouso Alegre,37550-000,Brazil,691
691,Marcile Ben,mbenj6@friendfeed.com,595c716cf1f14f9ea3cfec70da6a1026514a9772,2462193343,7 Summerview Avenue,Putukrejo,,Indonesia,692
692,Helenka Brownlie,hbrownliej7@state.gov,595c716cf1f14f9ea3cfec70da6a1026514a9772,7943427720,85282 Riverside Place,Krajan Sale,,Indonesia,693
693,Lilith Bramo,lbramoj8@wix.com,595c716cf1f14f9ea3cfec70da6a1026514a9772,8475179597,712 West Terrace,Ozamiz City,7214,Philippines,694
694,Marla Hruska,mhruskaj9@imdb.com,595c716cf1f14f9ea3cfec70da6a1026514a9772,1236827580,274 4th Lane,Watodei,,Indonesia,695
695,Mirabel Cribbott,mcribbottja@npr.org,595c716cf1f14f9ea3cfec70da6a1026514a9772,7355772150,354 Bowman Park,Horní Štěpánov,798 47,Czech Republic,696
696,Damiano Sullly,dsulllyjb@csmonitor.com,595c716cf1f14f9ea3cfec70da6a1026514a9772,8592822902,5 Lillian Crossing,Lodoyo,,Indonesia,697
697,Nial Foulcher,nfoulcherjc@alexa.com,595c716cf1f14f9ea3cfec70da6a1026514a9772,2032322750,0 Lerdahl Parkway,Santa Rosa,,Peru,698
698,Binny Bason,bbasonjd@infoseek.co.jp,595c716cf1f14f9ea3cfec70da6a1026514a9772,6212704133,678 Kensington Court,Sitajara,,Peru,699
699,Margie Glavias,mglaviasje@webs.com,595c716cf1f14f9ea3cfec70da6a1026514a9772,3884777609,145 La Follette Way,Noyelles-sous-Lens,62247 CEDEX,France,700
700,Kayley Jeandel,kjeandeljf@arizona.edu,595c716cf1f14f9ea3cfec70da6a1026514a9772,8644180520,0789 Bartillon Point,Keetmanshoop,,Namibia,701
701,Giffer Tissell,gtisselljg@irs.gov,595c716cf1f14f9ea3cfec70da6a1026514a9772,4136353251,61 Mcbride Crossing,San Antonio,39260,Mexico,702
702,Olympie Goldes,ogoldesjh@hhs.gov,595c716cf1f14f9ea3cfec70da6a1026514a9772,6634324567,9230 Starling Alley,Montalegre,5470-206,Portugal,703
703,Melosa Novakovic,mnovakovicji@ucla.edu,595c716cf1f14f9ea3cfec70da6a1026514a9772,8042886292,8 Clarendon Trail,Oleszyce,37-630,Poland,704
704,Libby Sarton,lsartonjj@t.co,595c716cf1f14f9ea3cfec70da6a1026514a9772,6022834502,340 Melrose Junction,Magbay,1275,Philippines,705
705,Gilberte Chapelhow,gchapelhowjk@pinterest.com,595c716cf1f14f9ea3cfec70da6a1026514a9772,3056909442,0963 Gerald Park,Vila Flor,5360-305,Portugal,706
706,Con Seery,cseeryjl@senate.gov,595c716cf1f14f9ea3cfec70da6a1026514a9772,2973746154,6243 Old Gate Crossing,Mianay,5805,Philippines,707
707,Dorisa Grimwad,dgrimwadjm@loc.gov,595c716cf1f14f9ea3cfec70da6a1026514a9772,1485680132,9265 Bunker Hill Terrace,Sancha,,China,708
708,Dreddy Boles,dbolesjn@smh.com.au,595c716cf1f14f9ea3cfec70da6a1026514a9772,5964789163,18 Cottonwood Crossing,Penticton,V2A,Canada,709
709,Mitzi Wedlock,mwedlockjo@yandex.ru,595c716cf1f14f9ea3cfec70da6a1026514a9772,6069320156,096 Mallory Junction,Irosin,4707,Philippines,710
710,Andie Basill,abasilljp@mac.com,595c716cf1f14f9ea3cfec70da6a1026514a9772,3764502762,822 Packers Way,Ono,989-1505,Japan,711
711,Meade Keyson,mkeysonjq@google.com.hk,595c716cf1f14f9ea3cfec70da6a1026514a9772,8591135794,653 Fordem Parkway,Sikka,,Indonesia,712
712,Flin Kubasek,fkubasekjr@google.nl,595c716cf1f14f9ea3cfec70da6a1026514a9772,3638035072,6847 Moose Center,Hongyanxi,,China,713
713,Irita Landis,ilandisjs@yale.edu,595c716cf1f14f9ea3cfec70da6a1026514a9772,9869766501,534 Buhler Drive,Dingchang,,China,714
714,Meredith Catlin,mcatlinjt@ask.com,595c716cf1f14f9ea3cfec70da6a1026514a9772,6424469993,604 Dakota Trail,Leppävirta,79101,Finland,715
715,Bevan Littlefield,blittlefieldju@mozilla.com,595c716cf1f14f9ea3cfec70da6a1026514a9772,8479041951,6446 Autumn Leaf Plaza,Tbêng Méanchey,,Cambodia,716
716,Carolee O'Dougherty,codoughertyjv@vistaprint.com,595c716cf1f14f9ea3cfec70da6a1026514a9772,5184630243,24390 Quincy Pass,Зуунмод,,Mongolia,717
717,Wenda Cleaver,wcleaverjw@etsy.com,595c716cf1f14f9ea3cfec70da6a1026514a9772,2705959342,433 Rigney Junction,Embi,,Kazakhstan,718
718,Vasili Wilderspoon,vwilderspoonjx@bluehost.com,595c716cf1f14f9ea3cfec70da6a1026514a9772,3926353042,3 Nova Junction,Heyu,,China,719
719,Ambrosi Drinkale,adrinkalejy@arstechnica.com,595c716cf1f14f9ea3cfec70da6a1026514a9772,9523903675,1326 Brickson Park Center,Pantin,93691 CEDEX,France,720
720,Florenza Graeser,fgraeserjz@kickstarter.com,595c716cf1f14f9ea3cfec70da6a1026514a9772,9513527105,9563 Canary Lane,Chalchuapa,,El Salvador,721
721,Colleen Pagelsen,cpagelsenk0@comcast.net,595c716cf1f14f9ea3cfec70da6a1026514a9772,3111641253,5202 Hazelcrest Terrace,La Coipa,,Peru,722
722,Kikelia Hlavecek,khlavecekk1@vinaora.com,595c716cf1f14f9ea3cfec70da6a1026514a9772,2063852798,96 5th Crossing,Yangzi,,China,723
723,Lazare Besse,lbessek2@pinterest.com,595c716cf1f14f9ea3cfec70da6a1026514a9772,7495897810,8 Granby Alley,Bull Savanna,,Jamaica,724
724,Guilbert Dressell,gdressellk3@stanford.edu,595c716cf1f14f9ea3cfec70da6a1026514a9772,4463687696,557 Westerfield Place,Orsay,91851 CEDEX,France,725
725,Eveline Larder,elarderk4@ning.com,595c716cf1f14f9ea3cfec70da6a1026514a9772,2573646357,599 Brickson Park Crossing,Pomar,4950-332,Portugal,726
726,Nefen Smallthwaite,nsmallthwaitek5@amazonaws.com,595c716cf1f14f9ea3cfec70da6a1026514a9772,6762121056,8414 Pennsylvania Way,Bāgh-e Malek,,Iran,727
727,Moises Pimlott,mpimlottk6@shop-pro.jp,595c716cf1f14f9ea3cfec70da6a1026514a9772,4253198013,4 Myrtle Point,Tây Ninh,,Vietnam,728
728,Ennis Callinan,ecallinank7@eepurl.com,595c716cf1f14f9ea3cfec70da6a1026514a9772,5404399140,9725 Grasskamp Avenue,Zárkos,,Greece,729
729,Lorinda Borborough,lborboroughk8@mac.com,595c716cf1f14f9ea3cfec70da6a1026514a9772,4295196947,171 Truax Way,Haghartsin,,Armenia,730
730,Sinclair Alesbrook,salesbrookk9@ibm.com,595c716cf1f14f9ea3cfec70da6a1026514a9772,2518337591,68744 Meadow Valley Way,Mobile,36689,United States,731
731,Ryan Bugler,rbuglerka@delicious.com,595c716cf1f14f9ea3cfec70da6a1026514a9772,1642857260,8 Stephen Center,Raas,,Indonesia,732
732,Danya Jossel,djosselkb@stanford.edu,595c716cf1f14f9ea3cfec70da6a1026514a9772,4434095361,73774 Donald Junction,San Luis,,Honduras,733
733,Ike Keld,ikeldkc@surveymonkey.com,595c716cf1f14f9ea3cfec70da6a1026514a9772,4417511292,263 Morrow Way,Ożarowice,42-625,Poland,734
734,Torre Lochet,tlochetkd@constantcontact.com,595c716cf1f14f9ea3cfec70da6a1026514a9772,5971818990,2 Golden Leaf Plaza,Gharavŭtí,,Tajikistan,735
735,Elyssa Gludor,egludorke@edublogs.org,595c716cf1f14f9ea3cfec70da6a1026514a9772,6757384204,4 Independence Crossing,Werasari,,Indonesia,736
736,Erskine Titcumb,etitcumbkf@taobao.com,595c716cf1f14f9ea3cfec70da6a1026514a9772,1512229427,3049 4th Place,São Mateus,29930-000,Brazil,737
737,Reina Brownell,rbrownellkg@jugem.jp,595c716cf1f14f9ea3cfec70da6a1026514a9772,1869089764,5 Golf View Alley,Mitú,054028,Colombia,738
738,Katheryn Leavesley,kleavesleykh@boston.com,595c716cf1f14f9ea3cfec70da6a1026514a9772,5291180786,641 Kim Pass,Al Ma‘allā’,,Yemen,739
739,Shir McElree,smcelreeki@devhub.com,595c716cf1f14f9ea3cfec70da6a1026514a9772,9355178444,4897 Coolidge Avenue,Gevgelija,1480,Macedonia,740
740,Lorrie Geockle,lgeocklekj@marketwatch.com,595c716cf1f14f9ea3cfec70da6a1026514a9772,7718468176,042 Springs Parkway,San Isidro,45147,Mexico,741
741,Florance Toquet,ftoquetkk@ft.com,595c716cf1f14f9ea3cfec70da6a1026514a9772,5017774584,80 Di Loreto Circle,Caçapava,12280-000,Brazil,742
742,Cora Carlsson,ccarlssonkl@bluehost.com,595c716cf1f14f9ea3cfec70da6a1026514a9772,6122479754,1402 Redwing Parkway,Hinigaran,4026,Philippines,743
743,Olwen D'Errico,oderricokm@sun.com,595c716cf1f14f9ea3cfec70da6a1026514a9772,8504262090,71347 Waubesa Junction,Stryszawa,34-205,Poland,744
744,Cinnamon Thayre,cthayrekn@berkeley.edu,595c716cf1f14f9ea3cfec70da6a1026514a9772,2526025273,11078 Harbort Parkway,Babakanlapang,,Indonesia,745
745,Kimble Broderick,kbroderickko@zdnet.com,595c716cf1f14f9ea3cfec70da6a1026514a9772,2835740446,5520 Bluejay Parkway,Ishikawa,960-1476,Japan,746
746,Worthy Brignell,wbrignellkp@webmd.com,595c716cf1f14f9ea3cfec70da6a1026514a9772,6467385567,9659 American Place,Zarya,144010,Russia,747
747,Tiffy Milland,tmillandkq@sohu.com,595c716cf1f14f9ea3cfec70da6a1026514a9772,8518399344,50 Johnson Court,Verona,37142,Italy,748
748,Rhianon Oakwell,roakwellkr@yelp.com,595c716cf1f14f9ea3cfec70da6a1026514a9772,3684091394,4 Larry Point,Atalaia,87630-000,Brazil,749
749,Kizzee Rainard,krainardks@huffingtonpost.com,595c716cf1f14f9ea3cfec70da6a1026514a9772,1399690349,6704 Goodland Parkway,Glatik,,Indonesia,750
750,Krystyna Nolan,knolankt@twitter.com,595c716cf1f14f9ea3cfec70da6a1026514a9772,5652717883,6 Jackson Junction,Dālbandīn,95100,Pakistan,751
751,Ellie Gonthard,egonthardku@state.gov,595c716cf1f14f9ea3cfec70da6a1026514a9772,9693950088,9 Eagan Way,Batken,,Kyrgyzstan,752
752,Ann Ettels,aettelskv@huffingtonpost.com,595c716cf1f14f9ea3cfec70da6a1026514a9772,4102250296,958 Prairie Rose Trail,Kosamphi Nakhon,90190,Thailand,753
753,Rem Pridding,rpriddingkw@hexun.com,595c716cf1f14f9ea3cfec70da6a1026514a9772,3606180279,5 Beilfuss Circle,La Plaine-Saint-Denis,93571 CEDEX,France,754
754,Valentia Kellett,vkellettkx@linkedin.com,595c716cf1f14f9ea3cfec70da6a1026514a9772,6194448353,4446 Rieder Alley,Zarechnyy,456843,Russia,755
755,Davida Swynley,dswynleyky@goo.gl,595c716cf1f14f9ea3cfec70da6a1026514a9772,9627586417,646 Summit Point,Naran Bulag,,China,756
756,Worth Royal,wroyalkz@senate.gov,595c716cf1f14f9ea3cfec70da6a1026514a9772,4374020106,63 Arizona Junction,Uchaly,453703,Russia,757
757,Zoe Yukhnev,zyukhnevl0@nydailynews.com,595c716cf1f14f9ea3cfec70da6a1026514a9772,6801013312,4192 Warner Parkway,Ḏânan,,Djibouti,758
758,Idalina Potteridge,ipotteridgel1@taobao.com,595c716cf1f14f9ea3cfec70da6a1026514a9772,9662343290,2341 Clyde Gallagher Road,Årsta,120 38,Sweden,759
759,Nona Woodcraft,nwoodcraftl2@msn.com,595c716cf1f14f9ea3cfec70da6a1026514a9772,5999058468,58254 Bayside Pass,Panggungsari,,Indonesia,760
760,Zak Missen,zmissenl3@gravatar.com,595c716cf1f14f9ea3cfec70da6a1026514a9772,3194559388,148 Veith Hill,Zarszyn,38-524,Poland,761
761,Jessie Eggleson,jegglesonl4@discovery.com,595c716cf1f14f9ea3cfec70da6a1026514a9772,2096875791,76874 Memorial Terrace,Intendente Alvear,6221,Argentina,762
762,Roch Selwyne,rselwynel5@yelp.com,595c716cf1f14f9ea3cfec70da6a1026514a9772,8339343810,40 Truax Road,Yokkaichi,960-0752,Japan,763
763,Tabby Sowray,tsowrayl6@telegraph.co.uk,595c716cf1f14f9ea3cfec70da6a1026514a9772,2794795979,8 Morrow Parkway,Vyšší Brod,382 73,Czech Republic,764
764,Oliviero Patrono,opatronol7@alibaba.com,595c716cf1f14f9ea3cfec70da6a1026514a9772,6272714133,52762 Rieder Junction,Vegreville,T9C,Canada,765
765,Larry Sollam,lsollaml8@tamu.edu,595c716cf1f14f9ea3cfec70da6a1026514a9772,7221238948,2 Granby Street,Albanel,G8M,Canada,766
766,Aristotle Ruzek,aruzekl9@google.es,595c716cf1f14f9ea3cfec70da6a1026514a9772,1165515387,16836 American Ash Point,Butere,,Kenya,767
767,Mortie Gosart,mgosartla@bigcartel.com,595c716cf1f14f9ea3cfec70da6a1026514a9772,6131289598,30 Holmberg Plaza,Laolong,,China,768
768,Elga Foyston,efoystonlb@indiatimes.com,595c716cf1f14f9ea3cfec70da6a1026514a9772,5624096641,28 Armistice Court,Xuri,,China,769
769,Jaclin Warters,jwarterslc@cmu.edu,595c716cf1f14f9ea3cfec70da6a1026514a9772,9023693631,892 Ramsey Avenue,Choropampa,,Peru,770
770,Clea Baseley,cbaseleyld@google.cn,595c716cf1f14f9ea3cfec70da6a1026514a9772,8793642832,83398 Golf Course Hill,Al Ḩusayn,,Yemen,771
771,Allan Ondrasek,aondrasekle@hibu.com,595c716cf1f14f9ea3cfec70da6a1026514a9772,2865326544,337 Heath Hill,Cimaragas,,Indonesia,772
772,Rheba Cantos,rcantoslf@tripod.com,595c716cf1f14f9ea3cfec70da6a1026514a9772,5804967936,34 Harbort Plaza,Witkowo,62-230,Poland,773
773,Kalinda Winterborne,kwinterbornelg@altervista.org,595c716cf1f14f9ea3cfec70da6a1026514a9772,4033008180,4406 Saint Paul Pass,Riit,,Indonesia,774
774,Clari McGill,cmcgilllh@nature.com,595c716cf1f14f9ea3cfec70da6a1026514a9772,4961140563,4211 Loftsgordon Lane,Carumas,,Peru,775
775,Benny Fewster,bfewsterli@stanford.edu,595c716cf1f14f9ea3cfec70da6a1026514a9772,8079976132,14 Amoth Center,Kaédi,,Mauritania,776
776,William Jimpson,wjimpsonlj@vimeo.com,595c716cf1f14f9ea3cfec70da6a1026514a9772,1939392469,82743 Acker Plaza,Nowe Grocholice,05-850,Poland,777
777,Yancey Boules,ybouleslk@google.nl,595c716cf1f14f9ea3cfec70da6a1026514a9772,2089564642,49 Moose Park,Mokotów,05-090,Poland,778
778,Norris Newham,nnewhamll@linkedin.com,595c716cf1f14f9ea3cfec70da6a1026514a9772,9788089253,225 American Ash Junction,Novoul’yanovsk,433300,Russia,779
779,Melli Shivlin,mshivlinlm@amazonaws.com,595c716cf1f14f9ea3cfec70da6a1026514a9772,9293019652,84 Myrtle Trail,Yantang,,China,780
780,Archibold Peet,apeetln@phpbb.com,595c716cf1f14f9ea3cfec70da6a1026514a9772,1426897625,59296 Kipling Avenue,Goyang-si,,South Korea,781
781,Granger Pinner,gpinnerlo@huffingtonpost.com,595c716cf1f14f9ea3cfec70da6a1026514a9772,4337675330,0860 Moose Plaza,Rincón,10602,Dominican Republic,782
782,Sasha Pallesen,spallesenlp@zdnet.com,595c716cf1f14f9ea3cfec70da6a1026514a9772,9419628071,709 Amoth Crossing,Piketberg,8115,South Africa,783
783,Wilow Cookney,wcookneylq@unesco.org,595c716cf1f14f9ea3cfec70da6a1026514a9772,3195578724,39 Norway Maple Circle,Guanli,,China,784
784,Bran Corgenvin,bcorgenvinlr@is.gd,595c716cf1f14f9ea3cfec70da6a1026514a9772,7243835219,6 Hallows Hill,Kumagaya,360-0016,Japan,785
785,Joana Batham,jbathamls@sina.com.cn,595c716cf1f14f9ea3cfec70da6a1026514a9772,7822893771,9054 Rigney Road,Chichinales,8326,Argentina,786
786,Fawn Ellicombe,fellicombelt@dell.com,595c716cf1f14f9ea3cfec70da6a1026514a9772,8973549419,2 Lindbergh Trail,Bogatynia,59-920,Poland,787
787,Bent Tuhy,btuhylu@tripod.com,595c716cf1f14f9ea3cfec70da6a1026514a9772,8327264912,5593 Red Cloud Street,Nantes,44324 CEDEX 3,France,788
788,Nikki Laugier,nlaugierlv@nsw.gov.au,595c716cf1f14f9ea3cfec70da6a1026514a9772,8991752243,8905 Nova Lane,Batugede Kulon,,Indonesia,789
789,De witt Taks,dtakslw@home.pl,595c716cf1f14f9ea3cfec70da6a1026514a9772,4107870987,9224 Sutherland Pass,Lipnica Wielka,34-483,Poland,790
790,Bibbye Beswetherick,bbeswethericklx@youtu.be,595c716cf1f14f9ea3cfec70da6a1026514a9772,3793768051,3 Ridgeview Avenue,Komi,,Indonesia,791
791,Genna Rawnsley,grawnsleyly@ocn.ne.jp,595c716cf1f14f9ea3cfec70da6a1026514a9772,2125232195,7 Kings Trail,Arroio do Meio,95940-000,Brazil,792
792,Charlot Ridge,cridgelz@webs.com,595c716cf1f14f9ea3cfec70da6a1026514a9772,8511921351,3 Gateway Avenue,Suzano,08600-000,Brazil,793
793,Meris Meldon,mmeldonm0@ezinearticles.com,595c716cf1f14f9ea3cfec70da6a1026514a9772,1585087176,1533 Kipling Way,Saraza,2804,Philippines,794
794,Marney Molian,mmolianm1@admin.ch,595c716cf1f14f9ea3cfec70da6a1026514a9772,4359621015,8944 Blaine Junction,Jibu,,China,795
795,Ethelred Warman,ewarmanm2@springer.com,595c716cf1f14f9ea3cfec70da6a1026514a9772,1729335152,43383 Arapahoe Circle,Vangaži,,Latvia,796
796,Brion Hyndson,bhyndsonm3@parallels.com,595c716cf1f14f9ea3cfec70da6a1026514a9772,6708368905,86844 Nelson Court,Évreux,27929 CEDEX 9,France,797
797,Bibby Whooley,bwhooleym4@wikia.com,595c716cf1f14f9ea3cfec70da6a1026514a9772,3384648386,565 Sutteridge Trail,Urechcha,,Belarus,798
798,Sileas Mully,smullym5@engadget.com,595c716cf1f14f9ea3cfec70da6a1026514a9772,9768329024,57586 Heath Pass,L'Union,31244 CEDEX,France,799
799,Dagny Dobrowolski,ddobrowolskim6@unc.edu,595c716cf1f14f9ea3cfec70da6a1026514a9772,8529292984,4500 Nancy Avenue,Zaragoza,04015,Guatemala,800
800,Frankie Mauro,fmaurom7@hatena.ne.jp,595c716cf1f14f9ea3cfec70da6a1026514a9772,9371857265,4 Waubesa Lane,Tonggu,,China,801
801,Roxanne Gierek,rgierekm8@cyberchimps.com,595c716cf1f14f9ea3cfec70da6a1026514a9772,9055404471,44 Vidon Place,Bertoua,,Cameroon,802
802,Arlinda Heinrich,aheinrichm9@techcrunch.com,595c716cf1f14f9ea3cfec70da6a1026514a9772,3064903536,6 Russell Court,Leninskoye,197733,Russia,803
803,Heather Stack,hstackma@meetup.com,595c716cf1f14f9ea3cfec70da6a1026514a9772,9096441852,73 Maple Pass,Wuxi,,China,804
804,Jaquelin Oxburgh,joxburghmb@admin.ch,595c716cf1f14f9ea3cfec70da6a1026514a9772,8628357545,95 Grayhawk Plaza,Çepan,,Albania,805
805,Cleopatra Sheward,cshewardmc@statcounter.com,595c716cf1f14f9ea3cfec70da6a1026514a9772,2052307074,3206 Becker Plaza,Si’en,,China,806
806,Jayme Elderidge,jelderidgemd@tumblr.com,595c716cf1f14f9ea3cfec70da6a1026514a9772,6599909682,1055 Hoard Center,Santa Maria da Vitória,47640-000,Brazil,807
807,Cammy Balwin,cbalwinme@macromedia.com,595c716cf1f14f9ea3cfec70da6a1026514a9772,1109445272,315 Chive Road,Ḩawallī,,Kuwait,808
808,Giraud Rathjen,grathjenmf@blog.com,595c716cf1f14f9ea3cfec70da6a1026514a9772,6698044969,8193 Caliangt Place,Osogbo,,Nigeria,809
809,Addy Bailie,abailiemg@japanpost.jp,595c716cf1f14f9ea3cfec70da6a1026514a9772,5889069985,27 Nelson Plaza,Ondores,,Peru,810
810,Frasco Grigs,fgrigsmh@hhs.gov,595c716cf1f14f9ea3cfec70da6a1026514a9772,6078159763,3 Becker Point,Banaba,4224,Philippines,811
811,Coletta Chisnell,cchisnellmi@51.la,595c716cf1f14f9ea3cfec70da6a1026514a9772,3475680336,556 Thackeray Plaza,Piaocao,,China,812
812,Deanna Wickenden,dwickendenmj@prweb.com,595c716cf1f14f9ea3cfec70da6a1026514a9772,4554239766,228 Golden Leaf Way,Damayan,1104,Philippines,813
813,Cleon Ladloe,cladloemk@ezinearticles.com,595c716cf1f14f9ea3cfec70da6a1026514a9772,3632343374,5746 Lerdahl Pass,Biliri,,Nigeria,814
814,Burk Goodey,bgoodeyml@netscape.com,595c716cf1f14f9ea3cfec70da6a1026514a9772,8184043650,8 Calypso Lane,Castanheira,4615-310,Portugal,815
815,Halimeda Laye,hlayemm@fema.gov,595c716cf1f14f9ea3cfec70da6a1026514a9772,5698474343,87109 Hollow Ridge Circle,Zhuozishan,,China,816
816,Launce Passo,lpassomn@economist.com,595c716cf1f14f9ea3cfec70da6a1026514a9772,6728952595,7 High Crossing Terrace,Río Sereno,,Panama,817
817,Alphonso Peterffy,apeterffymo@unblog.fr,595c716cf1f14f9ea3cfec70da6a1026514a9772,7369228754,70601 Brickson Park Avenue,Pampamarca,,Peru,818
818,Debee Menere,dmeneremp@toplist.cz,595c716cf1f14f9ea3cfec70da6a1026514a9772,6276719778,52318 Talmadge Way,E’zhou,,China,819
819,Walker Chardin,wchardinmq@is.gd,595c716cf1f14f9ea3cfec70da6a1026514a9772,9377643068,44 Lien Hill,Uva,427265,Russia,820
820,Patrice Liebmann,pliebmannmr@weather.com,595c716cf1f14f9ea3cfec70da6a1026514a9772,2518321134,82691 Becker Drive,Bawshar,,Oman,821
821,Vivie Attfield,vattfieldms@people.com.cn,595c716cf1f14f9ea3cfec70da6a1026514a9772,9434879003,40652 Luster Terrace,Fushëkuqe,,Albania,822
822,Dody Dibbs,ddibbsmt@google.nl,595c716cf1f14f9ea3cfec70da6a1026514a9772,3259995443,48891 Division Avenue,Yangyu,,China,823
823,Colleen Roft,croftmu@wufoo.com,595c716cf1f14f9ea3cfec70da6a1026514a9772,5207958563,9542 Stang Place,Kaédi,,Mauritania,824
824,Gussi Buttriss,gbuttrissmv@4shared.com,595c716cf1f14f9ea3cfec70da6a1026514a9772,5868157595,06775 Manufacturers Way,Shaxi,,China,825
825,Rebekkah Brient,rbrientmw@indiatimes.com,595c716cf1f14f9ea3cfec70da6a1026514a9772,9394905699,6854 Park Meadow Park,Bibinje,23205,Croatia,826
826,Arabele Littrik,alittrikmx@shop-pro.jp,595c716cf1f14f9ea3cfec70da6a1026514a9772,3466681529,930 Texas Hill,Suso,2725,Philippines,827
827,Hobard Gerardin,hgerardinmy@google.nl,595c716cf1f14f9ea3cfec70da6a1026514a9772,7925921015,5 Gulseth Road,Mikrókampos,,Greece,828
828,Hunt Plunket,hplunketmz@gmpg.org,2b6f979ca2d1afd571b869a99eb3dc90f859d0bb,1978477103,5800 Autumn Leaf Avenue,Afikpo,,Nigeria,829
829,Donetta Kildahl,dkildahln0@example.com,2b6f979ca2d1afd571b869a99eb3dc90f859d0bb,3612006443,04751 Sunbrook Place,Fonte Boa dos Nabos,2655-469,Portugal,830
830,Albina Chichgar,achichgarn1@adobe.com,2b6f979ca2d1afd571b869a99eb3dc90f859d0bb,6182726314,7633 Hanover Plaza,Węgierska Górka,34-350,Poland,831
831,Boote Lorence,blorencen2@ucoz.ru,2b6f979ca2d1afd571b869a99eb3dc90f859d0bb,7936824029,044 Oak Hill,Zhaxi,,China,832
832,Tan Haggie,thaggien3@nature.com,2b6f979ca2d1afd571b869a99eb3dc90f859d0bb,9244938661,8 Reindahl Trail,Psará,,Greece,833
833,Sadie Iveagh,siveaghn4@vimeo.com,2b6f979ca2d1afd571b869a99eb3dc90f859d0bb,2858720091,3 Old Shore Trail,Sampit,,Indonesia,834
834,Oby Mazey,omazeyn5@nifty.com,2b6f979ca2d1afd571b869a99eb3dc90f859d0bb,5577392219,51557 Becker Parkway,Xiangfu,,China,835
835,Othello Bollom,obollomn6@feedburner.com,2b6f979ca2d1afd571b869a99eb3dc90f859d0bb,7276161895,45 Shelley Terrace,Degeberga,297 32,Sweden,836
836,Patton Cappineer,pcappineern7@naver.com,2b6f979ca2d1afd571b869a99eb3dc90f859d0bb,5138105487,73843 Elgar Circle,Otacílio Costa,88540-000,Brazil,837
837,Lacee Vassie,lvassien8@seesaa.net,2b6f979ca2d1afd571b869a99eb3dc90f859d0bb,8811270125,26 Badeau Plaza,Bydgoszcz,85-980,Poland,838
838,Andi Goffe,agoffen9@phoca.cz,2b6f979ca2d1afd571b869a99eb3dc90f859d0bb,5424676091,36785 Buena Vista Circle,Ar Rawḑah,,Yemen,839
839,Violante Copo,vcopona@hostgator.com,2b6f979ca2d1afd571b869a99eb3dc90f859d0bb,6726963678,2137 Dixon Plaza,Hajnówka,17-201,Poland,840
840,Steward Rowston,srowstonnb@opensource.org,2b6f979ca2d1afd571b869a99eb3dc90f859d0bb,2392508351,1 Sachtjen Place,Cần Giờ,,Vietnam,841
841,Bertie Sweating,bsweatingnc@blogspot.com,2b6f979ca2d1afd571b869a99eb3dc90f859d0bb,3861618584,726 Oriole Avenue,Vanáton,,Greece,842
842,Freeland Napton,fnaptonnd@free.fr,2b6f979ca2d1afd571b869a99eb3dc90f859d0bb,9143308363,8087 Anzinger Way,Ruše,2342,Slovenia,843
843,Noelani Heppenspall,nheppenspallne@tmall.com,2b6f979ca2d1afd571b869a99eb3dc90f859d0bb,4198695123,1 Carpenter Street,General Alvear,3361,Argentina,844
844,Sherrie Varrow,svarrownf@forbes.com,2b6f979ca2d1afd571b869a99eb3dc90f859d0bb,5667209113,2300 Farwell Parkway,San Agustin,48040,Mexico,845
845,Ellis Oiller,eoillerng@sogou.com,2b6f979ca2d1afd571b869a99eb3dc90f859d0bb,6927393429,158 Eagle Crest Park,Jintan,,China,846
846,Courtnay Armatidge,carmatidgenh@nyu.edu,2b6f979ca2d1afd571b869a99eb3dc90f859d0bb,3984126058,839 Comanche Plaza,Zhenping Chengguanzhen,,China,847
847,Elsey Cornehl,ecornehlni@squidoo.com,2b6f979ca2d1afd571b869a99eb3dc90f859d0bb,3872442317,909 Hermina Crossing,Muke,,Indonesia,848
848,Avram Rawles,arawlesnj@omniture.com,2b6f979ca2d1afd571b869a99eb3dc90f859d0bb,5174401969,985 Lindbergh Road,Novo-Peredelkino,143015,Russia,849
849,Walton Simione,wsimionenk@xinhuanet.com,2b6f979ca2d1afd571b869a99eb3dc90f859d0bb,8603684918,8912 Union Avenue,Cuchumbaya,,Peru,850
850,Clem McLagain,cmclagainnl@bloglines.com,2b6f979ca2d1afd571b869a99eb3dc90f859d0bb,1873807552,8 Eliot Junction,Obubra,,Nigeria,851
851,Sherie Hackwell,shackwellnm@etsy.com,2b6f979ca2d1afd571b869a99eb3dc90f859d0bb,3626824279,88 Oneill Trail,Xingquan,,China,852
852,Ulysses Passmore,upassmorenn@yellowpages.com,2b6f979ca2d1afd571b869a99eb3dc90f859d0bb,4615948270,61 Elmside Avenue,Itaquaquecetuba,08570-000,Brazil,853
853,Francisca Basnett,fbasnettno@posterous.com,2b6f979ca2d1afd571b869a99eb3dc90f859d0bb,7859476459,6761 Morningstar Hill,Sap Yai,16150,Thailand,854
854,Madelle Orteu,morteunp@mozilla.org,2b6f979ca2d1afd571b869a99eb3dc90f859d0bb,7342822402,4 Katie Junction,Guaíba,92500-000,Brazil,855
855,Irena Stopforth,istopforthnq@netvibes.com,2b6f979ca2d1afd571b869a99eb3dc90f859d0bb,9774132780,48707 New Castle Road,Kratié,,Cambodia,856
856,Hugues Creaser,hcreasernr@canalblog.com,2b6f979ca2d1afd571b869a99eb3dc90f859d0bb,1411986847,3 Morning Park,Ruda Maleniecka,26-242,Poland,857
857,Sergent Scholes,sscholesns@cbslocal.com,2b6f979ca2d1afd571b869a99eb3dc90f859d0bb,2455755361,48541 Anniversary Place,San Luis Ixcán,09022,Guatemala,858
858,Hendrika Gallifont,hgallifontnt@weibo.com,2b6f979ca2d1afd571b869a99eb3dc90f859d0bb,9694932711,7292 West Point,Les Cèdres,J6S,Canada,859
859,Patrizia Abbatini,pabbatininu@e-recht24.de,2b6f979ca2d1afd571b869a99eb3dc90f859d0bb,7802567917,96 Westerfield Way,Zaragoza,26930,Mexico,860
860,Sauncho McGuggy,smcguggynv@devhub.com,2b6f979ca2d1afd571b869a99eb3dc90f859d0bb,7731155185,0 Dunning Point,Jinhe,,China,861
861,Halley Gookes,hgookesnw@ebay.com,2b6f979ca2d1afd571b869a99eb3dc90f859d0bb,1742142989,9 Reinke Terrace,Ambunti,,Papua New Guinea,862
862,Emili Ferries,eferriesnx@mozilla.org,2b6f979ca2d1afd571b869a99eb3dc90f859d0bb,4474266414,28 7th Trail,Beirut,,Lebanon,863
863,Julieta Knighton,jknightonny@photobucket.com,2b6f979ca2d1afd571b869a99eb3dc90f859d0bb,7089283681,02967 Shelley Center,Lubochnia,97-217,Poland,864
864,Cornelle Damrel,cdamrelnz@washingtonpost.com,2b6f979ca2d1afd571b869a99eb3dc90f859d0bb,2513845417,09486 Dunning Drive,Waitara,4346,New Zealand,865
865,Mitchel Hannond,mhannondo0@howstuffworks.com,2b6f979ca2d1afd571b869a99eb3dc90f859d0bb,7845493502,0 Ridge Oak Way,Salinungan Proper,1717,Philippines,866
866,Merrili Florence,mflorenceo1@wp.com,2b6f979ca2d1afd571b869a99eb3dc90f859d0bb,3919911578,59111 Beilfuss Crossing,San Antonio,4503,Argentina,867
867,Corabelle Goldster,cgoldstero2@nih.gov,2b6f979ca2d1afd571b869a99eb3dc90f859d0bb,9927834761,40 Waubesa Park,Guiniculalay,2017,Philippines,868
868,Haley Nutkins,hnutkinso3@t-online.de,2b6f979ca2d1afd571b869a99eb3dc90f859d0bb,7107934293,44471 Blue Bill Park Street,Formosa do Rio Preto,47990-000,Brazil,869
869,Earl Oertzen,eoertzeno4@webs.com,2b6f979ca2d1afd571b869a99eb3dc90f859d0bb,9002677883,53878 Weeping Birch Lane,Armação de Búzios,89790-000,Brazil,870
870,Lucais Genicke,lgenickeo5@elegantthemes.com,2b6f979ca2d1afd571b869a99eb3dc90f859d0bb,7607354572,17652 Morrow Trail,Barguzin,671610,Russia,871
871,Torrence Crowthe,tcrowtheo6@gnu.org,2b6f979ca2d1afd571b869a99eb3dc90f859d0bb,2702501133,40 Reindahl Pass,Gabès,,Tunisia,872
872,Arley Lethieulier,alethieuliero7@sina.com.cn,2b6f979ca2d1afd571b869a99eb3dc90f859d0bb,1901184775,581 Milwaukee Road,Gaotang,,China,873
873,Julian Eustace,jeustaceo8@google.co.uk,2b6f979ca2d1afd571b869a99eb3dc90f859d0bb,2883018218,3966 Hudson Drive,Chor,47001,Pakistan,874
874,Charlot Stoodale,cstoodaleo9@com.com,2b6f979ca2d1afd571b869a99eb3dc90f859d0bb,8263262264,98 4th Street,Armen,,Albania,875
875,Stephan Broose,sbrooseoa@godaddy.com,2b6f979ca2d1afd571b869a99eb3dc90f859d0bb,8967997047,3019 Waubesa Hill,Demir Hisar,7240,Macedonia,876
876,Fulton Backshell,fbackshellob@ftc.gov,2b6f979ca2d1afd571b869a99eb3dc90f859d0bb,3473869002,13274 Charing Cross Plaza,Volkhovskiy,173501,Russia,877
877,Bertie Draisey,bdraiseyoc@i2i.jp,2b6f979ca2d1afd571b869a99eb3dc90f859d0bb,2818758033,56 Loomis Point,Suugaant,,Mongolia,878
878,Bathsheba Weber,bweberod@shinystat.com,2b6f979ca2d1afd571b869a99eb3dc90f859d0bb,1422338963,9299 Sycamore Alley,Yumbel,,Chile,879
879,Ferdie Yanyushkin,fyanyushkinoe@facebook.com,2b6f979ca2d1afd571b869a99eb3dc90f859d0bb,7672659352,979 Bonner Drive,Nato,0950,Philippines,880
880,Stefania Pentlow,spentlowof@pagesperso-orange.fr,2b6f979ca2d1afd571b869a99eb3dc90f859d0bb,3661650136,21 Mosinee Circle,Svenljunga,512 93,Sweden,881
881,Jori Easom,jeasomog@ca.gov,2b6f979ca2d1afd571b869a99eb3dc90f859d0bb,7624442928,2 Ruskin Street,Centralniy,309534,Russia,882
882,Cherianne Pescod,cpescodoh@blogtalkradio.com,2b6f979ca2d1afd571b869a99eb3dc90f859d0bb,5622663271,92911 Buhler Terrace,Qitao,,China,883
883,Karia Bailess,kbailessoi@latimes.com,2b6f979ca2d1afd571b869a99eb3dc90f859d0bb,2244127638,27021 Schmedeman Court,Tanumshede,457 23,Sweden,884
884,Hamel Cescon,hcesconoj@360.cn,2b6f979ca2d1afd571b869a99eb3dc90f859d0bb,2404910094,181 Jay Junction,Waipukang,,Indonesia,885
885,Alleyn Kubecka,akubeckaok@google.nl,2b6f979ca2d1afd571b869a99eb3dc90f859d0bb,1873365496,3 Glendale Road,Sayán,,Peru,886
886,Noreen Corke,ncorkeol@gravatar.com,2b6f979ca2d1afd571b869a99eb3dc90f859d0bb,6245310631,19782 Waubesa Street,Frankfurt am Main,60549,Germany,887
887,Warren Peealess,wpeealessom@hexun.com,2b6f979ca2d1afd571b869a99eb3dc90f859d0bb,3035828302,072 Clarendon Trail,Qal‘eh Ganj,,Iran,888
888,Cecelia Allmond,callmondon@cpanel.net,2b6f979ca2d1afd571b869a99eb3dc90f859d0bb,8504970970,741 Prentice Park,Penápolis,16300-000,Brazil,889
889,Newton Mosedall,nmosedalloo@google.com.hk,2b6f979ca2d1afd571b869a99eb3dc90f859d0bb,5888029326,06507 Kropf Drive,Klimontów,32-112,Poland,890
890,Sasha Windrum,swindrumop@buzzfeed.com,2b6f979ca2d1afd571b869a99eb3dc90f859d0bb,2532986228,0074 Doe Crossing Circle,Seattle,98140,United States,891
891,Stearne Hele,sheleoq@nhs.uk,2b6f979ca2d1afd571b869a99eb3dc90f859d0bb,4796222678,4 2nd Plaza,Jhumra,50355,Pakistan,892
892,Monty Eteen,meteenor@exblog.jp,2b6f979ca2d1afd571b869a99eb3dc90f859d0bb,5409917686,2178 Laurel Way,Sidomulyo,,Indonesia,893
893,Wells Brendish,wbrendishos@miibeian.gov.cn,2b6f979ca2d1afd571b869a99eb3dc90f859d0bb,7336700791,9070 Eliot Circle,Lyon,69469 CEDEX 06,France,894
894,Norrie Harme,nharmeot@hao123.com,2b6f979ca2d1afd571b869a99eb3dc90f859d0bb,5125222854,4820 West Junction,Chuncheng,,China,895
895,Elsa Dombrell,edombrellou@nih.gov,2b6f979ca2d1afd571b869a99eb3dc90f859d0bb,9921384003,342 Upham Point,Gambaru,,Nigeria,896
896,Donna Gooms,dgoomsov@bbb.org,2b6f979ca2d1afd571b869a99eb3dc90f859d0bb,2064745453,9243 Helena Lane,Seattle,98195,United States,897
897,Gwen Biddy,gbiddyow@booking.com,2b6f979ca2d1afd571b869a99eb3dc90f859d0bb,4407897863,789 Erie Place,Azun Atme,,Palestinian Territory,898
898,Lionello Tewelson,ltewelsonox@msn.com,2b6f979ca2d1afd571b869a99eb3dc90f859d0bb,6756020449,302 Onsgard Lane,Siva,617248,Russia,899
899,Emmott Inch,einchoy@pinterest.com,2b6f979ca2d1afd571b869a99eb3dc90f859d0bb,8211248043,594 Esch Alley,Khlevnoye,399260,Russia,900
900,Joanna Lantiff,jlantiffoz@webeden.co.uk,2b6f979ca2d1afd571b869a99eb3dc90f859d0bb,6887348431,9 Bowman Junction,Jiuxian,,China,901
901,Zerk Hudson,zhudsonp0@baidu.com,2b6f979ca2d1afd571b869a99eb3dc90f859d0bb,6995415404,701 Hazelcrest Trail,Guyi,,China,902
902,Glenda Daouse,gdaousep1@ow.ly,2b6f979ca2d1afd571b869a99eb3dc90f859d0bb,3222059611,00775 Pierstorff Avenue,Strelitsa,397815,Russia,903
903,Bibbye Yeulet,byeuletp2@state.gov,2b6f979ca2d1afd571b869a99eb3dc90f859d0bb,1609109718,3 East Alley,Klyuchevskiy,632514,Russia,904
904,Alina Purselowe,apurselowep3@virginia.edu,2b6f979ca2d1afd571b869a99eb3dc90f859d0bb,2933337604,809 Hooker Hill,Białołeka,05-094,Poland,905
905,Harri Buffery,hbufferyp4@blinklist.com,2b6f979ca2d1afd571b869a99eb3dc90f859d0bb,6447672052,719 Gerald Trail,Rongkou,,China,906
906,Glenn Fitzsymonds,gfitzsymondsp5@woothemes.com,2b6f979ca2d1afd571b869a99eb3dc90f859d0bb,3742634739,96 East Lane,Medina Estates,,Ghana,907
907,Alaster Baudains,abaudainsp6@slate.com,2b6f979ca2d1afd571b869a99eb3dc90f859d0bb,3183240756,28754 Clyde Gallagher Alley,Qal‘eh-ye Khvājeh,,Iran,908
908,Ryun Sutworth,rsutworthp7@aol.com,2b6f979ca2d1afd571b869a99eb3dc90f859d0bb,8991304918,5302 Ilene Terrace,Prosyana,,Ukraine,909
909,Jerrold Bree,jbreep8@eventbrite.com,2b6f979ca2d1afd571b869a99eb3dc90f859d0bb,2652731902,3 Nancy Street,Laveiras,2760-012,Portugal,910
910,Mathias Durham,mdurhamp9@privacy.gov.au,2b6f979ca2d1afd571b869a99eb3dc90f859d0bb,3421111981,86084 Reinke Plaza,Proletar,,Tajikistan,911
911,Sidonia Stitfall,sstitfallpa@npr.org,2b6f979ca2d1afd571b869a99eb3dc90f859d0bb,9877524869,04 Claremont Alley,Juli,,Peru,912
912,Babb Peaple,bpeaplepb@cbslocal.com,2b6f979ca2d1afd571b869a99eb3dc90f859d0bb,5285251735,1978 Killdeer Junction,Xiaomian,,China,913
913,Aurelea Todeo,atodeopc@live.com,2b6f979ca2d1afd571b869a99eb3dc90f859d0bb,1062955465,30146 Algoma Center,Jalal-Abad,,Kyrgyzstan,914
914,Olwen Roncelli,oroncellipd@google.it,2b6f979ca2d1afd571b869a99eb3dc90f859d0bb,6813907970,66 Fieldstone Way,Krasnoye,652577,Russia,915
915,Francene Gorringe,fgorringepe@toplist.cz,2b6f979ca2d1afd571b869a99eb3dc90f859d0bb,7221940725,60 Tennyson Plaza,Waśniów,27-425,Poland,916
916,Maurise Bartell,mbartellpf@instagram.com,2b6f979ca2d1afd571b869a99eb3dc90f859d0bb,7503093577,95 Debra Center,Cinunjang,,Indonesia,917
917,Eveleen Lott,elottpg@harvard.edu,2b6f979ca2d1afd571b869a99eb3dc90f859d0bb,9307447677,706 Alpine Avenue,Troparëvo,141662,Russia,918
918,Claudia Covil,ccovilph@elpais.com,2b6f979ca2d1afd571b869a99eb3dc90f859d0bb,9757917248,32390 Thackeray Center,Xintang,,China,919
919,Hayley Lilburne,hlilburnepi@washington.edu,2b6f979ca2d1afd571b869a99eb3dc90f859d0bb,9086796031,352 Mifflin Road,Nkongsamba,,Cameroon,920
920,Valera Crump,vcrumppj@indiatimes.com,2b6f979ca2d1afd571b869a99eb3dc90f859d0bb,1353292170,222 Oxford Park,Lensk,678149,Russia,921
921,Joscelin Cawsy,jcawsypk@omniture.com,2b6f979ca2d1afd571b869a99eb3dc90f859d0bb,7224169697,3377 Mitchell Alley,Zmiennica,36-212,Poland,922
922,Laura Machin,lmachinpl@zimbio.com,2b6f979ca2d1afd571b869a99eb3dc90f859d0bb,5722475874,7422 Bellgrove Crossing,Zhengcun,,China,923
923,Cchaddie Batchelor,cbatchelorpm@squarespace.com,2b6f979ca2d1afd571b869a99eb3dc90f859d0bb,5356449851,5793 Surrey Terrace,Trindade,56250-000,Brazil,924
924,Eli Mulderrig,emulderrigpn@deliciousdays.com,2b6f979ca2d1afd571b869a99eb3dc90f859d0bb,5424185960,76211 Forest Dale Trail,Dalubian,,China,925
925,Joshua Pie,jpiepo@t-online.de,2b6f979ca2d1afd571b869a99eb3dc90f859d0bb,8958619418,659 Bay Street,Santa Lucia,2712,Philippines,926
926,Bernhard Bracknell,bbracknellpp@sourceforge.net,2b6f979ca2d1afd571b869a99eb3dc90f859d0bb,4309411320,5918 Lunder Junction,San Antonio de Los Altos,,Venezuela,927
927,Risa Harrop,rharroppq@mit.edu,2b6f979ca2d1afd571b869a99eb3dc90f859d0bb,8104682321,85941 Golden Leaf Crossing,Palenggihan,,Indonesia,928
928,Lidia Guilleton,lguilletonpr@prlog.org,2b6f979ca2d1afd571b869a99eb3dc90f859d0bb,4441077964,5 Green Way,Bansalan,8005,Philippines,929
929,Chan Grushin,cgrushinps@1688.com,2b6f979ca2d1afd571b869a99eb3dc90f859d0bb,2143273619,64420 Erie Road,Dallas,75277,United States,930
930,Bogart Cappleman,bcapplemanpt@cmu.edu,2b6f979ca2d1afd571b869a99eb3dc90f859d0bb,2704304751,55 Farwell Circle,Koronganayam,,Indonesia,931
931,Ingrid Krolle,ikrollepu@google.es,2b6f979ca2d1afd571b869a99eb3dc90f859d0bb,5378014033,2949 Morrow Alley,Kalmunai,32300,Sri Lanka,932
932,Putnem Nizet,pnizetpv@wikipedia.org,2b6f979ca2d1afd571b869a99eb3dc90f859d0bb,7938371632,1 Farmco Terrace,Cergy-Pontoise,95021 CEDEX,France,933
933,Osmund Braithwait,obraithwaitpw@lycos.com,2b6f979ca2d1afd571b869a99eb3dc90f859d0bb,3539546638,9 Red Cloud Lane,Langádhia,,Greece,934
934,Marlena Skeeles,mskeelespx@google.pl,2b6f979ca2d1afd571b869a99eb3dc90f859d0bb,9288984392,9 Maywood Crossing,Jantake,,Indonesia,935
935,Rubin Durber,rdurberpy@topsy.com,2b6f979ca2d1afd571b869a99eb3dc90f859d0bb,8379135892,44939 Buell Junction,Rakiv Lis,,Ukraine,936
936,Jorrie Driussi,jdriussipz@twitter.com,2b6f979ca2d1afd571b869a99eb3dc90f859d0bb,4563158857,685 Annamark Park,Sibulan,6201,Philippines,937
937,Kinnie Monteaux,kmonteauxq0@wikipedia.org,2b6f979ca2d1afd571b869a99eb3dc90f859d0bb,6207276171,06467 Kinsman Way,Litibakul,,Indonesia,938
938,Tamqrah Aggs,taggsq1@accuweather.com,2b6f979ca2d1afd571b869a99eb3dc90f859d0bb,8885999649,690 Alpine Park,Stockholm,111 95,Sweden,939
939,Creight Dewick,cdewickq2@fda.gov,2b6f979ca2d1afd571b869a99eb3dc90f859d0bb,6972402635,83 Mcguire Pass,Mata-Utu,98600,Wallis and Futuna,940
940,Donia Behling,dbehlingq3@networksolutions.com,2b6f979ca2d1afd571b869a99eb3dc90f859d0bb,8117999634,45 School Parkway,Isesaki,321-4342,Japan,941
941,Godfrey O'Dogherty,godoghertyq4@uiuc.edu,2b6f979ca2d1afd571b869a99eb3dc90f859d0bb,5598192201,34 Old Gate Place,Santa Rita Aplaya,4201,Philippines,942
942,Merv Petherick,mpetherickq5@dropbox.com,2b6f979ca2d1afd571b869a99eb3dc90f859d0bb,8772395214,0668 Claremont Point,Abbeville,80146 CEDEX,France,943
943,Gayle Verrell,gverrellq6@disqus.com,2b6f979ca2d1afd571b869a99eb3dc90f859d0bb,8209707296,62155 Bay Circle,Santa Rita Village,96910,Guam,944
944,Garrard Innocenti,ginnocentiq7@prweb.com,2b6f979ca2d1afd571b869a99eb3dc90f859d0bb,6646714526,8059 Lakewood Gardens Crossing,Sabugo,2715-364,Portugal,945
945,Lanny Greenset,lgreensetq8@vinaora.com,2b6f979ca2d1afd571b869a99eb3dc90f859d0bb,2735184929,76 Lakewood Circle,Barg-e Matāl,,Afghanistan,946
946,Kizzie Medling,kmedlingq9@dell.com,2b6f979ca2d1afd571b869a99eb3dc90f859d0bb,5721686369,466 Jana Terrace,Lunec,2430,Philippines,947
947,Rosamond Pudsey,rpudseyqa@china.com.cn,2b6f979ca2d1afd571b869a99eb3dc90f859d0bb,9747776885,645 Stuart Court,Rajūzah,,Yemen,948
948,Ardelia Maxfield,amaxfieldqb@miitbeian.gov.cn,2b6f979ca2d1afd571b869a99eb3dc90f859d0bb,7071084671,6 Oriole Avenue,Quchi,,China,949
949,Shannen Bonner,sbonnerqc@ucoz.com,2b6f979ca2d1afd571b869a99eb3dc90f859d0bb,8372965854,02504 Lindbergh Hill,Przewóz,68-132,Poland,950
950,Noelani Paxman,npaxmanqd@amazon.de,2b6f979ca2d1afd571b869a99eb3dc90f859d0bb,1799653450,8 Prairie Rose Junction,Binuangeun,,Indonesia,951
951,Avis Salerg,asalergqe@slate.com,2b6f979ca2d1afd571b869a99eb3dc90f859d0bb,4277911498,95 Anniversary Hill,Jeponkrajan,,Indonesia,952
952,Austin Tourry,atourryqf@dailymail.co.uk,2b6f979ca2d1afd571b869a99eb3dc90f859d0bb,6623818065,929 Porter Way,Stryszów,34-146,Poland,953
953,Cookie Faull,cfaullqg@mayoclinic.com,2b6f979ca2d1afd571b869a99eb3dc90f859d0bb,9644278857,39393 Corry Crossing,Taocheng,,China,954
954,Elka Ramas,eramasqh@zimbio.com,2b6f979ca2d1afd571b869a99eb3dc90f859d0bb,7617106079,854 Dahle Way,Lapuan,3015,Philippines,955
955,Dall Rohlfing,drohlfingqi@jalbum.net,2b6f979ca2d1afd571b869a99eb3dc90f859d0bb,4968734630,0258 Oak Lane,Totoras,2144,Argentina,956
956,Harmonia Chapple,hchappleqj@webmd.com,2b6f979ca2d1afd571b869a99eb3dc90f859d0bb,4375533762,67 Comanche Street,Rožaje,,Montenegro,957
957,Ramona Rockall,rrockallqk@cnbc.com,2b6f979ca2d1afd571b869a99eb3dc90f859d0bb,7069247875,17 Riverside Road,Dongdai,,China,958
958,Cirillo Tander,ctanderql@sogou.com,2b6f979ca2d1afd571b869a99eb3dc90f859d0bb,3339159574,288 Park Meadow Pass,Toul,54204 CEDEX,France,959
959,Con Po,cpoqm@cbsnews.com,2b6f979ca2d1afd571b869a99eb3dc90f859d0bb,6836182633,6 Burrows Center,Kushelevka,658381,Russia,960
960,Jacenta Hamblington,jhamblingtonqn@sbwire.com,2b6f979ca2d1afd571b869a99eb3dc90f859d0bb,5785462910,0825 Lake View Park,Atalaia,87630-000,Brazil,961
961,Nikoletta Knivett,nknivettqo@techcrunch.com,2b6f979ca2d1afd571b869a99eb3dc90f859d0bb,9253341670,14 West Road,Pakham,92000,Thailand,962
962,Lydia Waring,lwaringqp@lycos.com,2b6f979ca2d1afd571b869a99eb3dc90f859d0bb,8586802872,8 Dapin Place,Podu,,China,963
963,Stanton Bachelor,sbachelorqq@newsvine.com,2b6f979ca2d1afd571b869a99eb3dc90f859d0bb,4963519642,50650 Forster Center,Ballsh,,Albania,964
964,Arlan Klainer,aklainerqr@flickr.com,2b6f979ca2d1afd571b869a99eb3dc90f859d0bb,6849553342,3311 Barby Avenue,Askim,436 23,Sweden,965
965,Floyd Peddie,fpeddieqs@lycos.com,2b6f979ca2d1afd571b869a99eb3dc90f859d0bb,5402257246,977 Darwin Park,Kozy,43-340,Poland,966
966,Boy McIlwraith,bmcilwraithqt@marriott.com,2b6f979ca2d1afd571b869a99eb3dc90f859d0bb,7503879157,839 Merrick Place,Barrī ash Sharqī,,Syria,967
967,Lion Elks,lelksqu@whitehouse.gov,2b6f979ca2d1afd571b869a99eb3dc90f859d0bb,4926010287,5 Pankratz Park,Puan Selatan,,Indonesia,968
968,Stefa Lisamore,slisamoreqv@digg.com,2b6f979ca2d1afd571b869a99eb3dc90f859d0bb,4794837343,53890 Portage Road,Sagopshi,386340,Russia,969
969,Leoline De Domenico,ldedomenicoqw@discovery.com,2b6f979ca2d1afd571b869a99eb3dc90f859d0bb,8177123164,9 Novick Avenue,Toulouse,31004 CEDEX 6,France,970
970,Bruis Weavers,bweaversqx@artisteer.com,2b6f979ca2d1afd571b869a99eb3dc90f859d0bb,4963606219,8000 Aberg Terrace,Samacá,153668,Colombia,971
971,Francene Norwell,fnorwellqy@go.com,2b6f979ca2d1afd571b869a99eb3dc90f859d0bb,9319125991,376 Mifflin Alley,Hammarö,663 42,Sweden,972
972,Tully Rigby,trigbyqz@sphinn.com,2b6f979ca2d1afd571b869a99eb3dc90f859d0bb,9188585346,1 Southridge Circle,Presidente Epitácio,19470-000,Brazil,973
973,Caroline Sparrowe,csparrower0@posterous.com,2b6f979ca2d1afd571b869a99eb3dc90f859d0bb,1965261983,32 Carberry Drive,Zgornje Pirniče,1356,Slovenia,974
974,Dulcea Heffron,dheffronr1@cafepress.com,2b6f979ca2d1afd571b869a99eb3dc90f859d0bb,7776466505,1 Farmco Way,Hisings Kärra,425 38,Sweden,975
975,Rebe Betjeman,rbetjemanr2@un.org,2b6f979ca2d1afd571b869a99eb3dc90f859d0bb,6827458646,46321 Pearson Center,Jixian,,China,976
976,Murielle Elster,melsterr3@hatena.ne.jp,2b6f979ca2d1afd571b869a99eb3dc90f859d0bb,5833474445,807 Bartelt Lane,Mrzezino,84-130,Poland,977
977,Lolly Vogelein,lvogeleinr4@prweb.com,2b6f979ca2d1afd571b869a99eb3dc90f859d0bb,3364878903,703 Hazelcrest Plaza,Kakanj,,Bosnia and Herzegovina,978
978,Adda Hamfleet,ahamfleetr5@vistaprint.com,2b6f979ca2d1afd571b869a99eb3dc90f859d0bb,5641000611,667 Dixon Place,Minh Long,,Vietnam,979
979,Fritz Humby,fhumbyr6@deliciousdays.com,2b6f979ca2d1afd571b869a99eb3dc90f859d0bb,1156656411,1193 Mcbride Junction,Dashiqiao,,China,980
980,Sarene Pedgrift,spedgriftr7@soup.io,2b6f979ca2d1afd571b869a99eb3dc90f859d0bb,2089054685,981 John Wall Drive,Boise,83727,United States,981
981,Burr Pol,bpolr8@google.co.jp,2b6f979ca2d1afd571b869a99eb3dc90f859d0bb,4996689298,8626 Pond Junction,Butuan,9021,Philippines,982
982,Sonja Bielby,sbielbyr9@loc.gov,2b6f979ca2d1afd571b869a99eb3dc90f859d0bb,2989562994,7336 Gulseth Parkway,Czerwionka-Leszczyny,44-238,Poland,983
983,Lonna Blinerman,lblinermanra@mtv.com,2b6f979ca2d1afd571b869a99eb3dc90f859d0bb,9886015388,1 Ridgeway Pass,Wołczyn,46-250,Poland,984
984,Durward Witcombe,dwitcomberb@archive.org,2b6f979ca2d1afd571b869a99eb3dc90f859d0bb,4214944929,81 Schurz Center,Mamara,,Peru,985
985,Jacobo Graber,jgraberrc@unblog.fr,2b6f979ca2d1afd571b869a99eb3dc90f859d0bb,2156617069,5393 Cardinal Place,Shiquan,,China,986
986,Karen Delgadillo,kdelgadillord@opensource.org,2b6f979ca2d1afd571b869a99eb3dc90f859d0bb,2895947749,2 Lake View Crossing,Göteborg,413 80,Sweden,987
987,Deidre Vanyakin,dvanyakinre@engadget.com,2b6f979ca2d1afd571b869a99eb3dc90f859d0bb,6867585952,4 Saint Paul Center,Lapas,2350-089,Portugal,988
988,Janeczka Ozelton,jozeltonrf@yellowpages.com,2b6f979ca2d1afd571b869a99eb3dc90f859d0bb,3713010080,66590 Ramsey Avenue,Kantemirovka,396730,Russia,989
989,Christiana Ponnsett,cponnsettrg@amazon.co.uk,2b6f979ca2d1afd571b869a99eb3dc90f859d0bb,5159319336,87 Shasta Trail,Na Tan,37180,Thailand,990
990,Kimble Basill,kbasillrh@macromedia.com,2b6f979ca2d1afd571b869a99eb3dc90f859d0bb,4847675946,2325 Buhler Plaza,Tsuyama,708-1124,Japan,991
991,Maxi Strettle,mstrettleri@tamu.edu,2b6f979ca2d1afd571b869a99eb3dc90f859d0bb,3251612805,3452 Buhler Trail,Penebel,,Indonesia,992
992,Anabelle Feasey,afeaseyrj@rediff.com,2b6f979ca2d1afd571b869a99eb3dc90f859d0bb,4768340190,20876 Larry Center,Promna,26-803,Poland,993
993,Jaquenetta Pyecroft,jpyecroftrk@barnesandnoble.com,2b6f979ca2d1afd571b869a99eb3dc90f859d0bb,9627311975,06 Sundown Way,Mweka,,Democratic Republic of the Congo,994
994,Donal Dochon,ddochonrl@boston.com,2b6f979ca2d1afd571b869a99eb3dc90f859d0bb,2336687194,067 Sommers Crossing,Zhireken,673498,Russia,995
995,Jecho Wrench,jwrenchrm@smh.com.au,2b6f979ca2d1afd571b869a99eb3dc90f859d0bb,4136019011,05890 Sachs Pass,Cerinza,150627,Colombia,996
996,Nero Lyddiatt,nlyddiattrn@facebook.com,2b6f979ca2d1afd571b869a99eb3dc90f859d0bb,7164354160,5059 Novick Parkway,Koatas Lao,,Indonesia,997
997,Zea Sapey,zsapeyro@altervista.org,2b6f979ca2d1afd571b869a99eb3dc90f859d0bb,4508640694,04409 Sunfield Alley,Toba,,Serbia,998
998,Gladi Donoher,gdonoherrp@usda.gov,2b6f979ca2d1afd571b869a99eb3dc90f859d0bb,3729585787,463 Almo Road,Az Zulfi,,Saudi Arabia,999
999,Nadya MacCaughan,nmaccaughanrq@usnews.com,2b6f979ca2d1afd571b869a99eb3dc90f859d0bb,2311321029,4 Esch Lane,Gaoling,,China,1000
1000,Tadd Krollman,tkrollmanrr@newsvine.com,2b6f979ca2d1afd571b869a99eb3dc90f859d0bb,2573270706,3732 Lerdahl Point,Pesqueira,55200-000,Brazil,1001
